iata,name,city,state,country,latitude,longitude
00M,USBP,Bay Springs,MS,USA,31.95376472,-89.23450472
00R,USBP,Livingston,TX,USA,30.68586111,-95.01792778
00V,USBP,Colorado Springs,CO,USA,38.94574889,-104.5698933
01G,USBP,Perry,NY,USA,42.74134667,-78.05208056
01J,USBP,Hilliard,FL,USA,30.6880125,-81.90594389
01M,USBP,Belmont,MS,USA,34.49166667,-88.20111111
02A,USBP,Clanton,AL,USA,32.85048667,-86.61145333
02C,USBP,Brookfield,WI,USA,43.08751,-88.17786917
02G,USBP,East Liverpool,OH,USA,40.67331278,-80.64140639
03D,USBP,Memphis,MO,USA,40.44725889,-92.22696056
04M,USBP,Pittsboro,MS,USA,33.93011222,-89.34285194
04Y,USBP,Hawley,MN,USA,46.88384889,-96.35089861
05C,USBP,Griffith,IN,USA,41.51961917,-87.40109333
05F,USBP,Gatesville,TX,USA,31.42127556,-97.79696778
05U,USBP,Eureka,NV,USA,39.60416667,-116.0050597
06A,USBP,Tuskegee,AL,USA,32.46047167,-85.68003611
06C,USBP,Chicago/Schaumburg,IL,USA,41.98934083,-88.10124278
06D,USBP,Rolla,ND,USA,48.88434111,-99.62087694
06M,USBP,Eupora,MS,USA,33.53456583,-89.31256917
06N,USBP,Middletown,NY,USA,41.43156583,-74.39191722
06U,USBP,Jackpot,NV,USA,41.97602222,-114.6580911
07C,USBP,Auburn,IN,USA,41.30716667,-85.06433333
07F,USBP,Gladewater,TX,USA,32.52883861,-94.97174556
07G,USBP,Charlotte,MI,USA,42.57450861,-84.81143139
07K,USBP,Central City,NE,USA,41.11668056,-98.05033639
08A,USBP,Wetumpka,AL,USA,32.52943944,-86.32822139
08D,USBP,Stanley,ND,USA,48.30079861,-102.4063514
08K,USBP,Harvard,NE,USA,40.65138528,-98.07978667
08M,USBP,Carthage,MS,USA,32.76124611,-89.53007139
09A,USBP,Butler,AL,USA,32.11931306,-88.1274625
09J,USBP,Jekyll Island,GA,USA,31.07447222,-81.42777778
09K,USBP,Sargent,NE,USA,41.63695083,-99.34038139
09M,USBP,Charleston,MS,USA,33.99150222,-90.078145
09W,USBP,Washington,DC,USA,38.86872333,-77.00747583
0A3,USBP,Smithville,TN,USA,35.98531194,-85.80931806
0A8,USBP,Centreville,AL,USA,32.93679056,-87.08888306
0A9,USBP,Elizabethton,TN,USA,36.37094306,-82.17374111
0AK,USBP,Pilot Station,AK,USA,61.93396417,-162.8929358
0B1,USBP,Bethel,ME,USA,44.42506444,-70.80784778
0B4,USBP,Hartington,NE,USA,42.60355556,-97.25263889
0B5,USBP,Montague,MA,USA,42.59136361,-72.52275472
0B7,USBP,Warren,VT,USA,44.11672722,-72.82705806
0B8,USBP,Fishers Island,NY,USA,41.25130806,-72.03161139
0C0,USBP,Chicago/Harvard,IL,USA,42.40418556,-88.63343222
0C4,USBP,Pender,NE,USA,42.11388722,-96.72892556
0D1,USBP,South Haven,MI,USA,42.35083333,-86.25613889
0D8,USBP,Gettysburg,SD,USA,44.98730556,-99.9535
0.00E+00,USBP,Moriarty,NM,USA,34.98560639,-106.0094661
0.00E+00,USBP,Crownpoint,NM,USA,35.71765889,-108.2015961
0F2,USBP,Bowie,TX,USA,33.60166667,-97.77556
0F4,USBP,Loup City,NE,USA,41.29028694,-98.99064278
0F7,USBP,Eufaula,OK,USA,35.38898833,-95.60165111
0F8,USBP,Sand Springs,OK,USA,36.17528,-96.15181028
0F9,USBP,Tishomingo,OK,USA,34.19592833,-96.67555694
0G0,USBP,Lockport,NY,USA,43.10318389,-78.70334583
0G3,USBP,Tecumseh,NE,USA,40.39944417,-96.17139694
0G6,USBP,Bryan,OH,USA,41.46736111,-84.50655556
0G7,USBP,Seneca Falls,NY,USA,42.88062278,-76.78162028
0H1,USBP,Wakeeney,KS,USA,39.0044525,-99.89289917
0I8,USBP,Cynthiana,KY,USA,38.36674167,-84.28410056
0J0,USBP,Abbeville,AL,USA,31.60016778,-85.23882222
0J4,USBP,Florala,AL,USA,31.04247361,-86.31156111
0J6,USBP,Headland,AL,USA,31.364895,-85.30965556
0K7,USBP,Humboldt,IA,USA,42.7360825,-94.24524167
0L5,USBP,Goldfield,NV,USA,37.71798833,-117.2384119
0L7,USBP,Jean,NV,USA,35.76827222,-115.3296378
0L9,USBP,Overton,NV,USA,36.31108972,-114.4638672
0M0,USBP,Dumas,AR,USA,33.8845475,-91.53429111
0M1,USBP,Parsons,TN,USA,35.63778,-88.127995
0M4,USBP,Camden,TN,USA,36.01122694,-88.12328833
0M5,USBP,Waverly,TN,USA,36.11659972,-87.73815889
0M6,USBP,Batesville,MS,USA,34.36677444,-89.90008917
0M8,USBP,Lake Providence,LA,USA,32.82587917,-91.187665
0O3,USBP,San Andreas,CA,USA,38.14611639,-120.6481733
0O4,USBP,Corning,CA,USA,39.94376806,-122.1713781
0O5,USBP,Davis,CA,USA,38.53146222,-121.7864906
0Q5,USBP,Shelter Cove,CA,USA,40.02764333,-124.0733639
0Q6,USBP,Shingletown,CA,USA,40.52210111,-121.8177683
0R0,USBP,Columbia,MS,USA,31.29700806,-89.81282944
0R1,USBP,Atmore,AL,USA,31.01621528,-87.44675972
0R3,USBP,Abbeville,LA,USA,29.97576083,-92.08415167
0R4,USBP,Vidalia,LA,USA,31.56683278,-91.50011889
0R5,USBP,Winnfield,LA,USA,31.96366222,-92.66026056
0R7,USBP,Coushatta,LA,USA,31.99071694,-93.30739306
0S7,USBP,Oroville,WA,USA,48.958965,-119.4119622
0S9,USBP,Port Townsend,WA,USA,48.04981361,-122.8012792
0V2,USBP,Salida,CO,USA,38.53916389,-106.0458483
0V3,USBP,Minden,NE,USA,40.5149125,-98.94565083
0V4,USBP,Brookneal,VA,USA,37.14172222,-79.01638889
0V6,USBP,Mission,SD,USA,43.30694778,-100.6281936
0V7,USBP,Kayenta,AZ,USA,36.70972139,-110.2367978
10C,USBP,Chicago/Greenwood/Wonderlake,IL,USA,42.40266472,-88.37588917
10D,USBP,Winsted,MN,USA,44.94996278,-94.0669175
10G,USBP,Millersburg,OH,USA,40.53716667,-81.95436111
10N,USBP,Wallkill,NY,USA,41.62787111,-74.13375583
10U,USBP,Owyhee,NV,USA,41.95323306,-116.1876014
11A,USBP,Clayton,AL,USA,31.88329917,-85.48491361
11D,USBP,Clarion,PA,USA,41.22581222,-79.44098972
11IS,USBP,Chicago/Schaumburg,IL,USA,42.04808278,-88.05257194
11J,USBP,Blakely,GA,USA,31.39698611,-84.89525694
11R,USBP,Brenham,TX,USA,30.219,-96.37427778
12C,USBP,Rochelle,IL,USA,41.89300139,-89.07829
12D,USBP,Tower,MN,USA,47.81833333,-92.29166667
12J,USBP,Brewton,AL,USA,31.05126306,-87.06796833
12K,USBP,Superior,NE,USA,40.04636111,-98.06011111
12Y,USBP,Le Sueur,MN,USA,44.43746472,-93.91274083
13C,USBP,Lakeview,MI,USA,43.45213722,-85.26480333
13K,USBP,Eureka,KS,USA,37.8515825,-96.29169806
13N,USBP,Andover,NJ,USA,40.96676444,-74.78016556
14J,USBP,Elba,AL,USA,31.40988861,-86.08883583
14M,USBP,Hollandale,MS,USA,33.18262167,-90.83065444
14Y,USBP,Long Prairie,MN,USA,45.89857556,-94.87391
15F,USBP,Haskell,TX,USA,33.19155556,-99.71793056
15J,USBP,Adel,GA,USA,31.13780556,-83.45308333
15M,USBP,Luka,MS,USA,34.7723125,-88.16587444
15Z,USBP,McCarthy,AK,USA,61.43706083,-142.9037372
16A,USBP,Nunapitchuk,AK,USA,60.90582833,-162.4391158
16G,USBP,Tiffin,OH,USA,41.09405556,-83.2125
16J,USBP,Dawson,GA,USA,31.74328472,-84.419285
16S,USBP,Myrtle Creek,OR,USA,42.99845056,-123.3095092
17G,USBP,Bucyrus,OH,USA,40.78141667,-82.97469444
17J,USBP,Donalsonville,GA,USA,31.00694444,-84.87761111
17K,USBP,Boise City,OK,USA,36.77430028,-102.5104364
17M,USBP,Magee,MS,USA,31.86127139,-89.80285361
17N,USBP,Cross Keys,NJ,USA,39.70547583,-75.03300306
17Z,USBP,Manokotak,AK,USA,58.98896583,-159.0499739
18A,USBP,Canon,GA,USA,34.34010472,-83.13348333
18I,USBP,Pine Knot,KY,USA,36.69591306,-84.39160389
19A,USBP,Jefferson,GA,USA,34.17402472,-83.56066528
19M,USBP,Lexington,MS,USA,33.12546111,-90.02555694
19N,USBP,Berlin,NJ,USA,39.77842056,-74.94780389
19P,USBP,Port Protection,AK,USA,56.32880417,-133.6100844
1A3,USBP,Copperhill,TN,USA,35.01619111,-84.34631083
1A5,USBP,Franklin,NC,USA,35.222595,-83.41904389
1A6,USBP,Middlesboro,KY,USA,36.6106375,-83.73741611
1A7,USBP,Gainesboro,TN,USA,36.39728139,-85.64164278
1A9,USBP,Prattville,AL,USA,32.438775,-86.51044778
1B0,USBP,Dexter,ME,USA,45.00839444,-69.23976722
1B1,USBP,Hudson,NY,USA,42.29130028,-73.71031944
1B3,USBP,Fair Haven,VT,USA,43.61534389,-73.27455556
1B9,USBP,Mansfield,MA,USA,42.00013306,-71.19677139
1C5,USBP,Chicago/Plainfield,IL,USA,41.69597444,-88.12923056
1D1,USBP,Milbank,SD,USA,45.23053806,-96.56596556
1D2,USBP,Plymouth,MI,USA,42.35003667,-83.45826833
1D3,USBP,Platte,SD,USA,43.40332833,-98.82952972
1D6,USBP,Hector,MN,USA,44.73107278,-94.71471333
1D7,USBP,Webster,SD,USA,45.29329111,-97.51369889
1D8,USBP,Redfield,SD,USA,44.86247611,-98.52953972
1F0,USBP,Ardmore,OK,USA,34.14698917,-97.12265194
1F1,USBP,Overbrook,OK,USA,34.07509694,-97.10667917
1F4,USBP,Madill,OK,USA,34.14040194,-96.81203222
1F9,USBP,Bridgeport,TX,USA,33.17533333,-97.82838889
1G0,USBP,Bowling Green,OH,USA,41.391,-83.63013889
1G3,USBP,Kent,OH,USA,41.15186167,-81.41658306
1G4,USBP,Peach Springs,AZ,USA,35.99221,-113.8166164
1G5,USBP,Medina,OH,USA,41.13144444,-81.76491667
1G6,USBP,Cicero,NY,USA,43.18166667,-76.12777778
1H0,USBP,St Louis,MO,USA,38.72752,-90.50830417
1H2,USBP,Effingham,IL,USA,39.07045083,-88.53351972
1H3,USBP,Linn,MO,USA,38.47149444,-91.81531667
1H8,USBP,Casey,IL,USA,39.30250917,-88.00406194
1I5,USBP,Freehold,NY,USA,42.36425,-74.06596806
1I9,USBP,Delphi,IN,USA,40.54281417,-86.68167194
1J0,USBP,Bonifay,FL,USA,30.84577778,-85.60138889
1K2,USBP,Lindsay,OK,USA,34.85007333,-97.58642028
1K4,USBP,Goldsby,OK,USA,35.1550675,-97.47039389
1K5,USBP,Waynoka,OK,USA,36.56670028,-98.85231333
1K9,USBP,Satanta,KS,USA,37.45419111,-100.9921119
1L0,USBP,Reserve,LA,USA,30.08720833,-90.58266528
1L1,USBP,Panaca,NV,USA,37.78746444,-114.4216567
1L7,USBP,Escalante,UT,USA,37.74532639,-111.5701653
1L9,USBP,Parowan,UT,USA,37.85969694,-112.816055
1M1,USBP,No Lit Rock,AR,USA,34.83398056,-92.25792778
1M2,USBP,Belzoni,MS,USA,33.14518056,-90.51528472
1M4,USBP,Haleyville,AL,USA,34.28034806,-87.60044139
1M5,USBP,Portland,TN,USA,36.59287528,-86.47691028
1M7,USBP,Fulton,KY,USA,36.52589417,-88.91561611
1MO,USBP,Mountain Grove,MO,USA,37.12071889,-92.311245
1N2,USBP,East Moriches,NY,USA,40.82787639,-72.74871083
1N4,USBP,Woodbine,NJ,USA,39.21915,-74.794765
1N7,USBP,Blairstown,NJ,USA,40.97114556,-74.99747556
1N9,USBP,Allentown,PA,USA,40.57027778,-75.48830556
1ND3,USBP,Kindred,ND,USA,46.6485775,-97.00564306
1O1,USBP,Grandfield,OK,USA,34.23758944,-98.74200917
1O2,USBP,Lakeport,CA,USA,38.99017472,-122.8997175
1O3,USBP,Lodi,CA,USA,38.20241667,-121.2684167
1O4,USBP,Thomas,OK,USA,35.73338222,-98.73063833
1O6,USBP,Dunsmuir,CA,USA,41.26320889,-122.2719528
1R1,USBP,Jena,LA,USA,31.671005,-92.15846722
1R7,USBP,Brookhaven,MS,USA,31.6058475,-90.40931583
1R8,USBP,Bay Minette,AL,USA,30.87046278,-87.81738167
1S0,USBP,Puyallup,WA,USA,47.10391667,-122.2871944
1S3,USBP,Forsyth,MT,USA,46.27110639,-106.6239206
1S5,USBP,Sunnyside,WA,USA,46.32763139,-119.9705964
1S6,USBP,Priest River,ID,USA,48.19018611,-116.9093644
1U7,USBP,Paris,ID,USA,42.24714972,-111.33826
1V0,USBP,Navajo Dam,NM,USA,36.80833833,-107.6514444
1V2,USBP,Hyannis,NE,USA,42.00942944,-101.7693439
1V5,USBP,Boulder,CO,USA,40.03942972,-105.2258217
1V6,USBP,Canon City,CO,USA,38.42838111,-105.1054994
1V9,USBP,Delta,CO,USA,38.78539722,-108.0636611
20A,USBP,Oneonta,AL,USA,33.97231972,-86.37942722
20M,USBP,Macon,MS,USA,33.13345889,-88.53559806
20N,USBP,Kingston,NY,USA,41.9852525,-73.96409722
20U,USBP,Beach,ND,USA,46.92362444,-103.9785389
20V,USBP,Kremmling,CO,USA,40.05367972,-106.3689467
21D,USBP,St Paul,MN,USA,44.99748861,-92.85568111
21F,USBP,Jacksboro,TX,USA,33.228725,-98.14671083
22B,USBP,Burlington,CT,USA,41.77287528,-73.01121667
22I,USBP,McArthur,OH,USA,39.328125,-82.44182167
22M,USBP,Pontotoc,MS,USA,34.27593833,-89.03839694
22N,USBP,Lehighton,PA,USA,40.80950889,-75.76149639
23J,USBP,Jacksonville,FL,USA,30.27778889,-81.80594722
23M,USBP,Quitman,MS,USA,32.08487111,-88.73893389
23N,USBP,Bayport,NY,USA,40.75843139,-73.05372083
23R,USBP,Devine,TX,USA,29.1384075,-98.94189028
24A,USBP,Sylva,NC,USA,35.3168625,-83.20936806
24J,USBP,Live Oak,FL,USA,30.30105583,-83.02318778
24N,USBP,Dulce,NM,USA,36.828535,-106.8841914
25J,USBP,Cuthbert,GA,USA,31.70016583,-84.82492194
25M,USBP,Ripley,MS,USA,34.72226778,-89.01504944
25R,USBP,Edinburg,TX,USA,26.44201083,-98.12945306
26A,USBP,Ashland/Lineville,AL,USA,33.28761417,-85.80412861
26N,USBP,Ocean City,NJ,USA,39.26347222,-74.60747222
26R,USBP,Edna/Ganado,TX,USA,29.00101,-96.58194667
26U,USBP,McDermitt,OR,USA,42.00211083,-117.7231972
27A,USBP,Elberton,GA,USA,34.09519722,-82.81586417
27D,USBP,Canby,MN,USA,44.72801889,-96.26309972
27J,USBP,Newberry,SC,USA,34.30927778,-81.63972222
27K,USBP,Georgetown,KY,USA,38.23442528,-84.43468667
28J,USBP,Palatka,FL,USA,29.65863889,-81.68855556
29D,USBP,Grove City,PA,USA,41.14597611,-80.16592194
29G,USBP,Ravenna,OH,USA,41.210195,-81.25163083
29S,USBP,Gardiner,MT,USA,45.04993556,-110.7466008
2A0,USBP,Dayton,TN,USA,35.48624611,-84.93109722
2A1,USBP,Jamestown,TN,USA,36.34970833,-84.94664472
2A3,USBP,Larsen Bay,AK,USA,57.53510667,-153.9784169
2A9,USBP,Kotlik,AK,USA,63.03116111,-163.5299278
2AK,USBP,Lime Village,AK,USA,61.35848528,-155.4403508
2B3,USBP,Newport,NH,USA,43.38812944,-72.18925417
2B7,USBP,Pittsfield,ME,USA,44.76852778,-69.37441667
2B9,USBP,Post Mills,VT,USA,43.884235,-72.25370333
2D1,USBP,Alliance,OH,USA,40.97089139,-81.09981889
2D5,USBP,Oakes,ND,USA,46.17301972,-98.07987556
2F5,USBP,Lamesa,TX,USA,32.75627778,-101.9194722
2F6,USBP,Skiatook,OK,USA,36.357035,-96.01138556
2F7,USBP,Commerce,TX,USA,33.29288889,-95.89641806
2F8,USBP,Bastrop,LA,USA,32.75607944,-91.88057194
2G2,USBP,Steubenville,OH,USA,40.35944306,-80.70007806
2G3,USBP,Connellsville,PA,USA,39.95893667,-79.65713306
2G4,USBP,Oakland,MD,USA,39.58027778,-79.33941667
2G9,USBP,Somerset,PA,USA,40.03911111,-79.01455556
2H0,USBP,Shelbyville,IL,USA,39.41042861,-88.8454325
2H2,USBP,Aurora,MO,USA,36.96230778,-93.69531111
2I0,USBP,Madisonville,KY,USA,37.35502778,-87.39963889
2I5,USBP,Rantoul,IL,USA,40.29355556,-88.14236111
2IS,USBP,Clewiston,FL,USA,26.74200972,-81.04978917
2J2,USBP,Hinesville,GA,USA,31.78461111,-81.64116667
2J3,USBP,Louisville,GA,USA,32.98654083,-82.38568139
2J5,USBP,Millen,GA,USA,32.89376972,-81.96511583
2J9,USBP,Quincy,FL,USA,30.59786111,-84.55741667
2K3,USBP,Johnson,KS,USA,37.58271111,-101.73281
2K4,USBP,Mangum,OK,USA,34.89172583,-99.52675667
2K5,USBP,Telida,AK,USA,63.39387278,-153.2689733
2M0,USBP,Princeton,KY,USA,37.11560444,-87.85556944
2M2,USBP,Lawrenceburg,TN,USA,35.2343025,-87.25793222
2M3,USBP,Sallisaw,OK,USA,35.43816667,-94.80277778
2M4,USBP,Forest,MS,USA,32.35347778,-89.48867944
2M8,USBP,Millington,TN,USA,35.27897583,-89.93147611
2O1,USBP,Quincy,CA,USA,39.94378056,-120.9468983
2O3,USBP,Angwin,CA,USA,38.57851778,-122.4352572
2O6,USBP,Chowchilla,CA,USA,37.11244417,-120.2468406
2O7,USBP,Independence,CA,USA,36.81382111,-118.2050956
2O8,USBP,Hinton,OK,USA,35.50592472,-98.34236111
2P2,USBP,Washington Island,WI,USA,45.38620833,-86.92448056
2Q3,USBP,Davis/Woodland/Winters,CA,USA,38.5790725,-121.8566322
2R0,USBP,Waynesboro,MS,USA,31.64599472,-88.63475667
2R4,USBP,Milton,FL,USA,30.63762083,-86.99365278
2R5,USBP,St Elmo,AL,USA,30.50190833,-88.27511667
2R9,USBP,Kenedy,TX,USA,28.8250075,-97.86558333
2S1,USBP,Vashon,WA,USA,47.45815333,-122.4773506
2S6,USBP,Newberg,OR,USA,45.29567333,-122.9553783
2S7,USBP,Chiloquin,OR,USA,42.58319167,-121.8761261
2S8,USBP,Wilbur,WA,USA,47.75320639,-118.7438936
2T1,USBP,Muleshoe,TX,USA,34.18513639,-102.6410981
2V1,USBP,Pagosa Springs,CO,USA,37.277505,-107.0558742
2V2,USBP,Longmont,CO,USA,40.16367139,-105.1630369
2V5,USBP,Wray,CO,USA,40.10032333,-102.24096
2V6,USBP,Yuma,CO,USA,40.10415306,-102.7129869
2W5,USBP,Indian Head,MD,USA,38.60053667,-77.07296917
2W6,USBP,Leonardtown,MD,USA,38.31536111,-76.55011111
2Y3,USBP,Yakutat,AK,USA,59.5624775,-139.7410994
2Y4,USBP,Rockwell City,IA,USA,42.38748056,-94.61803333
31F,USBP,Seminole,TX,USA,32.67535389,-102.652685
32M,USBP,Norfolk,MA,USA,42.12787528,-71.37033556
32S,USBP,Stevensville,MT,USA,46.52511111,-114.0528056
33J,USBP,Geneva,AL,USA,31.05527778,-85.88033333
33M,USBP,Water Valley,MS,USA,34.16677639,-89.68619722
33N,USBP,Dover,DE,USA,39.21837556,-75.59642667
33S,USBP,Ritzville,WA,USA,47.12487194,-118.3927539
34A,USBP,Laurens,SC,USA,34.50705556,-81.94719444
35A,USBP,Union,SC,USA,34.68680111,-81.64121167
35D,USBP,Allegan,MI,USA,42.53098278,-85.82513556
35S,USBP,Wasco,OR,USA,45.58944444,-120.6741667
36K,USBP,Lakin,KS,USA,37.96946389,-101.2554472
36S,USBP,Happy Camp,CA,USA,41.79067944,-123.3889444
36U,USBP,Heber,UT,USA,40.48180556,-111.4288056
37T,USBP,Calico Rock,AR,USA,36.16565278,-92.14523611
37W,USBP,Erwin,NC,USA,35.37880028,-78.73362917
38A,USBP,Shaktoolik,AK,USA,64.36263194,-161.2025369
38S,USBP,Deer Lodge,MT,USA,46.38881583,-112.7669842
38U,USBP,Loa,UT,USA,38.36247972,-111.5960164
39N,USBP,Princeton,NJ,USA,40.39834833,-74.65760361
3A0,USBP,Grove Hill,AL,USA,31.68932389,-87.7613875
3A1,USBP,Cullman,AL,USA,34.26870833,-86.85833611
3A2,USBP,Tazewell,TN,USA,36.41008417,-83.55546167
3A3,USBP,Wadesboro,NC,USA,35.02397611,-80.08127333
3AU,USBP,Augusta,KS,USA,37.67162778,-97.07787222
3B0,USBP,Southbridge,MA,USA,42.10092806,-72.03840833
3B1,USBP,Greenville,ME,USA,45.46302778,-69.55161111
3B2,USBP,Marshfield,MA,USA,42.09824111,-70.67212083
3B9,USBP,Chester,CT,USA,41.38390472,-72.50589444
3BS,USBP,Midland,MI,USA,43.66291528,-84.261325
3CK,USBP,Lake In The Hills,IL,USA,42.20680306,-88.32304028
3CM,USBP,Bay City,MI,USA,43.54691667,-83.89550222
3CU,USBP,Cable,WI,USA,46.19424889,-91.24640972
3D2,USBP,Ephraim,WI,USA,45.13535778,-87.18586556
3D4,USBP,Frankfort,MI,USA,44.62506389,-86.20061944
3F3,USBP,Mansfield,LA,USA,32.07345972,-93.76551889
3F4,USBP,Vivian,LA,USA,32.86133333,-94.01015361
3F7,USBP,Bristow,OK,USA,35.80685278,-96.42185556
3FM,USBP,Fremont,MI,USA,43.43890528,-85.99478
3FU,USBP,Faulkton,SD,USA,45.03191861,-99.11566417
3G3,USBP,Wadsworth,OH,USA,41.00158222,-81.75513111
3G4,USBP,Ashland,OH,USA,40.90297222,-82.25563889
3G7,USBP,Williamson,NY,USA,43.23472222,-77.12097222
3GM,USBP,Grand Haven,MI,USA,43.03404639,-86.1981625
3I2,USBP,Point Pleasant,WV,USA,38.91463889,-82.09858333
3I7,USBP,Phillipsburg,OH,USA,39.91344194,-84.40030889
3J1,USBP,Ridgeland,SC,USA,32.49268694,-80.99233028
3J7,USBP,Greensboro,GA,USA,33.59766667,-83.139
3JC,USBP,Junction City,KS,USA,39.04327556,-96.84328694
3K3,USBP,Syracuse,KS,USA,37.99167972,-101.7462822
3K6,USBP,Troy/Marine/St. Louis,IL,USA,38.73290861,-89.80656722
3K7,USBP,Leoti,KS,USA,38.45696333,-101.3532161
3LC,USBP,Lincoln,IL,USA,40.15847222,-89.33497222
3LF,USBP,Litchfield,IL,USA,39.16635306,-89.67489694
3M7,USBP,Lafayette,TN,USA,36.518375,-86.05828083
3M8,USBP,Reform,AL,USA,33.38900611,-88.00557806
3M9,USBP,Warren,AR,USA,33.56044333,-92.08538861
3MY,USBP,Peoria,IL,USA,40.79525917,-89.6134025
3N6,USBP,Old Bridge,NJ,USA,40.32988667,-74.34678694
3N8,USBP,Mahnomen,MN,USA,47.25996056,-95.92809778
3ND0,USBP,Northwood,ND,USA,47.72423333,-97.59042222
3O1,USBP,Gustine,CA,USA,37.26271722,-120.9632586
3O3,USBP,Purcell,OK,USA,34.97979444,-97.38586167
3O4,USBP,Sayre,OK,USA,35.16755222,-99.65787361
3O5,USBP,Walters,OK,USA,34.37258444,-98.40588583
3O7,USBP,Hollister,CA,USA,36.89334528,-121.4102706
3O9,USBP,Afton,OK,USA,36.5775775,-94.86190028
3R0,USBP,Beeville,TX,USA,28.36455528,-97.79208194
3R1,USBP,Bay City,TX,USA,28.973255,-95.86345528
3R2,USBP,Crowley,LA,USA,30.16173611,-92.48396111
3R4,USBP,Many,LA,USA,31.54489667,-93.48645306
3R7,USBP,Jennings,LA,USA,30.24269333,-92.67344778
3S4,USBP,Illinois Valley (Cave Junction),OR,USA,42.10372417,-123.6822911
3S8,USBP,Grants Pass,OR,USA,42.51011722,-123.3879894
3S9,USBP,Condon,OR,USA,45.24651889,-120.1664233
3SG,USBP,Saginaw - H.Browne,MI,USA,43.43341028,-83.86245833
3SQ,USBP,St Charles,MO,USA,38.84866139,-90.50011833
3T3,USBP,Boyceville,WI,USA,45.042185,-92.0293475
3T5,USBP,La Grange,TX,USA,29.90930556,-96.9505
3TR,USBP,Niles,MI,USA,41.83590806,-86.22517611
3U3,USBP,Anaconda,MT,USA,46.15313278,-112.86784
3U7,USBP,Benchmark,MT,USA,47.48133194,-112.8697678
3U8,USBP,Big Sandy,MT,USA,48.16247972,-110.1132631
3V4,USBP,Fort Morgan,CO,USA,40.33423194,-103.8039508
3WO,USBP,Shawano,WI,USA,44.78777778,-88.56152444
3Y2,USBP,West Union,IA,USA,42.98508917,-91.79060417
3Y3,USBP,Winterset,IA,USA,41.36276778,-94.02106194
3Z9,USBP,Haines,AK,USA,59.23495111,-135.4407181
40J,USBP,Perry,FL,USA,30.06927778,-83.58058333
40N,USBP,Coatesville,PA,USA,39.97897222,-75.86547222
40U,USBP,Manila,UT,USA,40.98607,-109.6784811
41U,USBP,Manti,UT,USA,39.32912833,-111.6146397
42A,USBP,Melbourne,AR,USA,36.07079222,-91.82914667
42C,USBP,White Cloud,MI,USA,43.55974139,-85.77421944
42J,USBP,Keystone Heights,FL,USA,29.84475,-82.04752778
42S,USBP,Poplar,MT,USA,48.11595861,-105.1821928
43A,USBP,Star,NC,USA,35.38819528,-79.79281667
44B,USBP,Dover-Foxcroft,ME,USA,45.18338806,-69.2328225
44N,USBP,Millbrook,NY,USA,41.70742861,-73.73802889
45J,USBP,Rockingham,NC,USA,34.89107083,-79.75905806
45OH,USBP,North Bass Island,OH,USA,41.71932528,-82.82196917
45R,USBP,Kountze/Silsbee,TX,USA,30.33633806,-94.25754361
46A,USBP,Blairsville,GA,USA,34.85508722,-83.996855
46D,USBP,Carrington,ND,USA,47.45111111,-99.15111111
46N,USBP,Red Hook,NY,USA,41.98458333,-73.83596556
47A,USBP,Canton,GA,USA,34.31058333,-84.42391667
47J,USBP,Cheraw,SC,USA,34.71258333,-79.95794444
47N,USBP,Manville,NJ,USA,40.52438417,-74.59839194
47V,USBP,Curtis,NE,USA,40.63750778,-100.4712539
48A,USBP,Cochran,GA,USA,32.39936111,-83.27591667
48D,USBP,Clare,MI,USA,43.83111111,-84.74133333
48I,USBP,Sutton,WV,USA,38.68704444,-80.65176083
48K,USBP,Ness City,KS,USA,38.47110278,-99.90806667
48S,USBP,Harlem,MT,USA,48.56666472,-108.7729339
48V,USBP,Erie,CO,USA,40.010225,-105.047975
49A,USBP,Ellijay,GA,USA,34.62786417,-84.52492889
49T,USBP,Dallas,TX,USA,32.77333333,-96.80027778
49X,USBP,Chemehuevi Valley,CA,USA,34.52751083,-114.4310697
49Y,USBP,Preston,MN,USA,43.67676,-92.17973444
4A2,USBP,Atmautluak,AK,USA,60.86674556,-162.2731389
4A4,USBP,Cedartown,GA,USA,34.01869444,-85.14647222
4A5,USBP,Marshall,AR,USA,35.89893667,-92.65588611
4A6,USBP,Scottsboro,AL,USA,34.68897278,-86.0058125
4A7,USBP,Hampton,GA,USA,33.38911111,-84.33236111
4A9,USBP,Fort Payne,AL,USA,34.4728925,-85.72221722
4B0,USBP,South Bethlehem,NY,USA,42.56072611,-73.83395639
4B1,USBP,Duanesburg,NY,USA,42.75840889,-74.13290472
4B6,USBP,Ticonderoga,NY,USA,43.87700278,-73.41317639
4B7,USBP,Schroon Lake,NY,USA,43.86256083,-73.74262972
4B8,USBP,Plainville,CT,USA,41.69037667,-72.8648225
4B9,USBP,Simsbury,CT,USA,41.91676389,-72.77731778
4C8,USBP,Albia,IA,USA,40.99445361,-92.76297194
4D0,USBP,Grandledge,MI,USA,42.77420167,-84.73309806
4D9,USBP,Alma,NE,USA,40.11389972,-99.34565306
4F2,USBP,Carthage,TX,USA,32.17608333,-94.29880556
4F4,USBP,Gilmer,TX,USA,32.699,-94.94886111
4G1,USBP,Greenville,PA,USA,41.44683167,-80.39126167
4G2,USBP,Hamburg,NY,USA,42.7008925,-78.91475694
4G5,USBP,Woodsfield,OH,USA,39.77904472,-81.10277222
4G6,USBP,Hornell,NY,USA,42.38214444,-77.6821125
4G7,USBP,Fairmont,WV,USA,39.44816667,-80.16702778
4I0,USBP,Williamson,WV,USA,37.68760139,-82.26097306
4I3,USBP,Mount Vernon,OH,USA,40.32872222,-82.52377778
4I7,USBP,Greencastle,IN,USA,39.63359556,-86.8138325
4I9,USBP,Mt. Gilead,OH,USA,40.52452778,-82.85005556
4J1,USBP,Nahunta,GA,USA,31.21272417,-81.90539083
4J2,USBP,Nashville,GA,USA,31.21255556,-83.22627778
4J5,USBP,Quitman,GA,USA,30.80575139,-83.58654889
4J6,USBP,St Marys,GA,USA,30.75468028,-81.55731917
4K0,USBP,Pedro Bay,AK,USA,59.78960972,-154.1238331
4K5,USBP,Ouzinkie,AK,USA,57.92287611,-152.5005111
4K6,USBP,Bloomfield,IA,USA,40.73210556,-92.42826889
4KA,USBP,Tununak,AK,USA,60.57559667,-165.2731272
4M1,USBP,Berryville,AR,USA,36.38340333,-93.61685667
4M3,USBP,Carlisle,AR,USA,34.80823,-91.71205083
4M4,USBP,Clinton,AR,USA,35.59785528,-92.45182472
4M7,USBP,Russellville,KY,USA,36.79991667,-86.81016667
4M8,USBP,Clarendon,AR,USA,34.64870694,-91.39457111
4M9,USBP,Corning,AR,USA,36.40423139,-90.64792639
4N1,USBP,West Milford,NJ,USA,41.12854806,-74.34584611
4O3,USBP,Blackwell-Tonkawa,OK,USA,36.74511583,-97.34959972
4O4,USBP,Idabel,OK,USA,33.909325,-94.85835278
4O5,USBP,Cherokee,OK,USA,36.78336306,-98.35035083
4PH,USBP,Polacca,AZ,USA,35.79167222,-110.4234653
4R1,USBP,Lumberton,MS,USA,31.01546028,-89.48256556
4R3,USBP,Jackson,AL,USA,31.47210861,-87.89472083
4R4,USBP,Fairhope,AL,USA,30.4621125,-87.87801972
4R5,USBP,La Pointe,WI,USA,46.78865556,-90.75866944
4R7,USBP,Eunice,LA,USA,30.46628389,-92.42379917
4R9,USBP,Dauphin Island,AL,USA,30.26048083,-88.12749972
4S1,USBP,Gold Beach,OR,USA,42.41344444,-124.4242742
4S2,USBP,Hood River,OR,USA,45.67261833,-121.5364625
4S3,USBP,Joseph,OR,USA,45.35709583,-117.2532244
4S9,USBP,Mulino (Portland),OR,USA,45.21632417,-122.5900839
4SD,USBP,Reno,NV,USA,39.66738111,-119.8754169
4T6,USBP,Midlothian-Waxahachie,TX,USA,32.45609722,-96.91240972
4U3,USBP,Chester,MT,USA,48.51072222,-110.9908639
4U6,USBP,Circle,MT,USA,47.41861972,-105.5619431
4V0,USBP,Rangely,CO,USA,40.09469917,-108.7612172
4V1,USBP,Walsenburg,CO,USA,37.69640056,-104.7838747
4V9,USBP,Neligh,NE,USA,42.11222889,-98.0386775
4W1,USBP,Elizabethtown,NC,USA,34.60183722,-78.57973306
4Z4,USBP,Holy Cross,AK,USA,62.18829583,-159.7749503
4Z7,USBP,Hyder,AK,USA,55.90331972,-130.0067031
50I,USBP,Kentland,IN,USA,40.75873222,-87.42821917
50J,USBP,Moncks Corner,SC,USA,33.18605556,-80.03563889
50K,USBP,Pawnee City,NE,USA,40.11611111,-96.19445278
50R,USBP,Lockhart,TX,USA,29.85033333,-97.67241667
51D,USBP,Edgeley,ND,USA,46.34858333,-98.73555556
51Z,USBP,Minto,AK,USA,65.14370889,-149.3699647
52A,USBP,Madison,GA,USA,33.61212528,-83.46044333
52E,USBP,Timberon,NM,USA,32.63388889,-105.6863889
52J,USBP,Bishopville,SC,USA,34.24459889,-80.23729333
53A,USBP,Montezuma,GA,USA,32.302,-84.00747222
53K,USBP,Osage City,KS,USA,38.63334222,-95.80859806
54J,USBP,Defuniak Springs,FL,USA,30.7313,-86.15160833
55D,USBP,Grayling,MI,USA,44.68032028,-84.72886278
55J,USBP,Fernandina Beach,FL,USA,30.61170083,-81.462345
55S,USBP,Packwood,WA,USA,46.60400083,-121.6778664
56D,USBP,Upper Sandusky,OH,USA,40.88336139,-83.3145325
56M,USBP,Warsaw,MO,USA,38.34688889,-93.345425
56S,USBP,Seaside,OR,USA,46.01649694,-123.9054167
57B,USBP,Islesboro,ME,USA,44.30285556,-68.91058722
57C,USBP,East Troy,WI,USA,42.79711111,-88.3725
59B,USBP,Jackman,ME,USA,45.63199111,-70.24728944
5A4,USBP,Okolona,MS,USA,34.01580528,-88.72618944
5A6,USBP,Winona,MS,USA,33.46540139,-89.72924806
5A8,USBP,Aleknagik,AK,USA,59.28256167,-158.6176725
5A9,USBP,Warm Springs,GA,USA,32.93346222,-84.68881639
5B2,USBP,Saratoga Springs,NY,USA,43.05126111,-73.86119444
5B3,USBP,Danielson,CT,USA,41.81974056,-71.90096306
5B7,USBP,Troy,NY,USA,42.69091194,-73.57956
5CD,USBP,Chandalar Camp,AK,USA,68.06543944,-149.5797392
5D3,USBP,Owosso,MI,USA,42.99297222,-84.1389125
5F1,USBP,Post,TX,USA,33.20370556,-101.340415
5F4,USBP,Homer,LA,USA,32.78850806,-93.00366083
5G0,USBP,Le Roy,NY,USA,42.98136667,-77.93751389
5G7,USBP,Bluffton,OH,USA,40.88544444,-83.86863889
5G8,USBP,Jeanette,PA,USA,40.37645722,-79.60837583
5G9,USBP,Lambertville,MI,USA,41.7358775,-83.65541056
5HO,USBP,Hope,AK,USA,60.90415028,-149.6238389
5I4,USBP,Sheridan,IN,USA,40.17792583,-86.21729889
5J0,USBP,John Day,OR,USA,44.40416667,-118.9625
5J9,USBP,Loris,SC,USA,34.08848361,-78.86462028
5K2,USBP,Tribune,KS,USA,38.45418222,-101.7462828
5M0,USBP,Hartselle,AL,USA,34.40823444,-86.93295056
5M1,USBP,De Witt,AR,USA,34.2626,-91.30984194
5M4,USBP,Fordyce,AR,USA,33.84593722,-92.36542861
5M9,USBP,Marion,KY,USA,37.33616222,-88.11113611
5N8,USBP,Casselton,ND,USA,46.85469528,-97.20870028
5ND6,USBP,Hillsboro,ND,USA,47.35940778,-97.06041639
5NI,USBP,Nikolai,AK,USA,63.0174475,-154.3639608
5NK,USBP,Naknek,AK,USA,58.73288056,-157.0199197
5NN,USBP,Nondalton,AK,USA,59.97904306,-154.8396944
5R3,USBP,Lago Vista,TX,USA,30.498585,-97.96947222
5R4,USBP,Foley,AL,USA,30.42769722,-87.70082
5R5,USBP,Wharton,TX,USA,29.25427778,-96.15438889
5R8,USBP,De Quincy,LA,USA,30.44117222,-93.47349722
5S8,USBP,St. Michael,AK,USA,63.49005056,-162.1103692
5T5,USBP,Hillsboro,TX,USA,32.08348611,-97.09722722
5T6,USBP,Santa Teresa,NM,USA,31.88098556,-106.7048131
5T9,USBP,Eagle Pass,TX,USA,28.85719361,-100.5122997
5TE,USBP,Tetlin,AK,USA,63.13382361,-142.5219339
5U3,USBP,Ennis,MT,USA,45.27175833,-111.6486389
5U8,USBP,Geraldine,MT,USA,47.59664,-110.2660367
5V5,USBP,Shiprock,NM,USA,36.6977775,-108.7011986
5V8,USBP,Kadoka,SD,USA,43.83332611,-101.4970881
5W8,USBP,Siler City,NC,USA,35.7029175,-79.50529972
5Z1,USBP,Juneau,AK,USA,58.29888889,-134.4077778
5Z5,USBP,Kantishna,AK,USA,63.54171472,-150.9939547
60F,USBP,Seymour,TX,USA,33.64870417,-99.26063056
60J,USBP,Ocean Isle Beach,NC,USA,33.90850556,-78.43667222
61A,USBP,Camden,AL,USA,31.97987056,-87.33888056
61B,USBP,Boulder City,NV,USA,35.94748028,-114.8610967
61C,USBP,Fort Atkinson,WI,USA,42.96320278,-88.81762806
61J,USBP,Portland,OR,USA,45.52527778,-122.6709289
61S,USBP,Cottage Grove,OR,USA,43.79984528,-123.0289678
62D,USBP,Warren,OH,USA,41.26672278,-80.92897778
62H,USBP,Giddings,TX,USA,30.16927167,-96.98001083
62S,USBP,Christmas Valley,OR,USA,43.23653139,-120.6660967
63A,USBP,Petersburg,AK,USA,56.81131972,-132.9600567
63C,USBP,Adams/Friendship,WI,USA,43.96117222,-89.78804889
63S,USBP,Colville,WA,USA,48.54156944,-117.8844247
65J,USBP,Wrens,GA,USA,33.222645,-82.38373611
65S,USBP,Bonners Ferry,ID,USA,48.72632639,-116.2954761
66D,USBP,Sturgis,SD,USA,44.41761111,-103.3747778
67L,USBP,Mesquite,NV,USA,36.83497556,-114.0552453
68A,USBP,Wrangell,AK,USA,56.466325,-132.3800181
68S,USBP,Davenport,WA,USA,47.65404528,-118.1677519
6A1,USBP,Butler,GA,USA,32.56736694,-84.25074833
6A2,USBP,Griffin,GA,USA,33.22697222,-84.27494444
6A3,USBP,Andrews,NC,USA,35.19453167,-83.86490194
6A4,USBP,Mountain City,TN,USA,36.41789833,-81.82511528
6A8,USBP,Allakaket,AK,USA,66.55194444,-152.6222222
6B0,USBP,Middlebury,VT,USA,43.98478278,-73.09594889
6B4,USBP,Utica/Frankfort,NY,USA,43.02090306,-75.17043861
6B6,USBP,Stow,MA,USA,42.46045361,-71.51791444
6B8,USBP,Lyndonville,VT,USA,44.56911417,-72.01797889
6B9,USBP,Skaneateles,NY,USA,42.91395583,-76.44076889
6D6,USBP,Greenville,MI,USA,43.14228139,-85.25380722
6D8,USBP,Valley City,ND,USA,46.94100778,-98.01762611
6F1,USBP,Talihina,OK,USA,34.70777139,-95.07378583
6G1,USBP,Titusville,PA,USA,41.60880861,-79.74133111
6G5,USBP,Barnesville,OH,USA,40.00243139,-81.19183
6I2,USBP,Springfield,KY,USA,37.63355556,-85.24216667
6J0,USBP,Pelion,SC,USA,33.79463889,-81.24586111
6J2,USBP,St George,SC,USA,33.1955,-80.50847222
6J4,USBP,Saluda,SC,USA,33.92680111,-81.79455306
6K3,USBP,Creighton,NE,USA,42.47083694,-97.88367778
6K4,USBP,Fairview,OK,USA,36.29014667,-98.47582833
6K8,USBP,Tok,AK,USA,63.32881806,-142.9536194
6L4,USBP,Logan,WV,USA,37.85567778,-81.91589722
6M2,USBP,Horseshoe Bend,AR,USA,36.21673389,-91.75014556
6M6,USBP,Monticello,MO,USA,40.12916667,-91.67833333
6M7,USBP,Marianna,AR,USA,34.78027778,-90.81055556
6M8,USBP,Marked Tree,AR,USA,35.53341472,-90.40149028
6N5,USBP,New York,NY,USA,40.74260167,-73.97208306
6N7,USBP,New York,NY,USA,40.73399083,-73.97291639
6N8,USBP,Thedford,NE,USA,41.96217028,-100.5690139
6R3,USBP,Cleveland,TX,USA,30.35643,-95.00801472
6R7,USBP,Old Harbor,AK,USA,57.21810306,-153.2697494
6R9,USBP,Llano,TX,USA,30.78450278,-98.66025083
6S0,USBP,Big Timber,MT,USA,45.80638889,-109.9811111
6S2,USBP,Florence,OR,USA,43.97901,-124.1095631
6S3,USBP,Columbus,MT,USA,45.6291075,-109.2507167
6S5,USBP,Hamilton,MT,USA,46.25149444,-114.1255403
6S8,USBP,Laurel,MT,USA,45.70308833,-108.7610886
6V0,USBP,Edgemont,SD,USA,43.29525056,-103.8435325
6V3,USBP,Richlands,VA,USA,37.06374667,-81.79826944
6V4,USBP,Wall,SD,USA,43.99498861,-102.2504367
6V6,USBP,Nucla,CO,USA,38.23879833,-108.5632597
70J,USBP,Cairo,GA,USA,30.88797667,-84.15473528
71J,USBP,Ozark,AL,USA,31.43113889,-85.61922222
72S,USBP,Rosalia,WA,USA,47.23683778,-117.4210244
73C,USBP,Lancaster,WI,USA,42.78054722,-90.68096028
73J,USBP,Beaufort,SC,USA,32.4121375,-80.63455083
74D,USBP,Moundsville,WV,USA,39.88083333,-80.73577778
74S,USBP,Anacortes,WA,USA,48.4989925,-122.6623956
74V,USBP,Roosevelt,UT,USA,40.27829167,-110.0512619
75J,USBP,Ashburn,GA,USA,31.68545833,-83.63211194
76G,USBP,Marine City,MI,USA,42.72086583,-82.59574694
77G,USBP,Marlette,MI,USA,43.31183,-83.09091444
77S,USBP,Creswell,OR,USA,43.93206889,-123.0067483
78D,USBP,Caro,MI,USA,43.45908333,-83.44522222
79D,USBP,Philippi,WV,USA,39.16620778,-80.06258056
79J,USBP,Andalusia,AL,USA,31.30875278,-86.39376083
79S,USBP,Fort Benton,MT,USA,47.84583333,-110.6336111
7A0,USBP,Greensboro,AL,USA,32.68147222,-87.66208333
7A2,USBP,Demopolis,AL,USA,32.46381944,-87.95406389
7A3,USBP,Lanett,AL,USA,32.81204611,-85.22958111
7A5,USBP,Roanoke,AL,USA,33.12928722,-85.366615
7A8,USBP,Spruce Pine,NC,USA,35.94457028,-81.99566944
7B2,USBP,Northampton,MA,USA,42.32816806,-72.61151667
7D2,USBP,Troy,MI,USA,42.54294389,-83.17790861
7F3,USBP,Caddo Mills,TX,USA,33.03622222,-96.24313889
7F6,USBP,Clarksville,TX,USA,33.59316472,-95.06355528
7F7,USBP,Clifton,TX,USA,31.81682333,-97.56696361
7F9,USBP,Comanche,TX,USA,31.91681306,-98.600325
7G0,USBP,Brockport,NY,USA,43.18118194,-77.91362333
7G8,USBP,Middlefield,OH,USA,41.44960972,-81.06292972
7I7,USBP,Bellefontaine,OH,USA,40.41208333,-83.73686111
7K0,USBP,Pikeville,KY,USA,37.56173889,-82.56660694
7K2,USBP,Skagway,AK,USA,59.44689528,-135.3226633
7K4,USBP,Hartford,KY,USA,37.45832417,-86.84995194
7K8,USBP,South Sioux City,NE,USA,42.45416111,-96.47253111
7KA,USBP,Tatitlek,AK,USA,60.86890528,-146.6864653
7M1,USBP,McGehee,AR,USA,33.62022111,-91.36484056
7M3,USBP,Mount Ida,AR,USA,34.52926056,-93.52713472
7M4,USBP,Osceola,AR,USA,35.69114639,-90.01012028
7M5,USBP,Ozark,AR,USA,35.51069583,-93.8393075
7M7,USBP,Piggott,AR,USA,36.37820556,-90.16624167
7N0,USBP,New Orleans,LA,USA,29.95194444,-90.08166667
7N1,USBP,Corning,NY,USA,42.17590722,-77.11219278
7N7,USBP,Pedrictown,NJ,USA,39.73556333,-75.39772111
7S0,USBP,Ronan,MT,USA,47.57076861,-114.0967783
7S1,USBP,Twin Bridges,MT,USA,45.53325917,-112.3091656
7S5,USBP,Independence,OR,USA,44.86676444,-123.1982475
7S6,USBP,White Sulphur Springs,MT,USA,46.50410722,-110.9132667
7S7,USBP,Valier,MT,USA,48.29997583,-112.2508711
7V1,USBP,Buena Vista,CO,USA,38.81416194,-106.1206939
7V7,USBP,Red Cloud,NE,USA,40.08473556,-98.54061694
7W6,USBP,Englehard,NC,USA,35.5623925,-75.95518417
80F,USBP,Antlers,OK,USA,34.19260083,-95.64985889
81B,USBP,Norway,ME,USA,44.15742611,-70.48129583
82C,USBP,New Lisbon,WI,USA,43.83872167,-90.13768389
82V,USBP,Pine Bluffs,WY,USA,41.15331528,-104.1302292
83D,USBP,St Ignace,MI,USA,45.89029056,-84.73755083
84D,USBP,Eagle Butte,SD,USA,44.984375,-101.2510417
84K,USBP,Meyers Chuck,AK,USA,55.73963611,-132.2550183
84R,USBP,Smithville,TX,USA,30.03048028,-97.16687194
85V,USBP,Ganado,AZ,USA,35.70140278,-109.5103814
86F,USBP,Carnegie,OK,USA,35.12061417,-98.5806175
87I,USBP,Yazoo City,MS,USA,32.883215,-90.4636475
87Y,USBP,Madison,WI,USA,43.10491444,-89.18553833
88C,USBP,Palmyra,WI,USA,42.88355556,-88.59743056
88J,USBP,Allendale,SC,USA,32.99512944,-81.27024583
88M,USBP,Eureka,MT,USA,48.96885444,-115.0704464
89D,USBP,Kelleys Island,OH,USA,41.60282583,-82.684625
8A0,USBP,Albertville,AL,USA,34.22910972,-86.25575806
8A1,USBP,Guntersville,AL,USA,34.39944167,-86.27016111
8A3,USBP,Livingston,TN,USA,36.41217389,-85.31154861
8B0,USBP,Rangeley,ME,USA,44.991895,-70.66462472
8D1,USBP,New Holstein,WI,USA,43.94424111,-88.1134775
8D3,USBP,Sisseton,SD,USA,45.67079278,-96.99619167
8D4,USBP,Sparta,MI,USA,43.12860833,-85.67689778
8D7,USBP,Clark,SD,USA,44.89570278,-97.71191361
8D9,USBP,Howard,SD,USA,44.02914056,-97.53784778
8F7,USBP,Decatur,TX,USA,33.25463889,-97.58055556
8G2,USBP,Corry,PA,USA,41.90755611,-79.64105083
8G6,USBP,Cadiz,OH,USA,40.23820667,-81.01256917
8G7,USBP,Zelienople,PA,USA,40.80161944,-80.16072889
8K8,USBP,Cimarron,KS,USA,37.83057667,-100.3504222
8K9,USBP,Ketchikan,AK,USA,55.38965028,-131.7380742
8M1,USBP,Booneville,MS,USA,34.58981806,-88.64699861
8S1,USBP,Polson,MT,USA,47.69543861,-114.1851178
8S2,USBP,Cashmere,WA,USA,47.51484611,-120.4848025
8S5,USBP,Mt Pleasant,SC,USA,32.89783333,-79.78286111
8U6,USBP,Terry,MT,USA,46.77917333,-105.3047083
8U8,USBP,Townsend,MT,USA,46.33111111,-111.4813889
8V2,USBP,Atkinson,NE,USA,42.56250167,-99.03787611
8Y2,USBP,Buffalo,MN,USA,45.15904694,-93.84330361
91C,USBP,Prairie Du Sac,WI,USA,43.2969325,-89.75595639
91F,USBP,Canadian,OK,USA,35.15426444,-95.62026389
93B,USBP,Stonington,ME,USA,44.17508056,-68.67863722
93C,USBP,Richland Center,WI,USA,43.28333333,-90.29827778
93F,USBP,Cheyenne,OK,USA,35.60393694,-99.70343889
93Y,USBP,David City,NE,USA,41.23334583,-97.11698111
94K,USBP,Cassville,MO,USA,36.69741667,-93.90052778
95F,USBP,Cleveland,OK,USA,36.28340306,-96.46418833
96D,USBP,Walhalla,ND,USA,48.94057222,-97.902775
96Z,USBP,North Whale Pass,AK,USA,56.11631056,-133.1217153
97M,USBP,Ekalaka,MT,USA,45.87791444,-104.5375072
98D,USBP,Onida,SD,USA,44.70414917,-100.1087353
99N,USBP,Bamburg,SC,USA,33.30515528,-81.10898917
99Y,USBP,Greeley,NE,USA,41.55834528,-98.54618528
9A1,USBP,Covington,GA,USA,33.6324825,-83.84955806
9A3,USBP,Chuathbaluk,AK,USA,61.58317306,-159.2359667
9A4,USBP,Courtland,AL,USA,34.65938889,-87.34883333
9A5,USBP,LaFayette,GA,USA,34.68896917,-85.29023333
9A6,USBP,Chester,SC,USA,34.78933333,-81.19577778
9A8,USBP,Ugashik,AK,USA,57.5278675,-157.3993056
9C8,USBP,Evart,MI,USA,43.8958525,-85.27920861
9D0,USBP,Highmore,SD,USA,44.54165056,-99.44622306
9D1,USBP,Gregory,SD,USA,43.22174722,-99.4033
9D2,USBP,Buffalo,SD,USA,45.58055222,-103.5296356
9D7,USBP,Cando,ND,USA,48.4841675,-99.23680389
9D9,USBP,Hastings,MI,USA,42.66361778,-85.34625944
9G0,USBP,Buffalo,NY,USA,42.86200306,-78.71658528
9G1,USBP,Tarentum,PA,USA,40.60423333,-79.82060611
9G3,USBP,Akron,NY,USA,43.02108667,-78.48296778
9G5,USBP,Gasport,NY,USA,43.18200222,-78.55780528
9G8,USBP,Ebensburg,PA,USA,40.46121083,-78.77524389
9I0,USBP,Havana,IL,USA,40.221155,-90.02289361
9I3,USBP,West Liberty,KY,USA,37.91453139,-83.25212111
9K2,USBP,Kokhanok,AK,USA,59.43264556,-154.8027058
9K4,USBP,Warrensburg,MO,USA,38.7842425,-93.80285417
9K7,USBP,Ellsworth,KS,USA,38.74750889,-98.23061222
9K8,USBP,Kingman,KS,USA,37.66660278,-98.12264722
9M4,USBP,Ackerman,MS,USA,33.3034575,-89.22840028
9M6,USBP,Oak Grove,LA,USA,32.84921361,-91.40390611
9M8,USBP,Sheridan,AR,USA,34.32842917,-92.35098583
9S2,USBP,Scobey,MT,USA,48.80772722,-105.43947
9S4,USBP,Superior,MT,USA,47.16825944,-114.8537411
9S5,USBP,Three Forks,MT,USA,45.87852778,-111.5691389
9S7,USBP,Winifred,MT,USA,47.55164778,-109.3776792
9S9,USBP,Lexington,OR,USA,45.45263139,-119.6886361
9U0,USBP,Turner,MT,USA,48.85417361,-108.4090214
9U3,USBP,Austin,NV,USA,39.46798056,-117.1953703
9U4,USBP,Dixon,WY,USA,41.03829806,-107.4972869
9V5,USBP,Rushville,NE,USA,42.73748639,-102.4448947
9V6,USBP,Martin,SD,USA,43.16564083,-101.7126953
9V9,USBP,Chamberlain,SD,USA,43.76612222,-99.32134
9W7,USBP,Currituck,NC,USA,36.39893194,-76.01631111
A04,USBP,Centre,AL,USA,34.15987361,-85.63512944
A14,USBP,Portage Creek,AK,USA,58.906485,-157.7141078
A29,USBP,Sitka,AK,USA,57.05213778,-135.3462086
A30,USBP,Fort Jones,CA,USA,41.55819444,-122.8553103
A32,USBP,Dorris,CA,USA,41.88709222,-121.9755614
A61,USBP,Tuntutuliak,AK,USA,60.33534556,-162.6670094
A63,USBP,Twin Hills,AK,USA,59.07562167,-160.2730436
A79,USBP,Chignik Lake,AK,USA,56.25504722,-158.7753614
A85,USBP,Kwigillingok,AK,USA,59.87644778,-163.1675583
AAF,USBP,Apalachicola,FL,USA,29.72754583,-85.02744778
AAO,USBP,Wichita,KS,USA,37.74755556,-97.22113889
AAS,USBP,Cambellsville,KY,USA,37.35827778,-85.30941667
AAT,USBP,Alturas,CA,USA,41.483,-120.5653611
ABE,USBP,Allentown,PA,USA,40.65236278,-75.44040167
ABI,USBP,Abilene,TX,USA,32.41132,-99.68189722
ABO,USBP,Arecibo,PR,USA,18.45111111,-66.67555556
ABQ,USBP,Albuquerque,NM,USA,35.04022222,-106.6091944
ABR,USBP,Aberdeen,SD,USA,45.44905556,-98.42183333
ABY,USBP,Albany,GA,USA,31.535515,-84.19447333
ACB,USBP,Bellaire,MI,USA,44.98857611,-85.198355
ACJ,USBP,Americus,GA,USA,32.11079917,-84.18884806
ACK,USBP,Nantucket,MA,USA,41.25305194,-70.06018139
ACQ,USBP,Waseca,MN,USA,44.07346389,-93.55294361
ACT,USBP,Waco,TX,USA,31.61128833,-97.23051917
ACV,USBP,Arcata/Eureka,CA,USA,40.97811528,-124.1086189
ACY,USBP,Atlantic City,NJ,USA,39.45758333,-74.57716667
ACZ,USBP,Wallace,NC,USA,34.71789028,-78.00362444
ADC,USBP,Wadena,MN,USA,46.45026972,-95.21095472
ADG,USBP,Adrian,MI,USA,41.86943667,-84.07480528
ADH,USBP,Ada,OK,USA,34.80434056,-96.6712775
ADK,USBP,Adak,AK,USA,51.87796389,-176.6460306
ADM,USBP,Ardmore,OK,USA,34.30320667,-97.01952167
ADQ,USBP,Kodiak,AK,USA,57.74996778,-152.4938553
ADS,USBP,Dallas/Addison,TX,USA,32.96855944,-96.83644778
ADT,USBP,Atwood,KS,USA,39.84013889,-101.0420278
ADU,USBP,Audubon,IA,USA,41.70137556,-94.92054167
AEG,USBP,Albuquerque,NM,USA,35.14515278,-106.7951617
AEL,USBP,Albert Lea,MN,USA,43.68151278,-93.36723778
AEX,USBP,Alexandria,LA,USA,31.32737167,-92.54855611
AFE,USBP,Kake,AK,USA,56.96048139,-133.9082694
AFJ,USBP,Washington,PA,USA,40.13648833,-80.29020083
AFK,USBP,Nebraska City,NE,USA,40.60688889,-95.86569444
AFM,USBP,Ambler,AK,USA,67.10610472,-157.8536203
AFN,USBP,Jaffrey,NH,USA,42.80513417,-72.00302194
AFO,USBP,Afton,WY,USA,42.71124583,-110.9421639
AFW,USBP,Fort Worth,TX,USA,32.98763889,-97.31880556
AGC,USBP,Pittsburgh,PA,USA,40.35440139,-79.93016889
AGN,USBP,Angoon,AK,USA,57.50355528,-134.5850939
AGO,USBP,Magnolia,AR,USA,33.22802111,-93.21696861
AGS,USBP,Augusta,GA,USA,33.369955,-81.96449611
AGZ,USBP,Wagner,SD,USA,43.06332694,-98.29618972
AHH,USBP,Amery,WI,USA,45.28114833,-92.37539222
AHN,USBP,Athens,GA,USA,33.94859528,-83.32634694
AHP,USBP,Port Alexander,AK,USA,56.24684222,-134.6481539
AHQ,USBP,Wahoo,NE,USA,41.24133333,-96.59402778
AIA,USBP,Alliance,NE,USA,42.05325,-102.8037222
AID,USBP,Anderson,IN,USA,40.10862139,-85.61299472
AIG,USBP,Antigo,WI,USA,45.15419444,-89.11072222
AIK,USBP,Aiken,SC,USA,33.64955556,-81.68447222
AIO,USBP,Atlantic,IA,USA,41.40726722,-95.04690639
AIT,USBP,Aitkin,MN,USA,46.5484225,-93.6768
AIV,USBP,Aliceville,AL,USA,33.10706889,-88.19725167
AIY,USBP,Atlantic City,NJ,USA,39.36002778,-74.45608333
AIZ,USBP,Kaiser/Lake Ozark,MO,USA,38.096035,-92.5494875
AJC,USBP,Chignik,AK,USA,56.3114625,-158.3732369
AJG,USBP,Mt Carmel,IL,USA,38.60654722,-87.72669417
AJO,USBP,Corona,CA,USA,33.89765389,-117.60244
AJR,USBP,Cornelia,GA,USA,34.50081944,-83.55487
AK5,USBP,Perryville,AK,USA,55.90806056,-159.1585781
AKA,USBP,Atka,AK,USA,52.22034833,-174.2063503
AKH,USBP,Gastonia,NC,USA,35.20265944,-81.1498675
AKI,USBP,Akiak,AK,USA,60.90481194,-161.2270189
AKK,USBP,Akhiok,AK,USA,56.93869083,-154.1825556
AKN,USBP,King Salmon,AK,USA,58.67680167,-156.6492175
AKO,USBP,Akron,CO,USA,40.17563333,-103.2220278
AKP,USBP,Anaktuvuk Pass,AK,USA,68.1343225,-151.74168
AKR,USBP,Akron,OH,USA,41.0375,-81.46693944
AKW,USBP,Klawock,AK,USA,55.57923333,-133.0759972
AL08,USBP,Marion,AL,USA,32.51235611,-87.38555472
ALB,USBP,Albany,NY,USA,42.74811944,-73.80297861
ALI,USBP,Alice,TX,USA,27.74088889,-98.02694444
ALM,USBP,Alamogordo,NM,USA,32.83994444,-105.9905833
ALN,USBP,Alton/St. Louis,IL,USA,38.89029083,-90.04604306
ALO,USBP,Waterloo,IA,USA,42.55708139,-92.40034361
ALS,USBP,Alamosa,CO,USA,37.43491667,-105.8665556
ALW,USBP,Walla Walla,WA,USA,46.09456167,-118.2880367
ALX,USBP,Alexander City,AL,USA,32.91475167,-85.96295611
AMA,USBP,Amarillo,TX,USA,35.2193725,-101.7059272
AMG,USBP,Alma,GA,USA,31.53605556,-82.50655556
AMN,USBP,Alma,MI,USA,43.3221425,-84.68794917
AMT,USBP,West Union,OH,USA,38.85148778,-83.56627778
AMW,USBP,Ames,IA,USA,41.99206972,-93.62180139
ANB,USBP,Anniston,AL,USA,33.58816667,-85.85811111
ANC,USBP,Anchorage,AK,USA,61.17432028,-149.9961856
AND,USBP,Anderson,SC,USA,34.49494444,-82.70902778
ANE,USBP,Minneapolis,MN,USA,45.145,-93.21138889
ANI,USBP,Aniak,AK,USA,61.58159694,-159.5430428
ANQ,USBP,Angola,IN,USA,41.63969833,-85.08349333
ANV,USBP,Anvik,AK,USA,62.64858333,-160.1898889
ANW,USBP,Ainsworth,NE,USA,42.57922222,-99.99297222
ANY,USBP,Anthony,KS,USA,37.15852194,-98.07964667
AOC,USBP,Arco,ID,USA,43.60343056,-113.3340972
AOH,USBP,Lima,OH,USA,40.70694444,-84.02666667
AOO,USBP,Altoona,PA,USA,40.29637222,-78.32002306
APA,USBP,Denver,CO,USA,39.57012833,-104.8492942
APC,USBP,Napa,CA,USA,38.21319444,-122.2806944
APF,USBP,Naples,FL,USA,26.15247222,-81.77544444
APN,USBP,Alpena,MI,USA,45.0780675,-83.56028583
APT,USBP,Jasper,TN,USA,35.06067778,-85.58531667
APV,USBP,Apple Valley,CA,USA,34.57528944,-117.1861792
AQC,USBP,Klawock,AK,USA,55.5546575,-133.1016928
AQH,USBP,Quinhagak,AK,USA,59.75700722,-161.8794789
AQT,USBP,Nuiqsut,AK,USA,70.20995278,-151.0055611
AQW,USBP,North Adams,MA,USA,42.69591417,-73.17038306
AQY,USBP,Girdwood,AK,USA,60.96609583,-149.1257892
ARA,USBP,New Iberia,LA,USA,30.03775833,-91.88389611
ARB,USBP,Ann Arbor,MI,USA,42.22298361,-83.74560722
ARC,USBP,Arctic Village,AK,USA,68.11608083,-145.5761114
ARG,USBP,Walnut Ridge,AR,USA,36.12534667,-90.92461944
ARR,USBP,Chicago/Aurora,IL,USA,41.77192944,-88.47565917
ART,USBP,Watertown,NY,USA,43.99192222,-76.02173861
ARV,USBP,Minocqua-Woodruff,WI,USA,45.92792556,-89.73094278
ASD,USBP,Slidell,LA,USA,30.345055,-89.82078833
ASE,USBP,Aspen,CO,USA,39.22316,-106.868845
ASG,USBP,Springdale,AR,USA,36.17641056,-94.11925833
ASH,USBP,Nashua,NH,USA,42.78176306,-71.51477944
ASJ,USBP,Ahoskie,NC,USA,36.29752583,-77.17085556
ASL,USBP,Marshall,TX,USA,32.5205,-94.30777778
ASN,USBP,Talladega,AL,USA,33.56991111,-86.05085833
AST,USBP,Astoria,OR,USA,46.15797222,-123.8786944
ASW,USBP,Warsaw,IN,USA,41.2747,-85.84005556
ASX,USBP,Ashland,WI,USA,46.54852806,-90.91896639
ATA,USBP,Atlanta,TX,USA,33.101805,-94.19532694
ATK,USBP,Atqasuk,AK,USA,70.46727611,-157.4357361
ATL,USBP,Atlanta,GA,USA,33.64044444,-84.42694444
ATS,USBP,Artesia,NM,USA,32.85252806,-104.4676864
ATW,USBP,Appleton,WI,USA,44.25740806,-88.51947556
ATY,USBP,Watertown,SD,USA,44.91398056,-97.15471944
AUG,USBP,Augusta,ME,USA,44.32064972,-69.79731806
AUH,USBP,Aurora,NE,USA,40.89413889,-97.99455556
AUK,USBP,Alakanuk,AK,USA,62.68004417,-164.6599253
AUM,USBP,Austin,MN,USA,43.66499083,-92.933385
AUN,USBP,Auburn,CA,USA,38.95476944,-121.0820806
AUO,USBP,Auburn,AL,USA,32.61635417,-85.43355944
AUS,USBP,Austin,TX,USA,30.19453278,-97.66987194
AUW,USBP,Wausau,WI,USA,44.92847222,-89.62661111
AVC,USBP,South Hill,VA,USA,36.68827778,-78.05447222
AVK,USBP,Alva,OK,USA,36.77317,-98.66994611
AVL,USBP,Asheville,NC,USA,35.43619444,-82.54180556
AVO,USBP,Avon Park,FL,USA,27.591145,-81.52785333
AVP,USBP,Wilkes-Barre/Scranton,PA,USA,41.33814944,-75.7242675
AVQ,USBP,Marana,AZ,USA,32.40939028,-111.2185086
AVX,USBP,Avalon,CA,USA,33.40494444,-118.4158611
AWG,USBP,Washington,IA,USA,41.27610083,-91.67344389
AWI,USBP,Wainwright,AK,USA,70.638,-159.99475
AWM,USBP,West Memphis,AR,USA,35.13505861,-90.23444639
AWO,USBP,Arlington,WA,USA,48.16074833,-122.1590208
AXA,USBP,Algona,IA,USA,43.07791056,-94.27199278
AXN,USBP,Alexandria,MN,USA,45.86629833,-95.39466806
AXS,USBP,Altus,OK,USA,34.69878194,-99.3381
AXV,USBP,Wapakoneta,OH,USA,40.49338889,-84.29894444
AXX,USBP,Angel Fire,NM,USA,36.42240972,-105.2892967
AYS,USBP,Waycross,GA,USA,31.24905556,-82.39530556
AZC,USBP,Colorado City,AZ,USA,36.95994444,-113.0138889
AZE,USBP,Hazelhurst,GA,USA,31.88465639,-82.64738778
AZO,USBP,Kalamazoo,MI,USA,42.234875,-85.5520575
B01,USBP,Granville,NY,USA,43.42507111,-73.26205306
B08,USBP,Silver Springs,NV,USA,39.40324917,-119.2518292
B16,USBP,Weedsport,NY,USA,43.08027611,-76.53837556
B19,USBP,Biddeford,ME,USA,43.46411111,-70.47238889
B21,USBP,Carrabasset,ME,USA,45.08616639,-70.21617778
BAF,USBP,Westfield,MA,USA,42.15773111,-72.71562028
BAK,USBP,Columbus,IN,USA,39.26191861,-85.89634556
BAM,USBP,Battle Mountain,NV,USA,40.59904583,-116.8743358
BAX,USBP,Bad Axe,MI,USA,43.78091667,-82.98566667
BAZ,USBP,New Braunfels,TX,USA,29.7045,-98.04222222
BBB,USBP,Benson,MN,USA,45.3319325,-95.650565
BBD,USBP,Brady,TX,USA,31.17816667,-99.32463889
BBP,USBP,Bennettsville,SC,USA,34.62170861,-79.73435944
BBW,USBP,Broken Bow,NE,USA,41.43645056,-99.64216861
BCB,USBP,Blacksburg,VA,USA,37.20782361,-80.40832778
BCE,USBP,Bryce Canyon,UT,USA,37.70637111,-112.1454725
BCK,USBP,Black River Falls,WI,USA,44.25073861,-90.85528028
BCT,USBP,Boca Raton,FL,USA,26.37848667,-80.10769667
BCV,USBP,Birchwood,AK,USA,61.41612444,-149.50888
BDE,USBP,Baudette,MN,USA,48.72741667,-94.61030556
BDG,USBP,Blanding,UT,USA,37.58303472,-109.4832889
BDL,USBP,Windsor Locks,CT,USA,41.93887417,-72.68322833
BDQ,USBP,Morrilton,AR,USA,35.13619528,-92.71349722
BDR,USBP,Bridgeport,CT,USA,41.16348417,-73.12617861
BDX,USBP,Broadus,MT,USA,45.433325,-105.4172133
BED,USBP,Bedford,MA,USA,42.46995306,-71.28903
BEH,USBP,Benton Harbor,MI,USA,42.12858333,-86.4285
BET,USBP,Bethel,AK,USA,60.77977639,-161.8379975
BFD,USBP,Bradford,PA,USA,41.80306778,-78.64012083
BFF,USBP,Scottsbluff,NE,USA,41.87402778,-103.5956389
BFI,USBP,Seattle,WA,USA,47.52998917,-122.3019561
BFK,USBP,Buffalo,OK,USA,36.86330139,-99.61873056
BFL,USBP,Bakersfield,CA,USA,35.43359806,-119.0567681
BFM,USBP,Mobile,AL,USA,30.62646944,-88.06799861
BFR,USBP,Bedford,IN,USA,38.84003306,-86.44536361
BFW,USBP,Silver Bay,MN,USA,47.24902778,-91.41558333
BGD,USBP,Borger,TX,USA,35.70004194,-101.3940536
BGE,USBP,Bainbridge,GA,USA,30.97152778,-84.63744444
BGF,USBP,Winchester,TN,USA,35.17753417,-86.06616722
BGM,USBP,Binghamton,NY,USA,42.20848278,-75.97961361
BGQ,USBP,Big Lake,AK,USA,61.53556806,-149.8138975
BGR,USBP,Bangor,ME,USA,44.80744444,-68.82813889
BHB,USBP,Bar Harbor,ME,USA,44.44969444,-68.3615
BHC,USBP,Baxley,GA,USA,31.71383333,-82.39377778
BHK,USBP,Baker City,MT,USA,46.34763639,-104.2594475
BHM,USBP,Birmingham,AL,USA,33.56294306,-86.75354972
BID,USBP,Block Island,RI,USA,41.16811889,-71.57784167
BIE,USBP,Beatrice,NE,USA,40.30127778,-96.75411111
BIG,USBP,Delta Junction,AK,USA,63.99454722,-145.7216417
BIH,USBP,Bishop,CA,USA,37.37309556,-118.3636089
BIL,USBP,Billings,MT,USA,45.8076625,-108.5428611
BIS,USBP,Bismarck,ND,USA,46.77411111,-100.7467222
BIV,USBP,Holland,MI,USA,42.74316667,-86.10502778
BJC,USBP,Denver,CO,USA,39.90878667,-105.1172158
BJI,USBP,Bemidji,MN,USA,47.50942417,-94.93372333
BJJ,USBP,Wooster,OH,USA,40.87480556,-81.88825
BKD,USBP,Breckenridge,TX,USA,32.71904694,-98.89099972
BKE,USBP,Baker City,OR,USA,44.83733333,-117.8090833
BKL,USBP,Cleveland,OH,USA,41.5175,-81.68333333
BKV,USBP,Brooksville,FL,USA,28.47359722,-82.45542139
BKW,USBP,Beckley,WV,USA,37.78732833,-81.12416417
BKX,USBP,Brookings,SD,USA,44.30483333,-96.81694444
BLF,USBP,Bluefield,WV,USA,37.29579944,-81.20769056
BLH,USBP,Blythe,CA,USA,33.61916278,-114.7168764
BLI,USBP,Bellingham,WA,USA,48.79275,-122.5375278
BLM,USBP,Belmar/Farmingdale,NJ,USA,40.18691806,-74.12488694
BLV,USBP,Belleville/St. Louis,IL,USA,38.54517861,-89.83518444
BMC,USBP,Brigham City,UT,USA,41.55239139,-112.0622625
BMG,USBP,Bloomington,IN,USA,39.14602139,-86.61668278
BMI,USBP,Bloomington,IL,USA,40.47798556,-88.91595278
BML,USBP,Berlin,NH,USA,44.57537278,-71.17593167
BMQ,USBP,Burnet,TX,USA,30.73894444,-98.23858333
BMT,USBP,Beaumont,TX,USA,30.07044111,-94.21553806
BNA,USBP,Nashville,TN,USA,36.12447667,-86.67818222
BNF,USBP,Baranof Warm Springs,AK,USA,57.08882583,-134.8331414
BNG,USBP,Banning,CA,USA,33.92307111,-116.8505756
BNL,USBP,Barnwell,SC,USA,33.25777778,-81.38833333
BNO,USBP,Burns,OR,USA,43.59212778,-118.9549789
BNW,USBP,Boone,IA,USA,42.04956944,-93.84757222
BOI,USBP,Boise,ID,USA,43.56444444,-116.2227778
BOK,USBP,Brookings,OR,USA,42.07455556,-124.2900939
BOS,USBP,Boston,MA,USA,42.3643475,-71.00517917
BOW,USBP,Bartow,FL,USA,27.9433575,-81.78344167
BPI,USBP,Big Piney,WY,USA,42.58506972,-110.1111531
BPK,USBP,Mountain Home,AR,USA,36.36894194,-92.47052806
BPT,USBP,Beaumont/Port Arthur,TX,USA,29.95083333,-94.02069444
BQK,USBP,Brunswick,GA,USA,31.25902778,-81.46630556
BQN,USBP,Aguadilla,PR,USA,18.49486111,-67.12944444
BRD,USBP,Brainerd,MN,USA,46.39785806,-94.1372275
BRL,USBP,Burlington,IA,USA,40.783225,-91.12550556
BRO,USBP,Brownsville,TX,USA,25.90683333,-97.42586111
BRW,USBP,Barrow,AK,USA,71.2854475,-156.7660019
BRY,USBP,Bardstown,KY,USA,37.81432167,-85.49963806
BST,USBP,Belfast,ME,USA,44.40966667,-69.01225
BTI,USBP,Kaktovik,AK,USA,70.13390278,-143.5770444
BTL,USBP,Battle Creek,MI,USA,42.30727806,-85.25147972
BTM,USBP,Butte,MT,USA,45.95479528,-112.49746
BTN,USBP,Britton,SD,USA,45.81522222,-97.74313889
BTP,USBP,Butler,PA,USA,40.77692611,-79.94972417
BTR,USBP,Baton Rouge,LA,USA,30.53316083,-91.14963444
BTT,USBP,Bettles,AK,USA,66.91528667,-151.5280556
BTV,USBP,Burlington,VT,USA,44.47300361,-73.1503125
BTY,USBP,Beatty,NV,USA,36.86105722,-116.7870036
BUB,USBP,Burwell,NE,USA,41.77669444,-99.14975
BUF,USBP,Buffalo,NY,USA,42.94052472,-78.73216667
BUM,USBP,Butler,MO,USA,38.28977028,-94.34012694
BUR,USBP,Burbank,CA,USA,34.20061917,-118.3584969
BUY,USBP,Burlington,NC,USA,36.04854333,-79.47488694
BVI,USBP,Beaver Falls,PA,USA,40.77248083,-80.39142556
BVK,USBP,Buckland,AK,USA,65.98228611,-161.1519778
BVN,USBP,Albion,NE,USA,41.72857778,-98.05575972
BVO,USBP,Bartlesville,OK,USA,36.76247611,-96.01115167
BVS,USBP,Burlington/Mount Vernon,WA,USA,48.47088889,-122.4208611
BVX,USBP,Batesville,AR,USA,35.726105,-91.64736083
BVY,USBP,Beverly,MA,USA,42.58417111,-70.91651833
BWC,USBP,Brawley,CA,USA,32.9931,-115.5169325
BWD,USBP,Brownwood,TX,USA,31.79362222,-98.95649528
BWG,USBP,Bowling Green,KY,USA,36.96451667,-86.41967917
BWI,USBP,Baltimore,MD,USA,39.17540167,-76.66819833
BWP,USBP,Wahpeton,ND,USA,46.24640083,-96.6056825
BXA,USBP,Bogalusa,LA,USA,30.81368639,-89.86496444
BXG,USBP,Waynesboro,GA,USA,33.04093056,-82.00397917
BXK,USBP,Buckeye,AZ,USA,33.42088556,-112.6863
BYA,USBP,Boundary,AK,USA,64.07830278,-141.113375
BYG,USBP,Buffalo,WY,USA,44.38108528,-106.7217897
BYI,USBP,Burley,ID,USA,42.54260361,-113.7715442
BZN,USBP,Bozeman,MT,USA,45.77690139,-111.1530072
C00,USBP,Aledo,IL,USA,41.248645,-90.73708361
C05,USBP,Chenega,AK,USA,60.07730556,-147.9918889
C09,USBP,Morris,IL,USA,41.42541667,-88.41869444
C15,USBP,Pekin,IL,USA,40.48820611,-89.67591083
C17,USBP,Marion,IA,USA,42.03111083,-91.52934222
C18,USBP,Chicago/Frankfort,IL,USA,41.4775,-87.84047222
C25,USBP,Waverly,IA,USA,42.7419525,-92.50793528
C29,USBP,Middleton,WI,USA,43.11424444,-89.53073222
C34,USBP,Gibson City,IL,USA,40.48578389,-88.2672725
C35,USBP,Reedsburg,WI,USA,43.52589944,-89.98322194
C47,USBP,Portage,WI,USA,43.5600925,-89.48309278
C52,USBP,Burlington,WI,USA,42.69056389,-88.30464
C56,USBP,Chicago/Monee,IL,USA,41.37756167,-87.68137528
C62,USBP,Kendallville,IN,USA,41.47271639,-85.26080833
C65,USBP,Plymouth,IN,USA,41.36513333,-86.30050417
C66,USBP,Monmouth,IL,USA,40.92970444,-90.63110722
C71,USBP,Crosby,MS,USA,31.29600472,-91.05288167
C73,USBP,Dixon,IL,USA,41.83369889,-89.44621333
C75,USBP,Lacon,IL,USA,41.01928583,-89.38642222
C77,USBP,Poplar Grove,IL,USA,42.32268639,-88.83651833
C80,USBP,Coalinga,CA,USA,36.16313889,-120.2938139
C81,USBP,Chicago/Round Lake Park,IL,USA,42.32461111,-88.07408806
C83,USBP,Byron,CA,USA,37.8284525,-121.6258219
C91,USBP,Dowagiac,MI,USA,41.99293417,-86.1280125
CAD,USBP,Cadillac,MI,USA,44.27531333,-85.41892694
CAE,USBP,Columbia,SC,USA,33.93884,-81.11953944
CAG,USBP,Craig,CO,USA,40.49522139,-107.5216467
CAK,USBP,Akron,OH,USA,40.91631194,-81.44246556
CAO,USBP,Clayton,NM,USA,36.44585972,-103.1546583
CAR,USBP,Caribou,ME,USA,46.8715,-68.01791667
CAV,USBP,Clarion,IA,USA,42.74194389,-93.75890944
CBE,USBP,Cumberland,MD,USA,39.61541667,-78.76086361
CBF,USBP,Council Bluffs,IA,USA,41.25947222,-95.75997222
CBG,USBP,Cambridge,MN,USA,45.55854639,-93.26464361
CBK,USBP,Colby,KS,USA,39.42753083,-101.0465719
CCB,USBP,Upland,CA,USA,34.11154056,-117.6875897
CCO,USBP,Newnan,GA,USA,33.31208333,-84.77027778
CCR,USBP,Concord,CA,USA,37.98965639,-122.0568972
CCY,USBP,Charles City,IA,USA,43.07260861,-92.61077833
CDB,USBP,Cold Bay,AK,USA,55.20559972,-162.7242628
CDC,USBP,Cedar City,UT,USA,37.70097028,-113.098575
CDH,USBP,Camden,AR,USA,33.62279917,-92.76339528
CDI,USBP,Cambridge,OH,USA,39.97504417,-81.57759528
CDK,USBP,Cedar Key,FL,USA,29.137745,-83.04984361
CDN,USBP,Camden,SC,USA,34.28358333,-80.56486111
CDR,USBP,Chadron,NE,USA,42.83755556,-103.0954167
CDV,USBP,Cordova,AK,USA,60.49183389,-145.4776503
CDW,USBP,Caldwell,NJ,USA,40.87522278,-74.28135667
CEC,USBP,Crescent City,CA,USA,41.78015722,-124.2365333
CEF,USBP,Chicopee,MA,USA,42.19826389,-72.53425833
CEK,USBP,Crete,NE,USA,40.61791667,-96.92488889
CEM,USBP,Central,AK,USA,65.57380667,-144.7832908
CEU,USBP,Clemson,SC,USA,34.67205556,-82.88644444
CEV,USBP,Connersville,IN,USA,39.69803139,-85.13124528
CEW,USBP,Crestview,FL,USA,30.77883333,-86.52211111
CEY,USBP,Murray,KY,USA,36.66458333,-88.37277722
CEZ,USBP,Cortez,CO,USA,37.30299778,-108.6280658
CFD,USBP,Bryan,TX,USA,30.71569444,-96.33136111
CFJ,USBP,Crawfordsville,IN,USA,39.97562861,-86.91986361
CFK,USBP,Chefornak,AK,USA,60.14922556,-164.2856325
CFT,USBP,Clifton-Morenci,AZ,USA,32.95284306,-109.2103453
CFV,USBP,Coffeyville,KS,USA,37.0940475,-95.57189417
CGA,USBP,Craig,AK,USA,55.47883139,-133.1478011
CGC,USBP,Crystal River,FL,USA,28.86727778,-82.57130556
CGE,USBP,Cambridge,MD,USA,38.53930556,-76.03036111
CGF,USBP,Cleveland,OH,USA,41.56512389,-81.48635389
CGI,USBP,Cape Girardeau,MO,USA,37.22531694,-89.57075167
CGS,USBP,College Park,MD,USA,38.98058333,-76.92230556
CGX,USBP,Chicago,IL,USA,41.85884389,-87.60791167
CGZ,USBP,Casa Grande,AZ,USA,32.95488889,-111.7668333
CHA,USBP,Chattanooga,TN,USA,35.03526833,-85.20378778
CHD,USBP,Chandler,AZ,USA,33.26908333,-111.8111389
CHK,USBP,Chickasha,OK,USA,35.09614694,-97.96618361
CHO,USBP,Charlottesville,VA,USA,38.13863889,-78.45286111
CHP,USBP,Circle Hot Springs,AK,USA,65.48547222,-144.6107836
CHS,USBP,Charleston,SC,USA,32.89864639,-80.04050583
CHT,USBP,Chillicothe,MO,USA,39.78215278,-93.49568056
CHU,USBP,Caledonia,MN,USA,43.59635861,-91.50394639
CIC,USBP,Chico,CA,USA,39.79538278,-121.8584231
CID,USBP,Cedar Rapids,IA,USA,41.88458833,-91.71087222
CII,USBP,Choteau,MT,USA,47.82528056,-112.1662136
CIK,USBP,Chalkyitsik,AK,USA,66.64969083,-143.7359492
CIN,USBP,Carroll,IA,USA,42.04619444,-94.789
CIR,USBP,Cairo,IL,USA,37.06447222,-89.21961111
CIU,USBP,Sault Ste. Marie,MI,USA,46.25075194,-84.47238528
CJR,USBP,Culpeper,VA,USA,38.5267075,-77.85885528
CJX,USBP,Crooked Creek,AK,USA,61.86902194,-158.1371178
CKB,USBP,Clarksburg,WV,USA,39.29663889,-80.22808333
CKC,USBP,Grand Marais,MN,USA,47.83830556,-90.38313889
CKF,USBP,Cordele,GA,USA,31.98883333,-83.77391667
CKI,USBP,Kingstree,SC,USA,33.71722222,-79.85697222
CKM,USBP,Clarksdale,MS,USA,34.29971,-90.51231611
CKN,USBP,Crookston,MN,USA,47.84169417,-96.62162028
CKP,USBP,Cherokee,IA,USA,42.73147222,-95.55613889
CKU,USBP,Cordova,AK,USA,60.54390333,-145.7267042
CKV,USBP,Clarksville,TN,USA,36.62188083,-87.41495361
CKX,USBP,Chicken,AK,USA,64.07133833,-141.9522792
CLD,USBP,NA,NA,USA,33.127231,-117.278727
CLE,USBP,Cleveland,OH,USA,41.41089417,-81.84939667
CLI,USBP,Clintonville,WI,USA,44.61381306,-88.73126667
CLK,USBP,Clinton,OK,USA,35.53832778,-98.932695
CLL,USBP,College Station,TX,USA,30.58858944,-96.36382417
CLM,USBP,Port Angeles,WA,USA,48.12019444,-123.4996944
CLP,USBP,Clarks Point,AK,USA,58.84230472,-158.5452331
CLS,USBP,Chehalis,WA,USA,46.67649194,-122.9792967
CLT,USBP,Charlotte,NC,USA,35.21401111,-80.94312583
CLW,USBP,Clearwater,FL,USA,27.97668639,-82.75874028
CMA,USBP,Camarillo,CA,USA,34.21375472,-119.0943264
CMH,USBP,Columbus,OH,USA,39.99798528,-82.89188278
CMI,USBP,Champaign/Urbana,IL,USA,40.03925,-88.27805556
CMX,USBP,Hancock,MI,USA,47.16841722,-88.48906083
CMY,USBP,Sparta,WI,USA,43.95834806,-90.7378975
CNC,USBP,Chariton,IA,USA,41.01962389,-93.35968028
CNH,USBP,Claremont,NH,USA,43.37043194,-72.36867667
CNK,USBP,Concordia,KS,USA,39.54925139,-97.65231667
CNM,USBP,Carlsbad,NM,USA,32.33747222,-104.2632778
CNO,USBP,Chino,CA,USA,33.97469444,-117.6366111
CNP,USBP,Chappell,NE,USA,41.07747222,-102.4640556
CNU,USBP,Chanute,KS,USA,37.66879722,-95.48506444
CNW,USBP,Waco,TX,USA,31.63783139,-97.07413889
CNY,USBP,Moab,UT,USA,38.75495611,-109.7548439
COD,USBP,Cody,WY,USA,44.52019417,-109.0237961
COE,USBP,Coeur D'Alene,ID,USA,47.77429167,-116.8196231
COI,USBP,Merritt Island,FL,USA,28.34158944,-80.6854975
COM,USBP,Coleman,TX,USA,31.84113889,-99.40361111
CON,USBP,Concord,NH,USA,43.20273278,-71.50228556
COQ,USBP,Cloquet,MN,USA,46.70016833,-92.50552861
COS,USBP,Colorado Springs,CO,USA,38.80580556,-104.70025
COT,USBP,Cotulla,TX,USA,28.45825583,-99.22016389
COU,USBP,Columbia,MO,USA,38.81809306,-92.21962917
CPC,USBP,Whiteville,NC,USA,34.27287278,-78.71499278
CPK,USBP,Norfolk,VA,USA,36.66561833,-76.32066389
CPM,USBP,Compton,CA,USA,33.89001611,-118.2436831
CPR,USBP,Casper,WY,USA,42.90835556,-106.4644661
CPS,USBP,Cahokia/St. Louis,IL,USA,38.57072444,-90.15622111
CPX,USBP,Isla De Culebra,PR,USA,18.31328917,-65.30432444
CQA,USBP,Celina,OH,USA,40.48408333,-84.56011111
CQB,USBP,Chandler,OK,USA,35.72381556,-96.82027306
CQX,USBP,Chatham,MA,USA,41.68840028,-69.98952417
CRC,USBP,Circle,AK,USA,65.83049389,-144.0758128
CRE,USBP,North Myrtle Beach,SC,USA,33.81175,-78.72394444
CRG,USBP,Jacksonville,FL,USA,30.33633333,-81.51444444
CRO,USBP,Corcoran,CA,USA,36.10245111,-119.5948469
CRP,USBP,Corpus Christi,TX,USA,27.77036083,-97.50121528
CRQ,USBP,Carlsbad,CA,USA,33.12822222,-117.2802222
CRS,USBP,Corsicana,TX,USA,32.02748861,-96.39803611
CRT,USBP,Crossett,AR,USA,33.17833278,-91.88018806
CRW,USBP,Charleston,WV,USA,38.37315083,-81.59318972
CRX,USBP,Corinth,MS,USA,34.91496778,-88.60348361
CSB,USBP,Cambridge,NE,USA,40.30658333,-100.1620833
CSG,USBP,Columbus,GA,USA,32.51633333,-84.93886111
CSM,USBP,Clinton,OK,USA,35.33983917,-99.20049944
CSQ,USBP,Creston,IA,USA,41.02146139,-94.36331917
CSV,USBP,Crossville,TN,USA,35.95129194,-85.08497806
CTB,USBP,Cut Bank,MT,USA,48.60835444,-112.3761464
CTJ,USBP,Carrollton,GA,USA,33.63102778,-85.15202778
CTK,USBP,Canton,IL,USA,40.56909444,-90.07484
CTY,USBP,Cross City,FL,USA,29.63552778,-83.10475
CTZ,USBP,Clinton,NC,USA,34.97561194,-78.36461528
CUB,USBP,Columbia,SC,USA,33.97047222,-80.99525
CUH,USBP,Cushing,OK,USA,35.949925,-96.77305278
CUL,USBP,Carmi,IL,USA,38.08947917,-88.12306111
CUT,USBP,Custer,SD,USA,43.73331611,-103.6176947
CVG,USBP,Covington,KY,USA,39.04614278,-84.6621725
CVK,USBP,Ash Flat,AR,USA,36.26487139,-91.56264111
CVN,USBP,Clovis,NM,USA,34.42513889,-103.0792778
CVO,USBP,Corvallis,OR,USA,44.49719361,-123.2898297
CVX,USBP,Charlevoix,MI,USA,45.30477778,-85.27477778
CWA,USBP,Mosinee,WI,USA,44.77761917,-89.66677944
CWF,USBP,Lake Charles,LA,USA,30.21059167,-93.14318944
CWI,USBP,Clinton,IA,USA,41.8311125,-90.32913056
CWV,USBP,Claxton,GA,USA,32.19505556,-81.86955556
CXC,USBP,Chitina,AK,USA,61.58285917,-144.4270969
CXE,USBP,Chase City,VA,USA,36.78833556,-78.50155361
CXF,USBP,Coldfoot,AK,USA,67.25163417,-150.2065672
CXL,USBP,Calexico,CA,USA,32.66950333,-115.5133281
CXO,USBP,Conroe,TX,USA,30.35183333,-95.4144675
CXP,USBP,Carson City,NV,USA,39.19222972,-119.7343611
CXU,USBP,Camilla,GA,USA,31.21291667,-84.23680556
CXY,USBP,Harrisburg,PA,USA,40.21713889,-76.85147222
CYO,USBP,Circleville,OH,USA,39.51600611,-82.98215361
CYS,USBP,Cheyenne,WY,USA,41.1557225,-104.8118381
CYW,USBP,Clay Center,KS,USA,39.38713889,-97.15721417
CZD,USBP,Cozad,NE,USA,40.86911111,-100.0042222
CZG,USBP,Endicott,NY,USA,42.07853583,-76.09633306
CZL,USBP,Calhoun,GA,USA,34.45678278,-84.93949944
CZN,USBP,Chisana,AK,USA,62.07118972,-142.0483742
CZT,USBP,Carrizo Springs,TX,USA,28.52225111,-99.82363444
D04,USBP,Bowman,ND,USA,46.18699111,-103.4280806
D05,USBP,Garrison,ND,USA,47.65594444,-101.4372222
D07,USBP,Faith,SD,USA,45.03609417,-102.0198803
D09,USBP,Bottineau,ND,USA,48.83039167,-100.4171361
D19,USBP,Luverne,MN,USA,43.62080278,-96.21864028
D22,USBP,Angola,NY,USA,42.66010111,-78.99115556
D25,USBP,Manitowish Waters,WI,USA,46.12197222,-89.88233333
D38,USBP,Canandaiga,NY,USA,42.90718611,-77.32162639
D42,USBP,Springfield,MN,USA,44.23107,-94.99893444
D50,USBP,Crosby,ND,USA,48.92851556,-103.2972514
D55,USBP,Langdon,ND,USA,48.75301778,-98.39333694
D57,USBP,Glen Ullin,ND,USA,46.81278306,-101.8601556
D60,USBP,Tioga,ND,USA,48.3805325,-102.8979853
D73,USBP,Monroe,GA,USA,33.78149889,-83.69355389
D77,USBP,Lancaster,NY,USA,42.92228111,-78.61224889
D87,USBP,Harbor Springs,MI,USA,45.42556528,-84.91338389
D95,USBP,Lapeer,MI,USA,43.06703333,-83.27244444
D98,USBP,Romeo,MI,USA,42.79699083,-82.97526583
DAB,USBP,Daytona Beach,FL,USA,29.17991667,-81.05805556
DAG,USBP,Daggett,CA,USA,34.85371333,-116.7866875
DAL,USBP,Dallas,TX,USA,32.84711389,-96.85177222
DAN,USBP,Danville,VA,USA,36.57286111,-79.33611111
DAW,USBP,Rochester,NH,USA,43.28406194,-70.92925472
DAY,USBP,Dayton,OH,USA,39.90237583,-84.219375
DBN,USBP,Dublin,GA,USA,32.56445806,-82.98525556
DBQ,USBP,Dubuque,IA,USA,42.40295944,-90.70916722
DCA,USBP,Arlington,VA,USA,38.85208333,-77.03772222
DCK,USBP,Dahl Creek,AK,USA,66.94333806,-156.9046739
DCU,USBP,Decatur,AL,USA,34.65264667,-86.94536778
DCY,USBP,Washington,IN,USA,38.70042333,-87.12973222
DDC,USBP,Dodge City,KS,USA,37.76312194,-99.96542389
DDH,USBP,Bennington,VT,USA,42.8913325,-73.2464075
DEC,USBP,Decatur,IL,USA,39.8345625,-88.86568917
DED,USBP,Deland,FL,USA,29.06698056,-81.28394167
DEE,USBP,Deering,AK,USA,66.06820583,-162.7666028
DEH,USBP,Decorah,IA,USA,43.27550139,-91.73937389
DEN,USBP,Denver,CO,USA,39.85840806,-104.6670019
DEQ,USBP,De Queen,AR,USA,34.04699556,-94.39936556
DET,USBP,Detroit,MI,USA,42.40919444,-83.00986111
DEW,USBP,Deer Park,WA,USA,47.96663889,-117.4266667
DFI,USBP,Defiance,OH,USA,41.3375,-84.42880556
DFW,USBP,Dallas-Fort Worth,TX,USA,32.89595056,-97.0372
DGW,USBP,Douglas,WY,USA,42.79725,-105.3857361
DHN,USBP,Dothan,AL,USA,31.32133917,-85.44962889
DHT,USBP,Dalhart,TX,USA,36.022585,-102.5472775
DIK,USBP,Dickinson,ND,USA,46.79738889,-102.8019528
DKB,USBP,Dekalb,IL,USA,41.93188111,-88.70829861
DKK,USBP,Dunkirk,NY,USA,42.49333528,-79.27204167
DKX,USBP,Knoxville,TN,USA,35.96383361,-83.87365389
DLG,USBP,Dillingham,AK,USA,59.0454125,-158.5033389
DLH,USBP,Duluth,MN,USA,46.84209028,-92.19364861
DLL,USBP,Baraboo,WI,USA,43.52195389,-89.77090222
DLN,USBP,Dillon,MT,USA,45.25536056,-112.5525067
DLO,USBP,Delano,CA,USA,35.74558056,-119.2365039
DLS,USBP,The Dalles,OR,USA,45.61854556,-121.1673439
DLZ,USBP,Delaware,OH,USA,40.27970139,-83.11480167
DM2,USBP,Diomede,AK,USA,65.75861111,-168.9530556
DMN,USBP,Deming,NM,USA,32.26230917,-107.7206397
DMO,USBP,Sedalia,MO,USA,38.70688889,-93.17611111
DMW,USBP,Westminster,MD,USA,39.60827778,-77.00766667
DNL,USBP,Augusta,GA,USA,33.46663667,-82.03933917
DNN,USBP,Dalton,GA,USA,34.72174833,-84.86910806
DNS,USBP,Denison,IA,USA,41.9864325,-95.38072083
DNV,USBP,Danville,IL,USA,40.19946861,-87.59553528
DOV,USBP,Dover,DE,USA,39.1301125,-75.46631028
DPA,USBP,Chicago/West Chicago,IL,USA,41.90688333,-88.24841722
DPL,USBP,Kenansville,NC,USA,35.00006444,-77.981695
DQH,USBP,Douglas,GA,USA,31.47780833,-82.85961556
DRI,USBP,De Ridder,LA,USA,30.83152778,-93.33963889
DRO,USBP,Durango,CO,USA,37.15151667,-107.7537692
DRT,USBP,Del Rio,TX,USA,29.37181222,-100.9232339
DSM,USBP,Des Moines,IA,USA,41.53493306,-93.66068222
DSV,USBP,Dansville,NY,USA,42.57089972,-77.71305083
DTA,USBP,Delta,UT,USA,39.38328861,-112.5096683
DTL,USBP,Detroit Lakes,MN,USA,46.82520861,-95.8856875
DTN,USBP,Shreveport,LA,USA,32.54021889,-93.7450225
DTO,USBP,Denton,TX,USA,33.20072167,-97.19797722
DTS,USBP,Destin,FL,USA,30.40006111,-86.47147722
DTW,USBP,Detroit,MI,USA,42.21205889,-83.34883583
DUA,USBP,Durant,OK,USA,33.942265,-96.39451806
DUC,USBP,Duncan,OK,USA,34.470875,-97.95986111
DUG,USBP,Douglas Bisbee,AZ,USA,31.46902778,-109.6036667
DUJ,USBP,Du Bois,PA,USA,41.17826611,-78.89869778
DUT,USBP,Unalaska,AK,USA,53.90013889,-166.5435
DUX,USBP,Dumas,TX,USA,35.85792833,-102.0130978
DUY,USBP,Kongiganak,AK,USA,59.95950583,-162.8817231
DVK,USBP,Danville,KY,USA,37.57791667,-84.76969444
DVL,USBP,Devils Lake,ND,USA,48.11424528,-98.90877833
DVN,USBP,Davenport,IA,USA,41.6102775,-90.58832528
DVO,USBP,Novato,CA,USA,38.14351944,-122.5572167
DVT,USBP,Phoenix,AZ,USA,33.68831667,-112.0825614
DWH,USBP,Houston,TX,USA,30.06186111,-95.55277778
DWU,USBP,Ashland,KY,USA,38.5545,-82.738
DXE,USBP,Dexter,MO,USA,36.77747,-89.94117333
DXR,USBP,Danbury,CT,USA,41.37153528,-73.48219056
DXX,USBP,Madison,MN,USA,44.98624,-96.17773611
DYB,USBP,Summerville,SC,USA,33.06344444,-80.27933333
DYL,USBP,Doylestown,PA,USA,40.33305028,-75.12233833
DYR,USBP,Dyersburg,TN,USA,35.99850694,-89.40608333
DYT,USBP,Duluth,MN,USA,46.72186083,-92.04343889
E01,USBP,Monahans,TX,USA,31.58246583,-102.9090428
E04,USBP,Eunice,NM,USA,32.45679139,-103.2404708
E05,USBP,Hatch,NM,USA,32.66106083,-107.1979339
E06,USBP,Lovington,NM,USA,32.95394444,-103.4087778
E07,USBP,Tatum,NM,USA,33.26122278,-103.2768939
E11,USBP,Andrews,TX,USA,32.33111111,-102.5295278
E15,USBP,Graham,TX,USA,33.11022222,-98.55527861
E19,USBP,Gruver,TX,USA,36.23372611,-101.4321894
E24,USBP,Whiteriver,AZ,USA,33.81255056,-109.9867658
E25,USBP,Wickenburg,AZ,USA,33.96891833,-112.7985128
E26,USBP,Jal,NM,USA,32.13107833,-103.1548506
E35,USBP,Fabens,TX,USA,31.51567306,-106.1471978
E38,USBP,Alpine,TX,USA,30.38422222,-103.6835833
E42,USBP,Spearman,TX,USA,36.221,-101.1945
E51,USBP,Bagdad,AZ,USA,34.59585278,-113.170195
E52,USBP,Vega,TX,USA,35.23199833,-102.3990931
E60,USBP,Eloy,AZ,USA,32.80700583,-111.58679
E63,USBP,Gila Bend,AZ,USA,32.95810083,-112.6782181
E80,USBP,Belen,NM,USA,34.64519778,-106.8336958
E89,USBP,Conchas Dam,NM,USA,35.36671583,-104.1880314
E91,USBP,Chinle,AZ,USA,36.11088056,-109.5754222
E94,USBP,Glenwood,NM,USA,33.35283972,-108.8672858
E95,USBP,Benson,AZ,USA,31.99972222,-110.3572222
EAA,USBP,Eagle,AK,USA,64.77639306,-141.1509206
EAN,USBP,Wheatland,WY,USA,42.05552528,-104.9327492
EAR,USBP,Kearney,NE,USA,40.72702778,-99.00677778
EAT,USBP,Wenatchee,WA,USA,47.39886111,-120.2068333
EAU,USBP,Eau Claire,WI,USA,44.86525722,-91.48507194
EBS,USBP,Webster City,IA,USA,42.43663889,-93.86886111
ECG,USBP,Elizabeth City,NC,USA,36.26057417,-76.17459778
ECS,USBP,Newcastle,WY,USA,43.88545056,-104.3179178
EDE,USBP,Edenton,NC,USA,36.027735,-76.56709333
EDN,USBP,Enterprise,AL,USA,31.29972222,-85.89986111
EED,USBP,Needles,CA,USA,34.76619444,-114.6232931
EEK,USBP,Eek,AK,USA,60.21590417,-162.0056092
EEN,USBP,Keene,NH,USA,42.89839944,-72.27078111
EEO,USBP,Meeker,CO,USA,40.04886222,-107.8859067
EET,USBP,Alabaster,AL,USA,33.17781083,-86.78323722
EFC,USBP,Belle Fourche,SD,USA,44.7342075,-103.8619925
EFD,USBP,Houston,TX,USA,29.60733333,-95.15875
EFK,USBP,Newport,VT,USA,44.88879722,-72.22915833
EFT,USBP,Monroe,WI,USA,42.61493972,-89.59075583
EFW,USBP,Jefferson,IA,USA,42.01016667,-94.34258333
EGE,USBP,Eagle,CO,USA,39.64256778,-106.9176953
EGQ,USBP,Emmetsburg,IA,USA,43.10202056,-94.704675
EGT,USBP,Wellington,KS,USA,37.32441028,-97.38732333
EGV,USBP,Eagle River,WI,USA,45.93179639,-89.26906778
EHA,USBP,Elkhart,KS,USA,37.00188194,-101.8821258
EHO,USBP,Shelby,NC,USA,35.25555556,-81.60099722
EHR,USBP,Henderson,KY,USA,37.8078425,-87.68569
EII,USBP,Egegik,AK,USA,58.18837472,-157.3809872
EIW,USBP,New Madrid,MO,USA,36.53531083,-89.59971722
EKA,USBP,Eureka,CA,USA,40.80338889,-124.1127917
EKM,USBP,Elkhart,IN,USA,41.71935833,-86.00168361
EKN,USBP,Elkins,WV,USA,38.88944444,-79.85713889
EKO,USBP,Elko,NV,USA,40.82492611,-115.7916964
EKQ,USBP,Monticello,KY,USA,36.85527778,-84.85613889
EKX,USBP,Elizabethtown,KY,USA,37.68694444,-85.92377778
EKY,USBP,Bessemer,AL,USA,33.31288444,-86.92591889
ELA,USBP,Eagle Lake,TX,USA,29.60301389,-96.32248444
ELD,USBP,El Dorado,AR,USA,33.2208625,-92.81325167
ELI,USBP,Elim,AK,USA,64.61400972,-162.2700681
ELK,USBP,Elk City,OK,USA,35.42941083,-99.39425917
ELM,USBP,Elmira,NY,USA,42.15991361,-76.89144333
ELN,USBP,Ellensburg,WA,USA,47.03302778,-120.5306944
ELO,USBP,Ely,MN,USA,47.82454639,-91.83073056
ELP,USBP,El Paso,TX,USA,31.80666667,-106.3778056
ELV,USBP,Elfin Cove,AK,USA,58.19518417,-136.3473928
ELY,USBP,Ely,NV,USA,39.29969444,-114.8418889
ELZ,USBP,Wellsville,NY,USA,42.10951194,-77.99194806
EMM,USBP,Kemmerer,WY,USA,41.82494611,-110.5590586
EMP,USBP,Emporia,KS,USA,38.33211111,-96.19116667
EMT,USBP,El Monte,CA,USA,34.08600889,-118.0348453
EMV,USBP,Emporia,VA,USA,36.68691667,-77.48280556
ENA,USBP,Kenai,AK,USA,60.572,-151.2475278
ENL,USBP,Centralia,IL,USA,38.51479889,-89.09217944
ENM,USBP,Emmonak,AK,USA,62.78518639,-164.4910461
ENN,USBP,Nenana,AK,USA,64.54898167,-149.0735053
ENV,USBP,Wendover,UT,USA,40.71869528,-114.03089
ENW,USBP,Kenosha,WI,USA,42.5957075,-87.92780333
EOK,USBP,Keokuk,IA,USA,40.45990778,-91.42850111
EOS,USBP,Neosho,MO,USA,36.81080556,-94.39169444
EPH,USBP,Ephrata,WA,USA,47.30758333,-119.5158889
EPM,USBP,Eastport,ME,USA,44.91011111,-67.01269444
EQA,USBP,El Dorado,KS,USA,37.77410833,-96.81762778
EQY,USBP,Monroe,NC,USA,35.01884306,-80.62023444
ERI,USBP,Erie,PA,USA,42.08202139,-80.17621556
ERV,USBP,Kerrville,TX,USA,29.976735,-99.08567972
ERY,USBP,Newberry,MI,USA,46.31118694,-85.45731639
ESC,USBP,Escanaba,MI,USA,45.72266972,-87.09373139
ESF,USBP,Alexandria,LA,USA,31.3949025,-92.29577194
ESN,USBP,Easton,MD,USA,38.80416667,-76.069
EST,USBP,Estherville,IA,USA,43.40744444,-94.74641667
ETB,USBP,West Bend,WI,USA,43.42219444,-88.12792667
ETC,USBP,Tarboro,NC,USA,35.93710083,-77.54663833
ETH,USBP,Wheaton,MN,USA,45.78046056,-96.54353972
ETN,USBP,Eastland,TX,USA,32.41349167,-98.80975667
EUF,USBP,Eufaula,AL,USA,31.95131917,-85.128925
EUG,USBP,Eugene,OR,USA,44.12326,-123.2186856
EUL,USBP,Caldwell (Boise),ID,USA,43.64186111,-116.6357778
EVB,USBP,New Smyrna Beach,FL,USA,29.05580556,-80.94836111
EVM,USBP,Eveleth,MN,USA,47.42507778,-92.49846944
EVU,USBP,Maryville,MO,USA,40.35260167,-94.91552722
EVV,USBP,Evansville,IN,USA,38.03799139,-87.53062667
EVW,USBP,Evanston,WY,USA,41.27494528,-111.0321286
EVY,USBP,Middletown,DE,USA,39.52038889,-75.72044444
EWB,USBP,New Bedford,MA,USA,41.67614167,-70.95694167
EWK,USBP,Newton,KS,USA,38.05710528,-97.27522861
EWN,USBP,New Bern,NC,USA,35.07297222,-77.04294444
EWR,USBP,Newark,NJ,USA,40.69249722,-74.16866056
EWU,USBP,Newtok,AK,USA,60.93865417,-164.6412147
EXI,USBP,Excursion Inlet,AK,USA,58.42049861,-135.4490328
EXX,USBP,Lexington,NC,USA,35.78114028,-80.30378194
EYE,USBP,Indianapolis,IN,USA,39.83070944,-86.29438056
EYW,USBP,Key West,FL,USA,24.55611111,-81.75955556
EZI,USBP,Kewanee,IL,USA,41.20520361,-89.96386
EZM,USBP,Eastman,GA,USA,32.21425,-83.12802778
EZZ,USBP,Cameron,MO,USA,39.72755972,-94.276375
F00,USBP,Bonham,TX,USA,33.61172222,-96.17938889
F01,USBP,Quanah,TX,USA,34.27708306,-99.75926861
F05,USBP,Vernon,TX,USA,34.22566806,-99.28375
F06,USBP,Wellington,TX,USA,34.84561083,-100.1959481
F08,USBP,Eufaula,OK,USA,35.29593194,-95.62526417
F10,USBP,Henryetta,OK,USA,35.40687972,-96.01583278
F12,USBP,Henderson,TX,USA,32.14172222,-94.85172222
F17,USBP,Center,TX,USA,31.83158333,-94.15641667
F18,USBP,Cleburne,TX,USA,32.35376389,-97.43375
F21,USBP,Memphis,TX,USA,34.73958944,-100.5297008
F22,USBP,Perry,OK,USA,36.38559583,-97.27721083
F24,USBP,Minden,LA,USA,32.64601,-93.29808556
F28,USBP,El Reno,OK,USA,35.47163639,-98.00599444
F29,USBP,Oklahoma City,OK,USA,35.4880825,-97.82354556
F30,USBP,Sulphur,OK,USA,34.52453278,-96.98973944
F31,USBP,Kingston,OK,USA,33.99287639,-96.64249722
F32,USBP,Healdton,OK,USA,34.24925806,-97.47391306
F36,USBP,Cordell,OK,USA,35.30421917,-98.96702167
F37,USBP,Wauchula,FL,USA,27.51364889,-81.88063917
F39,USBP,Sherman/Denison,TX,USA,33.71411111,-96.67366667
F41,USBP,Ennis,TX,USA,32.32969444,-96.66388889
F44,USBP,Athens,TX,USA,32.16384778,-95.82835306
F45,USBP,West Palm Beach,FL,USA,26.84537306,-80.22148111
F46,USBP,Rockwall,TX,USA,32.93059444,-96.43548556
F49,USBP,Slaton,TX,USA,33.48481,-101.6607158
F51,USBP,Winnsboro,TX,USA,32.93884556,-95.27886083
F53,USBP,Mount Vernon,TX,USA,33.21530583,-95.2374925
F55,USBP,Granbury,TX,USA,32.44441583,-97.8169475
F56,USBP,Stamford,TX,USA,32.91019472,-99.73422972
F70,USBP,Murieta/Temecula,CA,USA,33.57605556,-117.1279722
F80,USBP,Atoka,OK,USA,34.39833889,-96.14805972
F81,USBP,Okemah,OK,USA,35.42925306,-96.28778361
F84,USBP,Stigler,OK,USA,35.28910556,-95.09389722
F85,USBP,Morton,TX,USA,33.72926389,-102.7338183
F87,USBP,Farmerville,LA,USA,32.72495583,-92.33716583
F88,USBP,Jonesboro,LA,USA,32.20199028,-92.73293028
F89,USBP,Winnsboro,LA,USA,32.15431917,-91.70012472
F91,USBP,Weatherford,OK,USA,35.54482944,-98.66849028
F99,USBP,Holdenville,OK,USA,35.085875,-96.41666667
FAI,USBP,Fairbanks,AK,USA,64.8136775,-147.8596694
FAM,USBP,Farmington,MO,USA,37.76107917,-90.42859722
FAQ,USBP,Fitiuta Village,AS,USA,14.21577583,-169.4239058
FAR,USBP,Fargo,ND,USA,46.91934889,-96.81498889
FAT,USBP,Fresno,CA,USA,36.77619444,-119.7181389
FAY,USBP,Fayetteville,NC,USA,34.99147222,-78.88
FBL,USBP,Faribault,MN,USA,44.32468556,-93.31082889
FBR,USBP,Fort Bridger,WY,USA,41.39193583,-110.4067961
FBY,USBP,Fairbury,NE,USA,40.18297222,-97.16927778
FCA,USBP,Kalispell,MT,USA,48.31140472,-114.2550694
FCH,USBP,Fresno,CA,USA,36.732365,-119.8198961
FCI,USBP,Richmond,VA,USA,37.4065375,-77.52498667
FCM,USBP,Minneapolis,MN,USA,44.82724111,-93.45714639
FCY,USBP,Forrest City,AR,USA,34.94199806,-90.77496611
FDK,USBP,Frederick,MD,USA,39.41758333,-77.37430556
FDR,USBP,Frederick,OK,USA,34.35219472,-98.98460222
FDW,USBP,Winnsboro,SC,USA,34.31547222,-81.10880556
FDY,USBP,Findlay,OH,USA,41.01352778,-83.66869444
FEP,USBP,Freeport,IL,USA,42.24626722,-89.58223944
FET,USBP,Fremont,NE,USA,41.44913889,-96.52019444
FFA,USBP,Kill Devil Hills,NC,USA,36.01822278,-75.67128694
FFC,USBP,Atlanta,GA,USA,33.35725,-84.57183333
FFL,USBP,Fairfield,IA,USA,41.05332417,-91.97892333
FFM,USBP,Fergus Falls,MN,USA,46.28439389,-96.15668556
FFT,USBP,Frankfort,KY,USA,38.18248861,-84.90470083
FFZ,USBP,Mesa,AZ,USA,33.46083333,-111.7283333
FGX,USBP,Flemingsburg,KY,USA,38.54180556,-83.74338889
FHR,USBP,Friday Harbor,WA,USA,48.52197222,-123.0243611
FHU,USBP,Fort Huachuca-Sierra Vista,AZ,USA,31.58847222,-110.3443889
FIG,USBP,Clearfield,PA,USA,41.04861306,-78.41310306
FIT,USBP,Fitchburg,MA,USA,42.55412194,-71.75895639
FKL,USBP,Franklin,PA,USA,41.37787361,-79.86036167
FKN,USBP,Franklin,VA,USA,36.69817806,-76.90312694
FKR,USBP,Frankfort,IN,USA,40.27343083,-86.56217028
FLD,USBP,Fond Du Lac,WI,USA,43.77117417,-88.48842917
FLG,USBP,Flagstaff,AZ,USA,35.13845472,-111.6712183
FLL,USBP,Ft. Lauderdale,FL,USA,26.07258333,-80.15275
FLO,USBP,Florence,SC,USA,34.18536111,-79.72388889
FLP,USBP,Flippin,AR,USA,36.29087528,-92.59023417
FLT,USBP,Flat,AK,USA,62.45264889,-157.98907
FLX,USBP,Fallon,NV,USA,39.499545,-118.7490197
FME,USBP,Odenton,MD,USA,39.08538667,-76.75941444
FMN,USBP,Farmington,NM,USA,36.74125,-108.2299444
FMY,USBP,Ft. Myers,FL,USA,26.58661111,-81.86325
FMZ,USBP,Fairmont,NE,USA,40.58569444,-97.57305556
FNB,USBP,Falls City,NE,USA,40.07878611,-95.59199167
FNL,USBP,Fort Collins/Loveland,CO,USA,40.45182722,-105.0113356
FNR,USBP,Funter Bay,AK,USA,58.25438583,-134.8979067
FNT,USBP,Flint,MI,USA,42.96550333,-83.74345639
FOA,USBP,Flora,IL,USA,38.66494528,-88.45299556
FOD,USBP,Fort Dodge,IA,USA,42.55145611,-94.19255111
FOE,USBP,Topeka,KS,USA,38.95095194,-95.66361444
FOK,USBP,Westhampton Beach,NY,USA,40.84365472,-72.63178917
FOT,USBP,Fortuna,CA,USA,40.55393583,-124.1326589
FPR,USBP,Ft. Pierce,FL,USA,27.49505556,-80.36827778
FQD,USBP,Rutherfordton,NC,USA,35.42822222,-81.93507778
FRG,USBP,Farmingdale,NY,USA,40.72878111,-73.41340722
FRH,USBP,French Lick,IN,USA,38.50622139,-86.63693528
FRM,USBP,Fairmont,MN,USA,43.64394111,-94.41561556
FRR,USBP,Front Royal,VA,USA,38.9175325,-78.25351472
FSD,USBP,Sioux Falls,SD,USA,43.58135111,-96.74170028
FSE,USBP,Fosston,MN,USA,47.59282028,-95.77349889
FSK,USBP,Fort Scott,KS,USA,37.79843056,-94.76938111
FSM,USBP,Fort Smith,AR,USA,35.33659028,-94.36744111
FSO,USBP,Highgate,VT,USA,44.94028083,-73.09746
FST,USBP,Fort Stockton,TX,USA,30.91566667,-102.9161389
FSU,USBP,Fort Sumner,NM,USA,34.48339944,-104.2171967
FSW,USBP,Fort Madison,IA,USA,40.6592625,-91.3268175
FTG,USBP,Denver,CO,USA,39.78525,-104.5431389
FTT,USBP,Fulton,MO,USA,38.83987472,-92.00421056
FTW,USBP,Fort Worth,TX,USA,32.81977778,-97.36244444
FTY,USBP,Atlanta,GA,USA,33.77913889,-84.52136111
FUL,USBP,Fullerton,CA,USA,33.87201417,-117.9797842
FVE,USBP,Frenchville,ME,USA,47.28550417,-68.31275
FVX,USBP,Farmville,VA,USA,37.35752861,-78.43779806
FWA,USBP,Fort Wayne,IN,USA,40.97846583,-85.19514639
FWC,USBP,Fairfield,IL,USA,38.37863306,-88.41265222
FWN,USBP,Sussex,NJ,USA,41.20020667,-74.62305056
FWS,USBP,Fort Worth,TX,USA,32.56522778,-97.30807778
FXE,USBP,Ft. Lauderdale,FL,USA,26.19728,-80.17070833
FXY,USBP,Forest City,IA,USA,43.23473417,-93.6241025
FYE,USBP,Somerville,TN,USA,35.20592,-89.39441667
FYM,USBP,Fayetteville,TN,USA,35.05836278,-86.56441139
FYU,USBP,Fort Yukon,AK,USA,66.57149028,-145.2504169
FYV,USBP,Fayetteville,AR,USA,36.00509472,-94.17005694
FZG,USBP,Fitzgerald,GA,USA,31.68368667,-83.27046056
FZI,USBP,Fostoria,OH,USA,41.19083111,-83.39453639
FZY,USBP,Fulton,NY,USA,43.35077528,-76.38805361
GAB,USBP,Gabbs,NV,USA,38.92409111,-117.9590072
GAD,USBP,Gadsden,AL,USA,33.97262528,-86.08900139
GAF,USBP,Grafton,ND,USA,48.40469444,-97.37094444
GAG,USBP,Gage,OK,USA,36.29553889,-99.77642361
GAI,USBP,Gaithersburg,MD,USA,39.16833611,-77.166
GAL,USBP,Galena,AK,USA,64.73617806,-156.9374164
GAM,USBP,Gambell,AK,USA,63.76676556,-171.7328236
GAS,USBP,Gallipolis,OH,USA,38.83410833,-82.16342306
GBD,USBP,Great Bend,KS,USA,38.34441861,-98.85917028
GBG,USBP,Galesburg,IL,USA,40.93800194,-90.43112556
GBH,USBP,Galbraith Lake,AK,USA,68.47906306,-149.4900214
GBR,USBP,Great Barrington,MA,USA,42.18421417,-73.40324056
GCC,USBP,Gillette,WY,USA,44.34889806,-105.5393614
GCK,USBP,Garden City,KS,USA,37.92751556,-100.7244147
GCM,USBP,Claremore,OK,USA,36.29441667,-95.47966667
GCN,USBP,Grand Canyon,AZ,USA,35.95235389,-112.1469647
GCT,USBP,Guthrie Center,IA,USA,41.68776417,-94.43524611
GCY,USBP,Greeneville,TN,USA,36.19299083,-82.81507028
GDM,USBP,Gardner,MA,USA,42.54986639,-72.01602194
GDV,USBP,Glendive,MT,USA,47.13871861,-104.8071994
GDW,USBP,Gladwin,MI,USA,43.97063278,-84.47503861
GDY,USBP,Grundy,VA,USA,37.23240111,-82.12499083
GED,USBP,Georgetown,DE,USA,38.68919444,-75.35888889
GEG,USBP,Spokane,WA,USA,47.61985556,-117.5338425
GEO,USBP,Georgetown,OH,USA,38.88195778,-83.88273278
GEU,USBP,Glendale,AZ,USA,33.52726278,-112.2951564
GEY,USBP,Greybull,WY,USA,44.51644444,-108.0831944
GEZ,USBP,Shelbyville,IN,USA,39.58316583,-85.80481
GFK,USBP,Grand Forks,ND,USA,47.949255,-97.17611111
GFL,USBP,Glens Falls,NY,USA,43.34121,-73.6103075
GFZ,USBP,Greenfield,IA,USA,41.32702778,-94.44572222
GGE,USBP,Georgetown,SC,USA,33.31169444,-79.31958333
GGF,USBP,Grant,NE,USA,40.86952778,-101.7328611
GGG,USBP,Longview,TX,USA,32.38486111,-94.71171
GGI,USBP,Grinnell,IA,USA,41.70916083,-92.73491278
GGP,USBP,Logansport,IN,USA,40.71126139,-86.37449917
GGW,USBP,Glasgow,MT,USA,48.21246417,-106.6148231
GHM,USBP,Centerville,TN,USA,35.83742722,-87.445375
GHW,USBP,Glenwood,MN,USA,45.64389167,-95.32043056
GIF,USBP,Winter Haven,FL,USA,28.06291667,-81.75330556
GJT,USBP,Grand Junction,CO,USA,39.1224125,-108.5267347
GKJ,USBP,Meadville,PA,USA,41.62652667,-80.2147275
GKN,USBP,Gulkana,AK,USA,62.15488889,-145.4566389
GKT,USBP,Sevierville,TN,USA,35.85775889,-83.52870472
GKY,USBP,Arlington,TX,USA,32.66241528,-97.09391139
GLD,USBP,Goodland,KS,USA,39.37062194,-101.6989919
GLE,USBP,Gainesville,TX,USA,33.65136111,-97.19702778
GLH,USBP,Greenville,MS,USA,33.48288111,-90.98561389
GLR,USBP,Gaylord,MI,USA,45.01354806,-84.70318944
GLS,USBP,Galveston,TX,USA,29.26532333,-94.86040667
GLW,USBP,Glasgow,KY,USA,37.03205556,-85.95261111
GLY,USBP,Clinton,MO,USA,38.35657306,-93.68417694
GMJ,USBP,Grove,OK,USA,36.60527056,-94.73856667
GMU,USBP,Greenville,SC,USA,34.84794444,-82.35
GNB,USBP,Granby,CO,USA,40.08970806,-105.9172367
GNF,USBP,Grenada,MS,USA,33.83253,-89.79822806
GNG,USBP,Gooding,ID,USA,42.91716639,-114.7651575
GNT,USBP,Grants,NM,USA,35.16531472,-107.9006142
GNU,USBP,Goodnews,AK,USA,59.11727556,-161.5813967
GNV,USBP,Gainesville,FL,USA,29.69005556,-82.27177778
GOK,USBP,Guthrie,OK,USA,35.84980556,-97.41560833
GON,USBP,Groton,CT,USA,41.33005778,-72.04513556
GPH,USBP,Mosby,MO,USA,39.33046528,-94.30997361
GPM,USBP,Grand Prairie,TX,USA,32.69858333,-97.04652778
GPT,USBP,Gulfport-Biloxi,MS,USA,30.40728028,-89.07009278
GPZ,USBP,Grand Rapids,MN,USA,47.21110333,-93.50984472
GQQ,USBP,Galion,OH,USA,40.75338889,-82.72380556
GRB,USBP,Green Bay,WI,USA,44.48507333,-88.12959
GRD,USBP,Greenwood,SC,USA,34.24872222,-82.15908333
GRE,USBP,Greenville,IL,USA,38.83615778,-89.37841111
GRI,USBP,Grand Island,NE,USA,40.96747222,-98.30861111
GRK,USBP,Killeen,TX,USA,31.06489778,-97.82779778
GRN,USBP,Gordon,NE,USA,42.80597222,-102.17525
GRO,USBP,Rota Island,CQ,USA,14.1743075,-145.2425353
GRR,USBP,Grand Rapids,MI,USA,42.88081972,-85.52276778
GSH,USBP,Goshen,IN,USA,41.52716028,-85.79210278
GSN,USBP,Obyan,CQ,USA,15.11900139,-145.7293561
GSO,USBP,Greensboro,NC,USA,36.09774694,-79.9372975
GSP,USBP,Greer,SC,USA,34.89566722,-82.21885833
GST,USBP,Gustavus,AK,USA,58.42438139,-135.7073814
GTF,USBP,Great Falls,MT,USA,47.48200194,-111.3706853
GTR,USBP,Columbus-Starkville-West Point,MS,USA,33.45033444,-88.59136861
GTU,USBP,Georgetown,TX,USA,30.67880889,-97.67938389
GUC,USBP,Gunnison,CO,USA,38.53396333,-106.9331817
GUM,USBP,Agana,GU,USA,13.48345,-144.7959825
GUP,USBP,Gallup,NM,USA,35.51105833,-108.7893094
GUY,USBP,Guymon,OK,USA,36.68507194,-101.5077817
GVL,USBP,Gainesville,GA,USA,34.27290389,-83.82681333
GVQ,USBP,Batavia,NY,USA,43.03172639,-78.16759972
GVT,USBP,Greenville,TX,USA,33.06783889,-96.0653325
GWO,USBP,Greenwood,MS,USA,33.49432667,-90.084705
GWR,USBP,Gwinner,ND,USA,46.21872222,-97.64325
GWW,USBP,Goldsboro,NC,USA,35.46055444,-77.96493306
GXY,USBP,Greeley,CO,USA,40.43561833,-104.6321156
GYH,USBP,Greenville,SC,USA,34.75831917,-82.376415
GYR,USBP,Goodyear,AZ,USA,33.42281972,-112.3759919
GYY,USBP,Gary,IN,USA,41.61627306,-87.41278806
GZH,USBP,Evergreen,AL,USA,31.41580111,-87.04404333
GZS,USBP,Pulaski,TN,USA,35.15371972,-87.05681444
H04,USBP,Vinita,OK,USA,36.63301806,-95.15136111
H05,USBP,Wilburton,OK,USA,34.91954278,-95.39469722
H19,USBP,Bowling Green,MO,USA,39.36993361,-91.21925556
H21,USBP,Camdenton,MO,USA,37.97468528,-92.69161528
H30,USBP,Hamilton,NY,USA,42.84381889,-75.56140194
H35,USBP,Clarksville,AR,USA,35.47069417,-93.427155
H41,USBP,Mexico,MO,USA,39.15751389,-91.81826667
H45,USBP,Seminole,OK,USA,35.27467806,-96.67516194
H66,USBP,Nowata,OK,USA,36.72092222,-95.62525583
H71,USBP,Pryor,OK,USA,36.22539389,-95.33006333
H79,USBP,Eldon,MO,USA,38.36062611,-92.57157139
H88,USBP,Fredericktown,MO,USA,37.605825,-90.28731389
H92,USBP,Hominy,OK,USA,36.43340222,-96.38362861
H96,USBP,Benton,IL,USA,38.00675111,-88.93441528
H97,USBP,Pawnee,OK,USA,36.38338556,-96.8103125
HAB,USBP,Hamilton,AL,USA,34.11757222,-87.99819583
HAE,USBP,Hannibal,MO,USA,39.72448944,-91.44367944
HAF,USBP,Half Moon Bay,CA,USA,37.51382944,-122.5010892
HAI,USBP,Three Rivers,MI,USA,41.95975,-85.59338889
HAO,USBP,Hamilton,OH,USA,39.36448861,-84.52457722
HAY,USBP,Haycock,AK,USA,65.20098944,-161.1567792
HBC,USBP,Mohall,ND,USA,48.76838333,-101.5369953
HBG,USBP,Hattiesburg,MS,USA,31.26506556,-89.2530325
HBR,USBP,Hobart,OK,USA,34.9913075,-99.0513525
HBV,USBP,Hebbronville,TX,USA,27.34955556,-98.73697222
HBZ,USBP,Heber Springs,AR,USA,35.51169389,-92.01300944
HCD,USBP,Hutchinson,MN,USA,44.85890667,-94.38178917
HCO,USBP,Hallock,MN,USA,48.75273139,-96.94300306
HDC,USBP,Hammond,LA,USA,30.52096889,-90.41762056
HDE,USBP,Holdredge,NE,USA,40.45269444,-99.33733333
HDH,USBP,Mokuleia,HI,USA,21.57947361,-158.1972814
HDI,USBP,Cleveland,TN,USA,35.22007306,-84.83244333
HDN,USBP,Hayden,CO,USA,40.48118028,-107.2176597
HDO,USBP,Hondo,TX,USA,29.35952778,-99.17666667
HEE,USBP,Helena-West Helena,AR,USA,34.57648972,-90.67588639
HEF,USBP,Manassas,VA,USA,38.72141667,-77.51544444
HEI,USBP,Hettinger,ND,USA,46.01494444,-102.6559722
HEQ,USBP,Holyoke,CO,USA,40.56943056,-102.2726875
HEZ,USBP,Natchez,MS,USA,31.61366111,-91.29733639
HFD,USBP,Hartford,CT,USA,41.73626861,-72.65021389
HFY,USBP,Indianapolis/Greenwood,IN,USA,39.62841667,-86.08788889
HGR,USBP,Hagerstown,MD,USA,39.70794444,-77.7295
HHF,USBP,Canadian,TX,USA,35.89530778,-100.4036397
HHG,USBP,Huntington,IN,USA,40.85299,-85.45941917
HHH,USBP,NA,NA,USA,32.224384,-80.697629
HHR,USBP,Hawthorne,CA,USA,33.92283972,-118.3351872
HHW,USBP,Hugo,OK,USA,34.03482556,-95.54190611
HI01,USBP,Hanalei,HI,USA,22.20919,-159.4455339
HIB,USBP,Hibbing,MN,USA,47.38659917,-92.83899333
HIE,USBP,Whitefield,NH,USA,44.36761639,-71.54447111
HIG,USBP,Higginsville,MO,USA,39.07334639,-93.67716083
HII,USBP,Lake Havasu City,AZ,USA,34.56816056,-114.3561783
HIO,USBP,Hillsboro (Portland),OR,USA,45.54039389,-122.9498258
HJH,USBP,Hebron,NE,USA,40.15225,-97.58697222
HJO,USBP,Hanford,CA,USA,36.31852194,-119.6288675
HKA,USBP,Blytheville,AR,USA,35.94040667,-89.83080583
HKS,USBP,Jackson,MS,USA,32.3347725,-90.22253167
HKY,USBP,Hickory,NC,USA,35.74114639,-81.38954889
HLC,USBP,Hill City,KS,USA,39.37883611,-99.83149444
HLG,USBP,Wheeling,WV,USA,40.175,-80.64627778
HLN,USBP,Helena,MT,USA,46.60681806,-111.9827503
HLX,USBP,Galax,VA,USA,36.76611472,-80.82356556
HMT,USBP,Hemet,CA,USA,33.73398167,-117.0225258
HMZ,USBP,Bedford,PA,USA,40.08536861,-78.51221778
HNB,USBP,Huntingburg,IN,USA,38.24902583,-86.95371833
HNH,USBP,Hoonah,AK,USA,58.09609139,-135.4096975
HNL,USBP,Honolulu,HI,USA,21.31869111,-157.9224072
HNM,USBP,Hana,HI,USA,20.79563722,-156.0144378
HNR,USBP,Harlan,IA,USA,41.58438889,-95.33963889
HNS,USBP,Haines,AK,USA,59.24522806,-135.5221086
HNZ,USBP,Oxford,NC,USA,36.36156111,-78.52916639
HOB,USBP,Hobbs,NM,USA,32.68752778,-103.2170278
HOC,USBP,Hillsboro,OH,USA,39.18875944,-83.53880694
HOE,USBP,Homerville,GA,USA,31.05591667,-82.77413889
HOM,USBP,Homer,AK,USA,59.64555556,-151.4765833
HON,USBP,Huron,SD,USA,44.38520056,-98.2285425
HOT,USBP,Hot Springs,AR,USA,34.47803389,-93.09620833
HOU,USBP,Houston,TX,USA,29.64541861,-95.27888889
HPB,USBP,Hooper Bay,AK,USA,61.52418306,-166.1467797
HPN,USBP,White Plains,NY,USA,41.06695778,-73.70757444
HPT,USBP,Hampton,IA,USA,42.72372361,-93.22634056
HQG,USBP,Hugoton,KS,USA,37.16308056,-101.3705267
HQM,USBP,Hoquiam,WA,USA,46.97120167,-123.9365581
HQU,USBP,Thomson,GA,USA,33.52972639,-82.51678556
HQZ,USBP,Mesquite,TX,USA,32.74696278,-96.53041722
HRI,USBP,Hermiston,OR,USA,45.82822222,-119.2591667
HRL,USBP,Harlingen,TX,USA,26.22850611,-97.65439389
HRO,USBP,Harrison,AR,USA,36.26152056,-93.15472889
HRR,USBP,Healy,AK,USA,63.86620806,-148.9689842
HRU,USBP,Herington,KS,USA,38.68322389,-96.80800639
HRX,USBP,Hereford,TX,USA,34.85761639,-102.3272017
HSA,USBP,Bay St Louis,MS,USA,30.36780778,-89.45461083
HSB,USBP,Harrisburg,IL,USA,37.8115,-88.54913889
HSE,USBP,Hatteras,NC,USA,35.2327875,-75.617795
HSI,USBP,Hastings,NE,USA,40.60525,-98.42788889
HSL,USBP,Huslia,AK,USA,65.70055556,-156.3875
HSP,USBP,Hot Springs,VA,USA,37.95144444,-79.83389444
HSR,USBP,Hot Springs,SD,USA,43.36824528,-103.3881378
HSV,USBP,Huntsville,AL,USA,34.6404475,-86.77310944
HTH,USBP,Hawthorne,NV,USA,38.54436583,-118.6343003
HTL,USBP,Houghton Lake,MI,USA,44.35980556,-84.67111111
HTO,USBP,East Hampton,NY,USA,40.95957778,-72.25185056
HTS,USBP,Huntington,WV,USA,38.36666667,-82.55802778
HTW,USBP,Chesapeake,OH,USA,38.41924861,-82.4943225
HUF,USBP,Terre Haute,IN,USA,39.45146361,-87.30756111
HUL,USBP,Houlton,ME,USA,46.12308333,-67.79205556
HUM,USBP,Houma,LA,USA,29.5665,-90.66041667
HUS,USBP,Hughes,AK,USA,66.04112167,-154.2631903
HUT,USBP,Hutchinson,KS,USA,38.06548306,-97.86063361
HVC,USBP,Hopkinsville,KY,USA,36.85658333,-87.45725
HVE,USBP,Hanksville,UT,USA,38.41803722,-110.7040378
HVN,USBP,New Haven,CT,USA,41.26389889,-72.8871
HVR,USBP,Havre,MT,USA,48.542985,-109.7623419
HVS,USBP,Hartsville,SC,USA,34.40308333,-80.11922222
HWD,USBP,Hayward,CA,USA,37.65926528,-122.1224083
HWI,USBP,Hawk Inlet,AK,USA,58.12744139,-134.7559531
HWO,USBP,Hollywood,FL,USA,26.00142417,-80.24052056
HWQ,USBP,Harlowton,MT,USA,46.4541225,-109.8549061
HWV,USBP,Shirley,NY,USA,40.81676528,-72.86204722
HXD,USBP,Hilton Head Island,SC,USA,32.22436111,-80.69747222
HXF,USBP,Hartford,WI,USA,43.34927806,-88.39112528
HYA,USBP,Hyannis,MA,USA,41.66933639,-70.28035583
HYG,USBP,Hydaburg,AK,USA,55.20631611,-132.8283131
HYI,USBP,San Marcos,TX,USA,29.89361111,-97.86469444
HYL,USBP,Hollis,AK,USA,55.48158833,-132.6460942
HYR,USBP,Hayward,WI,USA,46.02585722,-91.44424278
HYS,USBP,Hays,KS,USA,38.84494167,-99.27403361
HYW,USBP,Conway,SC,USA,33.8285,-79.12216667
HZD,USBP,Huntingdon,TN,USA,36.08930722,-88.46329778
HZE,USBP,Hazen,ND,USA,47.28986111,-101.5809444
HZL,USBP,Hazleton,PA,USA,40.98677778,-75.99488889
HZR,USBP,New Roads,LA,USA,30.71832333,-91.47866972
HZY,USBP,Ashtabula,OH,USA,41.77797528,-80.69551333
I05,USBP,Sturgis,KY,USA,37.54083333,-87.95183333
I12,USBP,Sidney,OH,USA,40.24127944,-84.15101167
I16,USBP,Pineville,WV,USA,37.60044444,-81.55927778
I18,USBP,Ravenswood,WV,USA,38.92977778,-81.81947222
I19,USBP,Dayton,OH,USA,39.69172639,-83.99023806
I22,USBP,Winchester,IN,USA,40.16885083,-84.92585333
I23,USBP,Washington Court House,OH,USA,39.57040167,-83.42052444
I25,USBP,Welch,WV,USA,37.41678056,-81.52899417
I32,USBP,Morehead,KY,USA,38.13341472,-83.53796528
I34,USBP,Greensburg,IN,USA,39.32691111,-85.52252694
I35,USBP,Harlan,KY,USA,36.85981028,-83.36101639
I39,USBP,Richmond,KY,USA,37.63152778,-84.33244444
I40,USBP,Coshocton,OH,USA,40.30918056,-81.85338194
I42,USBP,Paoli,IN,USA,38.58338806,-86.46248778
I43,USBP,Jackson,OH,USA,38.98135194,-82.57785667
I50,USBP,Stanton,KY,USA,37.85008167,-83.84575194
I57,USBP,Waverly,OH,USA,39.16693333,-82.928175
I63,USBP,Mt. Sterling,IL,USA,39.9875,-90.80416667
I66,USBP,Wilmington,OH,USA,39.50286111,-83.86305556
I67,USBP,Harrison,OH,USA,39.25894444,-84.77430556
I68,USBP,Lebanon,OH,USA,39.46217306,-84.25184722
I69,USBP,Batavia,OH,USA,39.07839722,-84.21020722
I74,USBP,Urbana,OH,USA,40.12928306,-83.7548775
I75,USBP,Osceola,IA,USA,41.05221889,-93.68966222
I76,USBP,Peru,IN,USA,40.78631889,-86.14638306
I78,USBP,Marysville,OH,USA,40.22469444,-83.35161111
I83,USBP,Salem,IN,USA,38.60200167,-86.13997889
I86,USBP,New Lexington,OH,USA,39.69159667,-82.19778583
I88,USBP,Pontiac,IL,USA,40.92372222,-88.6255
I93,USBP,Hardinsburg,KY,USA,37.78505944,-86.44192194
I95,USBP,Kenton,OH,USA,40.61072,-83.64359694
IAD,USBP,Chantilly,VA,USA,38.94453194,-77.45580972
IAG,USBP,Niagara Falls,NY,USA,43.10725861,-78.94538139
IAH,USBP,Houston,TX,USA,29.98047222,-95.33972222
IAN,USBP,Kiana,AK,USA,66.97937611,-160.4358597
IBM,USBP,Kimball,NE,USA,41.18805556,-103.6773889
ICL,USBP,Clarinda,IA,USA,40.72178361,-95.02642667
ICT,USBP,Wichita,KS,USA,37.64995889,-97.43304583
IDA,USBP,Idaho Falls,ID,USA,43.51455556,-112.0701667
IDI,USBP,Indiana,PA,USA,40.63222222,-79.10552778
IDL,USBP,Indianola,MS,USA,33.48574611,-90.67887611
IDP,USBP,Independence,KS,USA,37.15837222,-95.77838333
IEM,USBP,Whittier,AK,USA,60.7772125,-148.7215775
IEN,USBP,Pine Ridge,SD,USA,43.02257694,-102.5110728
IER,USBP,Natchitoches,LA,USA,31.73572,-93.09913639
IFA,USBP,Iowa Falls,IA,USA,42.47078639,-93.26995361
IFP,USBP,Bullhead City,AZ,USA,35.15738889,-114.5595278
IGG,USBP,Igiugig,AK,USA,59.32373528,-155.9032733
IGM,USBP,Kingman,AZ,USA,35.25947222,-113.9380556
IGQ,USBP,Chicago/Lansing,IL,USA,41.53988889,-87.53216667
IGT,USBP,Nightmute,AK,USA,60.47032722,-164.6856414
IIB,USBP,Independence,IA,USA,42.45359833,-91.94761833
IIK,USBP,Kipnuk,AK,USA,59.93295111,-164.0305131
IIY,USBP,Washington,GA,USA,33.77987528,-82.81661639
IJD,USBP,Willimantic,CT,USA,41.74404028,-72.18023583
IJX,USBP,Jacksonville,IL,USA,39.77429694,-90.23856583
IKK,USBP,Kankakee,IL,USA,41.07140417,-87.84626861
IKV,USBP,Ankeny,IA,USA,41.69128556,-93.56630333
ILE,USBP,Killeen,TX,USA,31.08583333,-97.6865
ILG,USBP,Wilmington,DE,USA,39.67872222,-75.60652778
ILI,USBP,Iliamna,AK,USA,59.75380028,-154.9109597
ILM,USBP,Wilmington,NC,USA,34.27061111,-77.90255556
IML,USBP,Imperial,NE,USA,40.50930556,-101.6205278
IMM,USBP,Immokalee,FL,USA,26.43316667,-81.40102778
IMS,USBP,Madison,IN,USA,38.75888889,-85.46552778
IMT,USBP,Iron Mountain/Kingsford,MI,USA,45.81835417,-88.1145425
IN03,USBP,Indianapolis,IN,USA,39.76587639,-86.148875
IND,USBP,Indianapolis,IN,USA,39.71732917,-86.29438417
INK,USBP,Wink,TX,USA,31.77962833,-103.2013619
INL,USBP,International Falls,MN,USA,48.56618722,-93.40306667
INT,USBP,Winston-Salem,NC,USA,36.13372222,-80.222
INW,USBP,Winslow,AZ,USA,35.02191667,-110.7225278
IOB,USBP,Mount Sterling,KY,USA,38.05813889,-83.97958333
IOW,USBP,Iowa City,IA,USA,41.63924389,-91.54650333
IPJ,USBP,Lincolnton,NC,USA,35.48332889,-81.16125833
IPL,USBP,Imperial,CA,USA,32.83422028,-115.5787456
IPT,USBP,Williamsport,PA,USA,41.24183583,-76.92109556
IRK,USBP,Kirksville,MO,USA,40.09364444,-92.54496917
IRS,USBP,Sturgis,MI,USA,41.8128725,-85.43906111
ISM,USBP,Orlando,FL,USA,28.28980556,-81.43708333
ISN,USBP,Williston,ND,USA,48.17793861,-103.6423467
ISO,USBP,Kinston,NC,USA,35.32807944,-77.61552611
ISP,USBP,Islip,NY,USA,40.7952425,-73.10021194
ISQ,USBP,Manistique,MI,USA,45.97464056,-86.17183056
ISW,USBP,Wisconsin Rapids,WI,USA,44.36033833,-89.83897056
ISZ,USBP,Cincinnati,OH,USA,39.24669444,-84.38897222
ITH,USBP,Ithaca,NY,USA,42.49102778,-76.45844444
ITO,USBP,Hilo,HI,USA,19.72026306,-155.0484703
ITR,USBP,Burlington,CO,USA,39.2425,-102.2853889
IWA,USBP,Phoenix,AZ,USA,33.30783333,-111.6554722
IWD,USBP,Ironwood,MI,USA,46.52747472,-90.13139667
IWH,USBP,Wabash,IN,USA,40.76195972,-85.79873417
IWI,USBP,Wiscasset,ME,USA,43.96141667,-69.71255556
IWK,USBP,Wales,AK,USA,65.62394028,-168.0991719
IWS,USBP,Houston,TX,USA,29.81819444,-95.67261111
IXD,USBP,Olathe,KS,USA,38.83090472,-94.89030333
IYK,USBP,Inyokern,CA,USA,35.65884306,-117.8295122
IYS,USBP,Wasilla,AK,USA,61.57196083,-149.5405556
IZA,USBP,Santa Ynez,CA,USA,34.60682028,-120.0755617
IZG,USBP,Fryeburg,ME,USA,43.99114472,-70.94787444
JAC,USBP,Jackson,WY,USA,43.60732417,-110.7377389
JAN,USBP,Jackson,MS,USA,32.31116667,-90.07588889
JAS,USBP,Jasper,TX,USA,30.89058333,-94.03483333
JAU,USBP,Jacksboro,TN,USA,36.33457556,-84.16234472
JAX,USBP,Jacksonville,FL,USA,30.49405556,-81.68786111
JBR,USBP,Jonesboro,AR,USA,35.83186111,-90.64616667
JCT,USBP,Junction,TX,USA,30.51126,-99.76345528
JDN,USBP,Jordan,MT,USA,47.33333417,-106.9339564
JEF,USBP,Jefferson City,MO,USA,38.59117917,-92.15614389
JER,USBP,Jerome,ID,USA,42.72663639,-114.4571506
JES,USBP,Jesup,GA,USA,31.55408333,-81.88344444
JFK,USBP,New York,NY,USA,40.63975111,-73.77892556
JFX,USBP,Jasper,AL,USA,33.90199528,-87.31416639
JHM,USBP,Lahaina,HI,USA,20.96293639,-156.6730317
JHW,USBP,Jamestown,NY,USA,42.15336861,-79.258035
JKA,USBP,Gulf Shores,AL,USA,30.28951667,-87.67371472
JKJ,USBP,Moorhead,MN,USA,46.83919194,-96.66313028
JKL,USBP,Jackson,KY,USA,37.59386111,-83.31725
JLN,USBP,Joplin,MO,USA,37.15181361,-94.49826833
JMR,USBP,Mora,MN,USA,45.88609722,-93.27177833
JMS,USBP,Jamestown,ND,USA,46.92971944,-98.67819528
JNU,USBP,Juneau,AK,USA,58.35496194,-134.5762764
JNX,USBP,Smithfield,NC,USA,35.54094139,-78.39032944
JOT,USBP,Chicago/Joliet,IL,USA,41.51805833,-88.17525583
JQF,USBP,Concord,NC,USA,35.38520694,-80.70971389
JRA,USBP,New York,NY,USA,40.75454583,-74.00708389
JRB,USBP,New York,NY,USA,40.70121361,-74.00902833
JRF,USBP,Kapolei,HI,USA,21.30735389,-158.0703017
JSO,USBP,Jacksonville,TX,USA,31.86933667,-95.21739028
JST,USBP,Johnstown,PA,USA,40.31611111,-78.83394444
JVL,USBP,Janesville,WI,USA,42.61958222,-89.04034028
JVY,USBP,Jeffersonville,IN,USA,38.36562278,-85.73829639
JWG,USBP,Watonga,OK,USA,35.86469444,-98.42075
JWN,USBP,Nashville,TN,USA,36.18236194,-86.88672278
JXN,USBP,Jackson,MI,USA,42.25978556,-84.45940361
JYG,USBP,St James,MN,USA,43.98631833,-94.55793722
JYL,USBP,Sylvania,GA,USA,32.64544861,-81.59649722
JYM,USBP,Hillsdale,MI,USA,41.92126083,-84.5857625
JYO,USBP,Leesburg,VA,USA,39.07797222,-77.5575
JYR,USBP,York,NE,USA,40.89675,-97.62277778
JZI,USBP,Charleston,SC,USA,32.70086111,-80.00291667
JZP,USBP,Jasper,GA,USA,34.45147972,-84.45659278
JZZ,USBP,Koliganek,AK,USA,59.72664194,-157.2594722
K01,USBP,Auburn,NE,USA,40.38750167,-95.78916167
K02,USBP,Perryville,MO,USA,37.86866667,-89.86213889
K06,USBP,Beardstown,IL,USA,39.97338139,-90.40373556
K09,USBP,Piseco,NY,USA,43.45340222,-74.51765083
K15,USBP,Osage Beach,MO,USA,38.11045,-92.68054583
K20,USBP,Hazard,KY,USA,37.38783833,-83.26205889
K22,USBP,Prestonburg,KY,USA,37.75102778,-82.63669444
K24,USBP,Jamestown,KY,USA,37.00888889,-85.10277778
K29,USBP,Council,AK,USA,64.89788278,-163.7034472
K33,USBP,Salem,MO,USA,37.61523333,-91.60444167
K34,USBP,Gardner,KS,USA,38.80708333,-94.95602778
K39,USBP,St Clair,MO,USA,38.37594333,-90.97073944
K46,USBP,Blair,NE,USA,41.41805139,-96.1136275
K54,USBP,Teller,AK,USA,65.24089806,-166.3360067
K57,USBP,Tarkio,MO,USA,40.44583139,-95.36275806
K59,USBP,Atchison,KS,USA,39.57052472,-95.18033139
K61,USBP,Beloit,KS,USA,39.47115222,-98.12878389
K62,USBP,Falmouth,KY,USA,38.70423611,-84.39160417
K67,USBP,Oswego,KS,USA,37.15978667,-95.04246222
K68,USBP,Garnett,KS,USA,38.27918833,-95.21691833
K78,USBP,Abilene.,KS,USA,38.90405583,-97.23585389
K81,USBP,Paola,KS,USA,38.53751389,-94.92524194
K82,USBP,Smith Center,KS,USA,39.76112278,-98.79343639
K83,USBP,Sabetha,KS,USA,39.90416667,-95.7794325
K88,USBP,Iola,KS,USA,37.87008333,-95.38638889
K89,USBP,Macon,MO,USA,39.72870694,-92.464455
K96,USBP,Tuscola,IL,USA,39.78086528,-88.30616
KAE,USBP,Kake,AK,USA,56.97299639,-133.9456147
KAL,USBP,Kaltag,AK,USA,64.32571917,-158.7441475
KCC,USBP,Coffman Cove,AK,USA,56.00324444,-132.8419689
KCL,USBP,Chignik Flats,AK,USA,56.31116306,-158.5359264
KEB,USBP,English Bay,AK,USA,59.35214833,-151.9251558
KEK,USBP,Ekwok,AK,USA,59.35399444,-157.4744092
KFP,USBP,False Pass,AK,USA,54.84744583,-163.4103222
KGX,USBP,Grayling,AK,USA,62.89456056,-160.0649042
KIB,USBP,Ivanof Bay,AK,USA,55.89753333,-159.4886689
KIC,USBP,King City,CA,USA,36.22802139,-121.1218614
KKA,USBP,Koyuk,AK,USA,64.93404056,-161.158145
KKB,USBP,Kitoi Bay,AK,USA,58.19094611,-152.3704875
KLG,USBP,Kalskag,AK,USA,61.53627389,-160.3413306
KLL,USBP,Levelock,AK,USA,59.11816472,-156.8652169
KLS,USBP,Kelso,WA,USA,46.118,-122.8983889
KNB,USBP,Kanab,UT,USA,37.01110583,-112.5311936
KNW,USBP,New Stuyahok,AK,USA,59.44955333,-157.3271908
KOA,USBP,Kailua/Kona,HI,USA,19.73876583,-156.0456314
KPB,USBP,Point Baker,AK,USA,56.35185972,-133.6225864
KPH,USBP,Pauloff Harbor,AK,USA,54.45912028,-162.6936406
KQA,USBP,Akutan,AK,USA,54.13246694,-165.7853111
KSM,USBP,St. Mary's,AK,USA,62.06048639,-163.3021108
KTB,USBP,Thorne Bay,AK,USA,55.68796194,-132.5366758
KTN,USBP,Ketchikan,AK,USA,55.35556861,-131.71374
KTS,USBP,Brevig Mission,AK,USA,65.33136111,-166.4631667
KVC,USBP,King Cove,AK,USA,55.1163475,-162.2662272
KVL,USBP,Kivalina,AK,USA,67.73125333,-164.5518019
KWT,USBP,Kwethluk,AK,USA,60.80425194,-161.44535
KXA,USBP,Kasaan,AK,USA,55.53741389,-132.3975144
KYK,USBP,Karluk,AK,USA,57.56706389,-154.4503714
KYU,USBP,Koyukuk,AK,USA,64.87714278,-157.7158358
L04,USBP,Holtville,CA,USA,32.84032361,-115.2674806
L05,USBP,Kernville,CA,USA,35.72828472,-118.4198069
L06,USBP,Death Valley National Park,CA,USA,36.46383694,-116.8814425
L08,USBP,Borrego Springs,CA,USA,33.25902778,-116.3209722
L12,USBP,Redlands,CA,USA,34.08526167,-117.1463789
L15,USBP,Las Vegas,NV,USA,35.97636444,-115.1327708
L17,USBP,Taft,CA,USA,35.14107806,-119.4412294
L18,USBP,Fallbrook,CA,USA,33.35419806,-117.2508686
L19,USBP,Wasco,CA,USA,35.61967889,-119.3537242
L26,USBP,Hesperia,CA,USA,34.37722333,-117.3158783
L31,USBP,Covington,LA,USA,30.44505417,-89.98887889
L35,USBP,Big Bear,CA,USA,34.26361944,-116.854475
L38,USBP,Gonzales,LA,USA,30.17135306,-90.94039583
L39,USBP,Leesville,LA,USA,31.16819444,-93.34245833
L42,USBP,Oakdale,LA,USA,30.75016667,-92.68847222
L45,USBP,Bakersfield,CA,USA,35.32483333,-118.9958333
L49,USBP,Galliano,LA,USA,29.44482222,-90.26111667
L52,USBP,Oceano,CA,USA,35.10136472,-120.6221153
L67,USBP,Rialto,CA,USA,34.12934361,-117.4016303
L70,USBP,Agua Dulce,CA,USA,34.50415889,-118.3128561
L71,USBP,California City,CA,USA,35.15125306,-118.0166667
L72,USBP,Trona,CA,USA,35.81245333,-117.3272783
L75,USBP,Sulphur,LA,USA,30.13138889,-93.37611111
L83,USBP,Thibodaux,LA,USA,29.74779194,-90.83289889
L84,USBP,Lost Hills,CA,USA,35.62357083,-119.6862383
L92,USBP,Alamo,NV,USA,37.36246083,-115.1944622
LAA,USBP,Lamar,CO,USA,38.06969444,-102.6885
LAF,USBP,Lafayette,IN,USA,40.41231694,-86.93689889
LAL,USBP,Lakeland,FL,USA,27.98891667,-82.01855556
LAM,USBP,Los Alamos,NM,USA,35.87980194,-106.2694153
LAN,USBP,Lansing,MI,USA,42.7787,-84.58735806
LAR,USBP,Laramie,WY,USA,41.31205,-105.6749864
LAS,USBP,Las Vegas,NV,USA,36.08036111,-115.1523333
LAW,USBP,Lawton,OK,USA,34.56771444,-98.41663667
LAX,USBP,Los Angeles,CA,USA,33.94253611,-118.4080744
LBB,USBP,Lubbock,TX,USA,33.66363889,-101.8227778
LBE,USBP,Latrobe,PA,USA,40.27594,-79.40479722
LBF,USBP,North Platte,NE,USA,41.12621194,-100.6836542
LBL,USBP,Liberal,KS,USA,37.04420944,-100.9598611
LBO,USBP,Lebanon,MO,USA,37.64718056,-92.65375778
LBT,USBP,Lumberton,NC,USA,34.60991667,-79.05944444
LBX,USBP,Angleton,TX,USA,29.10863889,-95.46208056
LCG,USBP,Wayne,NE,USA,42.24188889,-96.98141667
LCH,USBP,Lake Charles,LA,USA,30.1260975,-93.22340361
LCI,USBP,Laconia,NH,USA,43.57272806,-71.41890028
LCK,USBP,Columbus,OH,USA,39.81375917,-82.92786472
LCQ,USBP,Lake City,FL,USA,30.18205556,-82.57686111
LDJ,USBP,Linden,NJ,USA,40.61744722,-74.24459417
LDM,USBP,Ludington,MI,USA,43.96253278,-86.40791528
LEB,USBP,Lebanon,NH,USA,43.62637222,-72.30426722
LEE,USBP,Leesburg,FL,USA,28.82274417,-81.80900722
LEM,USBP,Lemmon,SD,USA,45.91869722,-102.1061778
LEW,USBP,Auburn-Lewiston,ME,USA,44.04847278,-70.2835075
LEX,USBP,Lexington,KY,USA,38.03697222,-84.60538889
LFK,USBP,Lufkin,TX,USA,31.23401389,-94.75
LFT,USBP,Lafayette,LA,USA,30.20527972,-91.987655
LGA,USBP,New York,NY,USA,40.77724306,-73.87260917
LGB,USBP,Long Beach,CA,USA,33.81772222,-118.1516111
LGC,USBP,Lagrange,GA,USA,33.00884694,-85.07260556
LGD,USBP,La Grande,OR,USA,45.29020944,-118.0071108
LGU,USBP,Logan,UT,USA,41.78773083,-111.8526822
LHD,USBP,Anchorage,AK,USA,61.18000361,-149.9719322
LHM,USBP,Lincoln,CA,USA,38.90916111,-121.3513361
LHQ,USBP,Lancaster,OH,USA,39.75564722,-82.65711
LHV,USBP,Lock Haven,PA,USA,41.13618028,-77.42053556
LHX,USBP,La Junta,CO,USA,38.05134111,-103.5106908
LHZ,USBP,Louisburg,NC,USA,36.02334528,-78.33027139
LIC,USBP,Limon,CO,USA,39.272765,-103.6663392
LIH,USBP,Lihue,HI,USA,21.97598306,-159.3389581
LIT,USBP,Little Rock,AR,USA,34.72939611,-92.22424556
LJF,USBP,Litchfield,MN,USA,45.09712889,-94.50726833
LKP,USBP,Lake Placid,NY,USA,44.26447361,-73.96186639
LKR,USBP,Lancaster,SC,USA,34.72291667,-80.85458333
LKU,USBP,Louisa,VA,USA,38.00983333,-77.97013889
LKV,USBP,Lakeview,OR,USA,42.16111111,-120.3990703
LLJ,USBP,Challis,ID,USA,44.52297806,-114.2175642
LLQ,USBP,Monticello,AR,USA,33.6385525,-91.75101833
LLU,USBP,Lamar,MO,USA,37.4894925,-94.31150444
LMS,USBP,Louisville,MS,USA,33.14620944,-89.06247917
LMT,USBP,Klamath Falls,OR,USA,42.15614361,-121.7332081
LNA,USBP,Lantana,FL,USA,26.593,-80.08505556
LNC,USBP,Lancaster,TX,USA,32.57919111,-96.71905111
LND,USBP,Lander,WY,USA,42.81523611,-108.7298392
LNK,USBP,Lincoln,NE,USA,40.85097222,-96.75925
LNL,USBP,Land O' Lakes,WI,USA,46.15387722,-89.21194417
LNN,USBP,Willoughby,OH,USA,41.68391667,-81.39030556
LNP,USBP,Wise,VA,USA,36.98743194,-82.53017361
LNS,USBP,Lancaster,PA,USA,40.12171528,-76.29609778
LNY,USBP,Lanai City,HI,USA,20.78561111,-156.9514181
LOL,USBP,Lovelock,NV,USA,40.066405,-118.5651664
LOT,USBP,Chicago/Romeoville,IL,USA,41.60844444,-88.09094444
LOU,USBP,Louisville,KY,USA,38.228,-85.66372222
LOZ,USBP,London,KY,USA,37.08727778,-84.07677778
LPC,USBP,Lompoc,CA,USA,34.66561028,-120.4667883
LPR,USBP,Lorain/Elyria,OH,USA,41.34427778,-82.17763889
LQK,USBP,Pickens,SC,USA,34.80997222,-82.70288889
LQR,USBP,Larned,KS,USA,38.20809667,-99.08607306
LRD,USBP,Laredo,TX,USA,27.54373861,-99.46154361
LRG,USBP,Lincoln,ME,USA,45.36216083,-68.53474694
LRJ,USBP,Le Mars,IA,USA,42.77801778,-96.19368944
LRU,USBP,Las Cruces,NM,USA,32.28941667,-106.9219722
LSB,USBP,Lordsburg,NM,USA,32.33278083,-108.6909742
LSE,USBP,La Crosse,WI,USA,43.87937972,-91.25653778
LSK,USBP,Lusk,WY,USA,42.75380806,-104.4045536
LSN,USBP,Los Banos,CA,USA,37.06290556,-120.8692511
LUG,USBP,Lewisburg,TN,USA,35.506975,-86.80388611
LUK,USBP,Cincinnati,OH,USA,39.10334417,-84.41861417
LUL,USBP,Laurel,MS,USA,31.67255139,-89.17222417
LUP,USBP,Kalaupapa,HI,USA,21.21104028,-156.9735972
LVJ,USBP,Houston,TX,USA,29.52130556,-95.24216667
LVK,USBP,Livermore,CA,USA,37.69339944,-121.8203519
LVM,USBP,Livingston,MT,USA,45.69938889,-110.4483056
LVN,USBP,Minneapolis,MN,USA,44.62785361,-93.22810806
LVS,USBP,Las Vegas,NM,USA,35.65422222,-105.1423889
LWB,USBP,Lewisburg,WV,USA,37.85830556,-80.39947222
LWC,USBP,Lawrence,KS,USA,39.01115222,-95.21657694
LWD,USBP,Lamoni,IA,USA,40.63333306,-93.90217028
LWL,USBP,Wells,NV,USA,41.11853306,-114.9222661
LWM,USBP,Lawrence,MA,USA,42.71720944,-71.12343
LWS,USBP,Lewiston,ID,USA,46.37449806,-117.0153944
LWT,USBP,Lewistown,MT,USA,47.04913944,-109.4666006
LWV,USBP,Lawrenceville,IL,USA,38.76429639,-87.60549556
LXL,USBP,Little Falls,MN,USA,45.94943778,-94.34708472
LXN,USBP,Lexington,NE,USA,40.791,-99.77727778
LXT,USBP,Lee's Summit,MO,USA,38.95975,-94.37158333
LXV,USBP,Leadville,CO,USA,39.2202675,-106.3166906
LXY,USBP,Mexia,TX,USA,31.63983472,-96.51472222
LYH,USBP,Lynchburg,VA,USA,37.32668528,-79.20043056
LYO,USBP,Lyons,KS,USA,38.34261472,-98.22709639
LZU,USBP,Lawrenceville,GA,USA,33.97807611,-83.96237722
M01,USBP,Memphis,TN,USA,35.20069278,-90.05397694
M02,USBP,Dickson,TN,USA,36.12931722,-87.43007056
M03,USBP,Conway,AR,USA,35.08080778,-92.42496167
M04,USBP,Covington,TN,USA,35.583365,-89.58722167
M05,USBP,Caruthersville,MO,USA,36.17506917,-89.67508
M08,USBP,Bolivar,TN,USA,35.21445944,-89.04336222
M09,USBP,Piedmont,MO,USA,37.12671694,-90.7128975
M11,USBP,Crystal Springs,MS,USA,31.90293639,-90.36870222
M13,USBP,Poplarville,MS,USA,30.78602056,-89.50450694
M15,USBP,Linden,TN,USA,35.59590306,-87.87669361
M16,USBP,Raymond,MS,USA,32.30334111,-90.40848333
M17,USBP,Bolivar,MO,USA,37.59693194,-93.34765
M18,USBP,Hope,AR,USA,33.72008889,-93.65884556
M19,USBP,Newport,AR,USA,35.63771778,-91.17637556
M21,USBP,Greenville,KY,USA,37.22561111,-87.15752778
M22,USBP,Russellville,AL,USA,34.44953972,-87.71030833
M23,USBP,Newton,MS,USA,32.31181111,-89.13589194
M24,USBP,Wiggins,MS,USA,30.84324389,-89.15977333
M25,USBP,Mayfield,KY,USA,36.76911111,-88.58472222
M27,USBP,Waldron,AR,USA,34.87509944,-94.10993056
M29,USBP,Clifton,TN,USA,35.38507528,-87.96752833
M30,USBP,Metropolis,IL,USA,37.18588722,-88.75061
M32,USBP,Lake Village,AR,USA,33.3459775,-91.31569833
M33,USBP,Gallatin,TN,USA,36.37684472,-86.40875861
M34,USBP,Gilbertsville,KY,USA,37.00950028,-88.29586639
M36,USBP,Brinkley,AR,USA,34.88000194,-91.1764375
M37,USBP,Drew,MS,USA,33.77639167,-90.52500833
M39,USBP,Mena,AR,USA,34.54539444,-94.20265278
M40,USBP,Aberdeen-Amory,MS,USA,33.87374861,-88.48967833
M41,USBP,Holly Springs,MS,USA,34.80434611,-89.5211075
M43,USBP,Prentiss,MS,USA,31.59544583,-89.90619056
M44,USBP,Houston,MS,USA,33.89177944,-89.02367194
M46,USBP,Colstrip,MT,USA,45.85285,-106.7092722
M48,USBP,Houston,MO,USA,37.33009167,-91.97316944
M52,USBP,Lexington,TN,USA,35.65131944,-88.37893444
M53,USBP,Humboldt,TN,USA,35.80218,-88.87494944
M54,USBP,Lebanon,TN,USA,36.19041667,-86.31569444
M58,USBP,Monett,MO,USA,36.90621528,-94.01275833
M59,USBP,Richton,MS,USA,31.31739944,-88.93504778
M60,USBP,Augusta,AR,USA,35.27175278,-91.27040417
M65,USBP,Wynne,AR,USA,35.23160167,-90.76155111
M70,USBP,Pocahontas,AR,USA,36.24551111,-90.95520444
M72,USBP,New Albany,MS,USA,34.54722222,-89.02416667
M73,USBP,Almyra,AR,USA,34.41232833,-91.46634722
M75,USBP,Malta,MT,USA,48.36694167,-107.9193444
M76,USBP,Picayune,MS,USA,30.48748472,-89.65119306
M77,USBP,Nashville,AR,USA,33.99673833,-93.83813583
M78,USBP,Malvern,AR,USA,34.33331583,-92.76149944
M79,USBP,Rayville,LA,USA,32.48633611,-91.77087528
M82,USBP,Huntsville,AL,USA,34.85645028,-86.55621472
M83,USBP,West Point,MS,USA,33.58403556,-88.66668694
M89,USBP,Arkadelphia,AR,USA,34.09984639,-93.06611694
M91,USBP,Springfield,TN,USA,36.53726194,-86.92068917
M95,USBP,Fayette,AL,USA,33.71221972,-87.81504639
M97,USBP,Tunica,MS,USA,34.69232306,-90.35065389
M99,USBP,Benton,AR,USA,34.55656472,-92.60693972
MAC,USBP,Macon,GA,USA,32.82213889,-83.56202778
MAE,USBP,Madera,CA,USA,36.9857175,-120.1119844
MAF,USBP,Midland,TX,USA,31.94252778,-102.2019139
MAI,USBP,Marianna,FL,USA,30.83780556,-85.18188889
MAL,USBP,Malone,NY,USA,44.85365722,-74.32894972
MAO,USBP,Marion,SC,USA,34.18116667,-79.33472222
MAW,USBP,Malden,MO,USA,36.60055694,-89.99220278
MAZ,USBP,Mayaguez,PR,USA,18.25569444,-67.14847222
MBG,USBP,Mobridge,SD,USA,45.54650361,-100.4079192
MBL,USBP,Manistee,MI,USA,44.27319722,-86.2490025
MBO,USBP,Madison,MS,USA,32.43866444,-90.10309222
MBS,USBP,Saginaw,MI,USA,43.53291472,-84.07964722
MBT,USBP,Murfreesboro,TN,USA,35.87748444,-86.37753222
MBY,USBP,Moberly,MO,USA,39.46392583,-92.42759778
MCB,USBP,McComb,MS,USA,31.17845444,-90.47187528
MCD,USBP,Mackinac Island,MI,USA,45.86493444,-84.63734444
MCE,USBP,Merced,CA,USA,37.28472861,-120.5138858
MCG,USBP,McGrath,AK,USA,62.95287361,-155.6057625
MCI,USBP,Kansas City,MO,USA,39.29760528,-94.71390556
MCK,USBP,McCook,NE,USA,40.20638889,-100.5918056
MCN,USBP,Macon,GA,USA,32.69284944,-83.64921083
MCO,USBP,Orlando,FL,USA,28.42888889,-81.31602778
MCW,USBP,Mason City,IA,USA,43.1577925,-93.33126056
MCX,USBP,Monticello,IN,USA,40.70881639,-86.76676139
MCZ,USBP,Williamston,NC,USA,35.86219306,-77.17820278
MDD,USBP,Midland,TX,USA,32.03652444,-102.1010278
MDF,USBP,Mooreland,OK,USA,36.48475778,-99.19415778
MDH,USBP,Carbondale,IL,USA,37.77809583,-89.25203111
MDR,USBP,Medfra,AK,USA,63.10577694,-154.7189806
MDS,USBP,Madison,SD,USA,44.01597222,-97.08593333
MDT,USBP,Harrisburg,PA,USA,40.19349528,-76.76340361
MDW,USBP,Chicago,IL,USA,41.7859825,-87.75242444
MDZ,USBP,Medford,WI,USA,45.10097556,-90.30341
MEB,USBP,Maxton,NC,USA,34.79193917,-79.36584778
MEI,USBP,Meridian,MS,USA,32.33313333,-88.75120556
MEJ,USBP,Meade,KS,USA,37.27938889,-100.3563056
MEM,USBP,Memphis,TN,USA,35.04241667,-89.97666667
MER,USBP,Atwater,CA,USA,37.38048056,-120.5681889
MEV,USBP,Minden,NV,USA,39.00030889,-119.7508064
MEY,USBP,Mapleton,IA,USA,42.178295,-95.79364528
MFD,USBP,Mansfield,OH,USA,40.82141667,-82.51663889
MFE,USBP,McAllen,TX,USA,26.17583333,-98.23861111
MFI,USBP,Marshfield,WI,USA,44.63687972,-90.18932667
MFR,USBP,Medford,OR,USA,42.37422778,-122.8734978
MFV,USBP,Melfa,VA,USA,37.64688889,-75.76105556
MGC,USBP,Michigan City,IN,USA,41.70331694,-86.82124167
MGJ,USBP,Montgomery,NY,USA,41.50998278,-74.26465056
MGM,USBP,Montgomery,AL,USA,32.30064417,-86.39397611
MGR,USBP,Moultrie,GA,USA,31.08490917,-83.80325528
MGW,USBP,Morgantown,WV,USA,39.6429075,-79.91631417
MGY,USBP,Dayton,OH,USA,39.58897222,-84.22486111
MHE,USBP,Mitchell,SD,USA,43.77483333,-98.03861111
MHK,USBP,Manhattan,KS,USA,39.14096722,-96.67083278
MHL,USBP,Marshall,MO,USA,39.09575472,-93.20287889
MHM,USBP,Minchumina,AK,USA,63.880565,-152.3006756
MHP,USBP,Metter,GA,USA,32.37388889,-82.07919444
MHR,USBP,Sacramento,CA,USA,38.55389694,-121.2975908
MHT,USBP,Manchester,NH,USA,42.93451639,-71.43705583
MHV,USBP,Mojave,CA,USA,35.05936472,-118.1518561
MIA,USBP,Miami,FL,USA,25.79325,-80.29055556
MIB,USBP,NA,NA,USA,48.415769,-101.358039
MIC,USBP,Minneapolis,MN,USA,45.06198611,-93.3539375
MIE,USBP,Muncie,IN,USA,40.24234806,-85.39586
MIO,USBP,Miami,OK,USA,36.90922083,-94.88750028
MIT,USBP,Shafter,CA,USA,35.50592944,-119.1915236
MIV,USBP,Millville,NJ,USA,39.36780556,-75.07222222
MIW,USBP,Marshalltown,IA,USA,42.11272639,-92.91778778
MJQ,USBP,Jackson,MN,USA,43.65004111,-94.98654611
MJX,USBP,Toms River,NJ,USA,39.92749806,-74.29237917
MKA,USBP,Miller,SD,USA,44.52524444,-98.95811444
MKC,USBP,Kansas City,MO,USA,39.12324111,-94.592735
MKE,USBP,Milwaukee,WI,USA,42.94722222,-87.89658333
MKG,USBP,Muskegon,MI,USA,43.16948806,-86.23822306
MKJ,USBP,Marion,VA,USA,36.8948525,-81.349955
MKK,USBP,Kaunakakai,HI,USA,21.15288583,-157.0962561
MKL,USBP,Jackson,TN,USA,35.59987944,-88.91561611
MKO,USBP,Muskogee,OK,USA,35.65773028,-95.36164889
MKT,USBP,Mankato,MN,USA,44.22164528,-93.91874333
MKV,USBP,Marksville,LA,USA,31.09466,-92.06906861
MKY,USBP,Marco Island,FL,USA,25.99502778,-81.67252778
MLB,USBP,Melbourne,FL,USA,28.10275,-80.64580556
MLC,USBP,McAlester,OK,USA,34.88240194,-95.78346278
MLE,USBP,Omaha,NE,USA,41.196,-96.11227778
MLF,USBP,Milford,UT,USA,38.4266325,-113.0124564
MLI,USBP,Moline,IL,USA,41.44852639,-90.50753917
MLJ,USBP,Milledgeville,GA,USA,33.15419444,-83.24061111
MLL,USBP,Marshall,AK,USA,61.8659225,-162.0690456
MLS,USBP,Miles City,MT,USA,46.42795972,-105.8862397
MLT,USBP,Millinocket,ME,USA,45.64783611,-68.68556194
MLU,USBP,Monroe,LA,USA,32.51086556,-92.03768778
MLY,USBP,Manley Hot Springs,AK,USA,64.99756472,-150.6441297
MMH,USBP,Mammoth Lakes,CA,USA,37.62404861,-118.8377722
MMI,USBP,Athens,TN,USA,35.39730333,-84.56256861
MMK,USBP,Meriden,CT,USA,41.50871472,-72.82947833
MML,USBP,Marshall,MN,USA,44.45006611,-95.82234028
MMU,USBP,Morristown,NJ,USA,40.79935,-74.41487472
MMV,USBP,McMinnville,OR,USA,45.19444444,-123.1359444
MNF,USBP,Mountain View,MO,USA,36.99282694,-91.71445611
MNI,USBP,Manning,SC,USA,33.58711111,-80.20866667
MNM,USBP,Menominee,MI,USA,45.12665028,-87.63844056
MNN,USBP,Marion,OH,USA,40.61625,-83.06347222
MNV,USBP,Madisonville,TN,USA,35.54537222,-84.380235
MNZ,USBP,Hamilton,TX,USA,31.66592639,-98.1486375
MO6,USBP,Washington,MO,USA,38.59163472,-90.99761444
MO85,USBP,Harrisonville,MO,USA,38.61102222,-94.34213056
MOB,USBP,Mobile,AL,USA,30.69141667,-88.24283333
MOD,USBP,Modesto,CA,USA,37.62581722,-120.9544214
MOP,USBP,Mount Pleasant,MI,USA,43.62166833,-84.737485
MOR,USBP,Morristown,TN,USA,36.17939639,-83.37544944
MOT,USBP,Minot,ND,USA,48.25937778,-101.2803339
MOU,USBP,Mountain Village,AK,USA,62.09536222,-163.6820594
MOX,USBP,Morris,MN,USA,45.56651667,-95.96763611
MPE,USBP,Philadelphia,MS,USA,32.7995775,-89.12589472
MPJ,USBP,Morrilton,AR,USA,35.13886306,-92.90919694
MPO,USBP,Mount Pocono,PA,USA,41.1374775,-75.37887833
MPR,USBP,McPherson,KS,USA,38.35243722,-97.69133028
MPV,USBP,Barre-Montpelier,VT,USA,44.203505,-72.56232944
MPZ,USBP,Mount Pleasant,IA,USA,40.94661389,-91.511075
MQB,USBP,Macomb,IL,USA,40.52034556,-90.65246389
MQI,USBP,Manteo,NC,USA,35.91898806,-75.69553944
MQJ,USBP,Indianapolis,IN,USA,39.84348556,-85.89706389
MQT,USBP,NA,NA,USA,46.353639,-87.395361
MQW,USBP,McRae,GA,USA,32.09577778,-82.88002778
MQY,USBP,Smyrna,TN,USA,36.00897944,-86.52007667
MRB,USBP,Martinsburg,WV,USA,39.40193278,-77.98458139
MRC,USBP,Columbia-Mt Pleasant,TN,USA,35.55413889,-87.17891667
MRF,USBP,Marfa,TX,USA,30.37147222,-104.0166944
MRH,USBP,Beaufort,NC,USA,34.73355028,-76.66059611
MRI,USBP,Anchorage,AK,USA,61.21437861,-149.8461614
MRJ,USBP,Mineral Point,WI,USA,42.88532917,-90.23198583
MRN,USBP,Morganton,NC,USA,35.82149222,-81.61073639
MRY,USBP,Monterey,CA,USA,36.5869825,-121.8429478
MSA,USBP,Mount Pleasant,TX,USA,33.12936111,-94.97563889
MSL,USBP,Muscle Shoals,AL,USA,34.74532028,-87.61023222
MSN,USBP,Madison,WI,USA,43.13985778,-89.33751361
MSO,USBP,Missoula,MT,USA,46.91630556,-114.0905556
MSP,USBP,Minneapolis,MN,USA,44.88054694,-93.2169225
MSS,USBP,Massena,NY,USA,44.93582722,-74.84554583
MSV,USBP,Monticello,NY,USA,41.70164917,-74.79501389
MSY,USBP,New Orleans,LA,USA,29.99338889,-90.25802778
MTH,USBP,Marathon,FL,USA,24.72614083,-81.05137806
MTJ,USBP,Montrose,CO,USA,38.50886722,-107.8938333
MTM,USBP,Metlakatla,AK,USA,55.13104528,-131.5780675
MTN,USBP,Baltimore,MD,USA,39.32566333,-76.41376556
MTO,USBP,Mattoon-Charleston,IL,USA,39.47793722,-88.27923833
MTP,USBP,Montauk,NY,USA,41.07694333,-71.92039972
MTV,USBP,Martinsville,VA,USA,36.63074861,-80.01834917
MTW,USBP,Manitowoc,WI,USA,44.1287725,-87.68058472
MUE,USBP,Kamuela,HI,USA,20.00132694,-155.6681072
MUT,USBP,Muscatine,IA,USA,41.36786333,-91.14821639
MVC,USBP,Monroeville,AL,USA,31.45805306,-87.35104028
MVE,USBP,Montevideo,MN,USA,44.96905556,-95.71025
MVI,USBP,Monte Vista,CO,USA,37.52855833,-106.0460533
MVL,USBP,Morrisville,VT,USA,44.53460806,-72.61400444
MVM,USBP,Machias,ME,USA,44.70311111,-67.47861111
MVN,USBP,Mt. Vernon,IL,USA,38.32335444,-88.85847917
MVY,USBP,Marthas Vineyard,MA,USA,41.39302583,-70.6143325
MWA,USBP,Marion,IL,USA,37.75313528,-89.01159694
MWC,USBP,Milwaukee,WI,USA,43.11092694,-88.03442194
MWH,USBP,Moses Lake,WA,USA,47.20770806,-119.3201897
MWK,USBP,Mount Airy,NC,USA,36.459735,-80.55295722
MWL,USBP,Mineral Wells,TX,USA,32.78160556,-98.060175
MWM,USBP,Windom,MN,USA,43.91340167,-95.10940833
MWO,USBP,Middletown,OH,USA,39.53102778,-84.39527778
MXA,USBP,Manila,AR,USA,35.89444444,-90.15456944
MXO,USBP,Monticello,IA,USA,42.22611111,-91.16708333
MYF,USBP,San Diego,CA,USA,32.81573306,-117.1395664
MYK,USBP,May Creek,AK,USA,61.33567417,-142.686775
MYL,USBP,McCall,ID,USA,44.88879556,-116.1017497
MYR,USBP,Myrtle Beach,SC,USA,33.67975,-78.92833333
MYU,USBP,Mekoryuk,AK,USA,60.37142,-166.2706083
MYV,USBP,Marysville,CA,USA,39.09777278,-121.569825
MYZ,USBP,Marysville,KS,USA,39.85416833,-96.63021389
MZJ,USBP,Marana,AZ,USA,32.50984389,-111.3253339
MZZ,USBP,Marion,IN,USA,40.49037278,-85.67914389
N00,USBP,Lexington,NY,USA,42.27230778,-74.39403667
N03,USBP,Cortland,NY,USA,42.59264528,-76.2148825
N04,USBP,Madison,CT,USA,41.27118222,-72.54972972
N07,USBP,Lincoln Park,NJ,USA,40.94752444,-74.31450139
N10,USBP,Collegeville,PA,USA,40.20404833,-75.43026306
N12,USBP,Lakewood,NJ,USA,40.0667825,-74.17764167
N13,USBP,Bloomsburg,PA,USA,40.99778111,-76.43605583
N14,USBP,Lumbrerton,NJ,USA,39.93427778,-74.80725
N23,USBP,Sidney,NY,USA,42.30258,-75.41595639
N24,USBP,Questa,NM,USA,36.80030556,-105.5975
N25,USBP,"Westport, NY",NY,USA,44.15838611,-73.43290444
N27,USBP,Towanda,PA,USA,41.74324028,-76.44457083
N29,USBP,Magdalena,NM,USA,34.09450778,-107.2978142
N30,USBP,Honesdale,PA,USA,41.51533861,-75.25148139
N35,USBP,Punxsutawney,PA,USA,40.96667472,-78.93000528
N37,USBP,Monticello,NY,USA,41.62249167,-74.70141111
N38,USBP,Wellsboro,PA,USA,41.72790028,-77.39651139
N40,USBP,Pittstown,NJ,USA,40.56626889,-74.97864139
N47,USBP,Pottstown,PA,USA,40.26040083,-75.67085306
N51,USBP,Readington,NJ,USA,40.58286278,-74.73656222
N53,USBP,East Stroudsburg,PA,USA,41.03587167,-75.16067889
N57,USBP,Toughkenamon,PA,USA,39.83052639,-75.76974472
N66,USBP,Oneonta,NY,USA,42.52476694,-75.06446167
N67,USBP,Ambler,PA,USA,40.13647333,-75.26702972
N68,USBP,Chambersburg,PA,USA,39.97295167,-77.64326778
N69,USBP,Stormville,NY,USA,41.57698222,-73.73235278
N72,USBP,Warwick,NY,USA,41.28759361,-74.28709472
N73,USBP,Vincentown,NJ,USA,39.90415167,-74.74954917
N79,USBP,Shamokin,PA,USA,40.83692306,-76.55245611
N81,USBP,Hammonton,NJ,USA,39.66746889,-74.75773444
N82,USBP,Wurtsboro,NY,USA,41.59720444,-74.45840722
N85,USBP,Pittstown,NJ,USA,40.58757389,-75.01942056
N87,USBP,Robbinsville,NJ,USA,40.21394333,-74.60179472
N89,USBP,Ellenville,NY,USA,41.72787111,-74.37737583
N93,USBP,Golovin,AK,USA,64.55305556,-163.0088889
N99,USBP,West Chester,PA,USA,39.99472222,-75.58333333
NC14,USBP,Reidsville,NC,USA,36.43722083,-79.85101
NC67,USBP,West Jefferson,NC,USA,36.43243111,-81.41968472
ND06,USBP,Cavalier,ND,USA,48.78388139,-97.62981028
ND12,USBP,Ellendale,ND,USA,46.01247194,-98.51287889
ND17,USBP,Harvey,ND,USA,47.79123306,-99.93174222
ND26,USBP,Kenmare,ND,USA,48.66758278,-102.0475944
ND28,USBP,Lakota,ND,USA,48.0313875,-98.32788111
ND29,USBP,La Moure (New Site),ND,USA,46.34663556,-98.28371
ND33,USBP,Linton,ND,USA,46.21830472,-100.2450028
ND44,USBP,Mott,ND,USA,46.359725,-102.3229389
ND66,USBP,Washburn,ND,USA,47.35305,-101.0273681
NEW,USBP,New Orleans,LA,USA,30.04242056,-90.02825694
NH12,USBP,Plymouth,NH,USA,43.77923806,-71.75369056
NK03,USBP,Durhamville,NY,USA,43.13472111,-75.64890417
NQA,USBP,Millington,TN,USA,35.35666667,-89.87027778
NRN,USBP,Norton,KS,USA,39.84914444,-99.89320583
NUL,USBP,Nulato,AK,USA,64.72981944,-158.0731889
NVD,USBP,Nevada,MO,USA,37.85206528,-94.30486472
NY0,USBP,Johnstown,NY,USA,42.99821222,-74.32955111
O02,USBP,Beckwourth,CA,USA,39.82073556,-120.3543767
O05,USBP,Chester,CA,USA,40.28235278,-121.2411683
O08,USBP,Colusa,CA,USA,39.17903,-121.9933611
O09,USBP,Covelo,CA,USA,39.79015444,-123.2664025
O11,USBP,Stilwell,OK,USA,35.75703083,-94.64994417
O15,USBP,Turlock,CA,USA,37.48743556,-120.6968669
O16,USBP,Garberville,CA,USA,40.08597806,-123.8136397
O17,USBP,Grass Valley,CA,USA,39.22402778,-121.0030833
O19,USBP,Eureka,CA,USA,40.7193,-123.9275531
O21,USBP,Hoopa,CA,USA,41.04290778,-123.6683894
O22,USBP,Columbia,CA,USA,38.03042306,-120.4145556
O24,USBP,Lee Vining,CA,USA,37.95825861,-119.1065375
O26,USBP,Lone Pine,CA,USA,36.58826667,-118.0520314
O27,USBP,Oakdale,CA,USA,37.75634472,-120.8002089
O28,USBP,Willits,CA,USA,39.45129778,-123.3722844
O31,USBP,Healdsburg,CA,USA,38.65352083,-122.8994397
O32,USBP,Reedley,CA,USA,36.66633917,-119.4498483
O35,USBP,Hollis,OK,USA,34.70839417,-99.90871194
O37,USBP,Orland,CA,USA,39.72124194,-122.1466508
O41,USBP,Woodland,CA,USA,38.67387639,-121.8720772
O42,USBP,Woodlake,CA,USA,36.39883833,-119.1073289
O43,USBP,Yerington,NV,USA,39.00408444,-119.1579303
O45,USBP,Hooker,OK,USA,36.85708306,-101.2270903
O46,USBP,Weed,CA,USA,41.47487,-122.4530739
O47,USBP,Prague,OK,USA,35.48201417,-96.71862944
O48,USBP,Little River,CA,USA,39.26203778,-123.7537347
O52,USBP,Yuba City,CA,USA,39.12655889,-121.6091328
O53,USBP,Medford,OK,USA,36.79058417,-97.74899722
O54,USBP,Weaverville,CA,USA,40.7457,-122.92197
O57,USBP,Bridgeport,CA,USA,38.26241917,-119.2257094
O59,USBP,Cedarville,CA,USA,41.55267139,-120.1663339
O60,USBP,Cloverdale,CA,USA,38.7743525,-122.9922217
O61,USBP,Cameron Park,CA,USA,38.68407028,-120.9871642
O65,USBP,Okeene,OK,USA,36.11253667,-98.3086825
O68,USBP,Mariposa,CA,USA,37.51077,-120.0418439
O69,USBP,Petaluma,CA,USA,38.2578325,-122.6055406
O70,USBP,Jackson,CA,USA,38.37680111,-120.7939075
O81,USBP,Tulelake,CA,USA,41.88738,-121.3594331
O85,USBP,Redding,CA,USA,40.57487278,-122.4080642
O86,USBP,Trinity Center,CA,USA,40.98320111,-122.6941889
O88,USBP,Rio Vista,CA,USA,38.1935,-121.7023889
O89,USBP,Fall River Mills,CA,USA,41.01877417,-121.4333136
OAJ,USBP,Jacksonville,NC,USA,34.82916444,-77.61213778
OAK,USBP,Oakland,CA,USA,37.72129083,-122.2207167
OAR,USBP,Marina,CA,USA,36.68190278,-121.7624492
OBE,USBP,Okeechobee,FL,USA,27.26282306,-80.84978306
OBU,USBP,Kobuk,AK,USA,66.90917056,-156.8610575
OCF,USBP,Ocala,FL,USA,29.17261111,-82.22416667
OCH,USBP,Nacogdoches,TX,USA,31.57802778,-94.70954167
OCQ,USBP,Oconto,WI,USA,44.8735825,-87.9090525
OCW,USBP,Washington,NC,USA,35.57046806,-77.04981306
ODO,USBP,Odessa,TX,USA,31.92056722,-102.3870892
ODX,USBP,Ord,NE,USA,41.62425,-98.95236111
OEB,USBP,Coldwater,MI,USA,41.93344861,-85.052585
OEL,USBP,Oakley,KS,USA,39.10994444,-100.8164444
OEO,USBP,Osceola,WI,USA,45.30858944,-92.69008056
OFK,USBP,Norfolk,NE,USA,41.98546389,-97.43511111
OFP,USBP,Richmond,VA,USA,37.7080325,-77.43601028
OGA,USBP,Ogallala,NE,USA,41.11961111,-101.7689444
OGB,USBP,Orangeburg,SC,USA,33.46094444,-80.85891667
OGD,USBP,Ogden,UT,USA,41.19594417,-112.012175
OGG,USBP,Kahului,HI,USA,20.89864972,-156.4304578
OGM,USBP,Ontonagon,MI,USA,46.84547028,-89.36708806
OGS,USBP,Ogdensburg,NY,USA,44.68185361,-75.46549917
OH17,USBP,Napoleon,OH,USA,41.37427778,-84.06791667
OH21,USBP,Norwalk,OH,USA,41.24476583,-82.55122722
OH30,USBP,Put In Bay,OH,USA,41.63674333,-82.82833333
OIC,USBP,Norwich,NY,USA,42.56655417,-75.52411167
OIN,USBP,Oberlin,KS,USA,39.83378278,-100.5394236
OJC,USBP,Olathe,KS,USA,38.84760194,-94.73758583
OKB,USBP,Oceanside,CA,USA,33.21797639,-117.3515075
OKC,USBP,Oklahoma City,OK,USA,35.39308833,-97.60073389
OKK,USBP,Kokomo,IN,USA,40.5281775,-86.05899
OKM,USBP,Okmulgee,OK,USA,35.66813889,-95.94869444
OKS,USBP,Oshkosh,NE,USA,41.40097222,-102.3550278
OKV,USBP,Winchester,VA,USA,39.14352139,-78.14444444
OKZ,USBP,Sandersville,GA,USA,32.96672222,-82.83816667
OLD,USBP,Old Town,ME,USA,44.9525,-68.67433333
OLE,USBP,Olean,NY,USA,42.24006611,-78.371685
OLF,USBP,Wolf Point,MT,USA,48.09451778,-105.5750536
OLM,USBP,Olympia,WA,USA,46.9705,-122.9022083
OLS,USBP,Nogales,AZ,USA,31.41772222,-110.8478889
OLU,USBP,Columbus,NE,USA,41.448,-97.34263889
OLV,USBP,Olive Branch,MS,USA,34.97875,-89.78683333
OLY,USBP,Olney-Noble,IL,USA,38.72182722,-88.17643278
OLZ,USBP,Oelwein,IA,USA,42.68084472,-91.97447833
OMA,USBP,Omaha,NE,USA,41.30251861,-95.89417306
OME,USBP,Nome,AK,USA,64.51220222,-165.4452458
OMH,USBP,Orange,VA,USA,38.24721639,-78.04561028
OMK,USBP,Omak,WA,USA,48.46440222,-119.5180503
OMN,USBP,Ormond Beach,FL,USA,29.30113889,-81.11380556
ONA,USBP,Winona,MN,USA,44.07721306,-91.70831694
ONL,USBP,O Neill,NE,USA,42.46988889,-98.68805556
ONM,USBP,Socorro,NM,USA,34.02247222,-106.9031389
ONO,USBP,Ontario,OR,USA,44.02052417,-117.013635
ONP,USBP,Newport,OR,USA,44.58036111,-124.0579167
ONT,USBP,Ontario,CA,USA,34.056,-117.6011944
ONY,USBP,Olney,TX,USA,33.35088056,-98.81916667
ONZ,USBP,Detroit - Grosse Ile,MI,USA,42.09860472,-83.16105861
OOA,USBP,Oskaloosa,IA,USA,41.22614944,-92.49388278
OOH,USBP,Hoonah,AK,USA,58.11215944,-135.451805
OOK,USBP,Toksook Bay,AK,USA,60.53337639,-165.1139636
OPF,USBP,Miami,FL,USA,25.907,-80.27838889
OPL,USBP,Opelousas,LA,USA,30.55840556,-92.099375
OPN,USBP,Thomaston,GA,USA,32.95458861,-84.26315222
OQU,USBP,North Kingstown,RI,USA,41.5971525,-71.41215333
OQW,USBP,Maquoketa,IA,USA,42.050075,-90.73880472
OR33,USBP,Boardman,OR,USA,45.814825,-119.8205006
ORB,USBP,Orr,MN,USA,48.01592194,-92.85605139
ORC,USBP,Orange City,IA,USA,42.99026444,-96.06279667
ORD,USBP,Chicago,IL,USA,41.979595,-87.90446417
ORE,USBP,Orange,MA,USA,42.57011889,-72.28860667
ORF,USBP,Norfolk,VA,USA,36.89461111,-76.20122222
ORG,USBP,Orange,TX,USA,30.06916667,-93.80091667
ORH,USBP,Worcester,MA,USA,42.26733944,-71.87570944
ORI,USBP,Port Lions,AK,USA,57.8853775,-152.8461011
ORL,USBP,Orlando,FL,USA,28.54547222,-81.33294444
ORS,USBP,Eastsound,WA,USA,48.70816,-122.9137961
ORT,USBP,Northway,AK,USA,62.96133361,-141.9291369
ORV,USBP,Noorvik,AK,USA,66.82852667,-161.0277908
OSC,USBP,Oscoda,MI,USA,44.45260972,-83.38036389
OSH,USBP,Oshkosh,WI,USA,43.98436639,-88.55705944
OSU,USBP,Columbus,OH,USA,40.07977778,-83.07302778
OSX,USBP,Kosciusko,MS,USA,33.09025889,-89.54201722
OTG,USBP,Worthington,MN,USA,43.65506611,-95.57920917
OTH,USBP,North Bend,OR,USA,43.41713889,-124.2460278
OTM,USBP,Ottumwa,IA,USA,41.10659611,-92.44793972
OTZ,USBP,Kotzebue,AK,USA,66.88467694,-162.5985497
OUN,USBP,Norman,OK,USA,35.24556444,-97.47212861
OVE,USBP,Oroville,CA,USA,39.48775,-121.622
OVO,USBP,North Vernon,IN,USA,39.04563667,-85.60533
OVS,USBP,Boscobel,WI,USA,43.16063056,-90.67421833
OWA,USBP,Owatonna,MN,USA,44.12339722,-93.26061667
OWB,USBP,Owensboro,KY,USA,37.74011111,-87.16683333
OWD,USBP,Norwood,MA,USA,42.19079694,-71.17310389
OWI,USBP,Ottawa,KS,USA,38.53866667,-95.25297222
OWK,USBP,Norridgewock,ME,USA,44.7155,-69.86647222
OWX,USBP,Ottawa,OH,USA,41.0355825,-83.98202444
OXB,USBP,Ocean City,MD,USA,38.31044444,-75.12397222
OXC,USBP,Oxford,CT,USA,41.47855556,-73.13525
OXD,USBP,Oxford,OH,USA,39.50203917,-84.7841425
OXI,USBP,Knox,IN,USA,41.3301875,-86.66473194
OXR,USBP,Oxnard,CA,USA,34.20080083,-119.2072164
OXV,USBP,Knoxville,IA,USA,41.29888556,-93.11381556
OYM,USBP,St Marys,PA,USA,41.41247778,-78.50263139
OZA,USBP,Ozona,TX,USA,30.73528028,-101.2029719
OZW,USBP,Howell,MI,USA,42.62950694,-83.98417361
P01,USBP,Ajo,AZ,USA,32.45005694,-112.8673778
P04,USBP,Bisbee,AZ,USA,31.36399028,-109.8831286
P08,USBP,Coolidge,AZ,USA,32.93594444,-111.4265278
P13,USBP,Globe,AZ,USA,33.35314722,-110.6673611
P14,USBP,Holbrook,AZ,USA,34.93891389,-110.1395656
P20,USBP,Parker,AZ,USA,34.15063889,-114.2712222
P32,USBP,Williams,AZ,USA,35.30223222,-112.1940575
P33,USBP,Willcox,AZ,USA,32.24540278,-109.8946319
P45,USBP,Mount Pleasant,PA,USA,40.10840556,-79.54142694
P52,USBP,Cottonwood,AZ,USA,34.73002111,-112.0351569
P53,USBP,Monongahela,PA,USA,40.20972222,-79.83144444
PAE,USBP,Everett,WA,USA,47.90762861,-122.2815892
PAH,USBP,Paducah,KY,USA,37.06083333,-88.77375
PAK,USBP,Hanapepe,HI,USA,21.89686833,-159.6033217
PAN,USBP,Payson,AZ,USA,34.25683639,-111.3392558
PAO,USBP,Palo Alto,CA,USA,37.46111944,-122.1150444
PAQ,USBP,Palmer,AK,USA,61.59474194,-149.0888242
PBF,USBP,Pine Bluff,AR,USA,34.17498722,-91.93472028
PBH,USBP,Phillips,WI,USA,45.70895028,-90.40248472
PBI,USBP,West Palm Beach,FL,USA,26.68316194,-80.09559417
PBV,USBP,St. George,AK,USA,56.57735278,-169.6637361
PCK,USBP,Porcupine Creek,AK,USA,67.23789833,-150.2860608
PCM,USBP,Plant City,FL,USA,28.00021667,-82.16424167
PCW,USBP,Port Clinton,OH,USA,41.51627778,-82.86869444
PCZ,USBP,Waupaca,WI,USA,44.33368778,-89.01549861
PDC,USBP,Prairie Du Chien,WI,USA,43.01928889,-91.12374722
PDK,USBP,Atlanta,GA,USA,33.87560444,-84.30196778
PDT,USBP,Pendleton,OR,USA,45.69505556,-118.8414444
PDX,USBP,Portland,OR,USA,45.58872222,-122.5975
PEA,USBP,Pella,IA,USA,41.40006667,-92.94588333
PEC,USBP,Pelican,AK,USA,57.95517222,-136.2362733
PEO,USBP,Penn Yan,NY,USA,42.63813556,-77.05306083
PEQ,USBP,Pecos City,TX,USA,31.3823575,-103.5107017
PEZ,USBP,Pleasanton,TX,USA,28.95419444,-98.51998917
PFN,USBP,Panama City,FL,USA,30.21208333,-85.68280556
PGA,USBP,Page,AZ,USA,36.92611111,-111.4483611
PGD,USBP,Punta Gorda,FL,USA,26.92019444,-81.99052778
PGM,USBP,Port Graham,AK,USA,59.34825944,-151.8315389
PGR,USBP,Paragould,AR,USA,36.06352944,-90.50986028
PGV,USBP,Greenville,NC,USA,35.63523944,-77.38532028
PHD,USBP,New Philadelphia,OH,USA,40.47091667,-81.41975
PHF,USBP,Newport News,VA,USA,37.13189556,-76.4929875
PHG,USBP,Phillipsburg,KS,USA,39.73530556,-99.31741667
PHH,USBP,Andrews,SC,USA,33.45169472,-79.52620111
PHK,USBP,Pahokee,FL,USA,26.78503861,-80.69335528
PHL,USBP,Philadelphia,PA,USA,39.87195278,-75.24114083
PHN,USBP,Port Huron,MI,USA,42.91095778,-82.52886139
PHO,USBP,Point Hope,AK,USA,68.34877417,-166.7993086
PHP,USBP,Philip,SD,USA,44.04862722,-101.5990603
PHT,USBP,Paris,TN,USA,36.33822472,-88.38287861
PHX,USBP,Phoenix,AZ,USA,33.43416667,-112.0080556
PIA,USBP,Peoria,IL,USA,40.66424333,-89.69330556
PIB,USBP,Hattiesburg-Laurel,MS,USA,31.46714944,-89.33705778
PIE,USBP,St. Petersburg,FL,USA,27.91076333,-82.68743944
PIH,USBP,Pocatello,ID,USA,42.91130556,-112.5958611
PIL,USBP,Port Isabel,TX,USA,26.16621,-97.34588611
PIM,USBP,Pine Mountain,GA,USA,32.84069444,-84.88244444
PIR,USBP,Pierre,SD,USA,44.38267694,-100.285965
PIT,USBP,Pittsburgh,PA,USA,40.49146583,-80.23287083
PIZ,USBP,Point Lay,AK,USA,69.732875,-163.0053417
PJY,USBP,Pinckneyville-Duquoin,IL,USA,37.97788417,-89.36044889
PKA,USBP,Napaskiak,AK,USA,60.70369056,-161.7767367
PKB,USBP,Parkersburg,WV,USA,39.34510333,-81.43920194
PKD,USBP,Park Rapids,MN,USA,46.90062583,-95.07313278
PKF,USBP,Park Falls,WI,USA,45.95502361,-90.42441806
PLB,USBP,Plattsburgh,NY,USA,44.68751861,-73.52452306
PLD,USBP,Portland,IN,USA,40.45076167,-84.99007917
PLN,USBP,Pellston,MI,USA,45.5709275,-84.796715
PLR,USBP,Pell City,AL,USA,33.55883333,-86.24905556
PMB,USBP,Pembina,ND,USA,48.9425,-97.24083333
PMD,USBP,Palmdale,CA,USA,34.62938889,-118.0845528
PMH,USBP,Portsmouth,OH,USA,38.84047,-82.84731361
PMP,USBP,Pompano Beach,FL,USA,26.24713889,-80.11105556
PMV,USBP,Plattsmouth,NE,USA,40.95025,-95.91788889
PMX,USBP,Palmer,MA,USA,42.22328722,-72.31138694
PMZ,USBP,Plymouth,NC,USA,35.80843944,-76.75927694
PNA,USBP,Pinedale,WY,USA,42.79549917,-109.8070944
PNC,USBP,Ponca City,OK,USA,36.73058417,-97.09976833
PNE,USBP,Philadelphia,PA,USA,40.08194417,-75.01058667
PNM,USBP,Princeton,MN,USA,45.55986778,-93.60821611
PNN,USBP,Princeton,ME,USA,45.20066667,-67.56438889
PNP,USBP,Pilot Point,AK,USA,57.58038056,-157.5674444
PNS,USBP,Pensacola,FL,USA,30.47330556,-87.18744444
POC,USBP,La Verne,CA,USA,34.09164833,-117.7817803
POF,USBP,Poplar Bluff,MO,USA,36.77394444,-90.32484722
POH,USBP,Pocahontas,IA,USA,42.74280556,-94.64730556
POU,USBP,Poughkeepsie,NY,USA,41.62661111,-73.88411111
POY,USBP,Powell,WY,USA,44.86797222,-108.793
PPA,USBP,Pampa,TX,USA,35.61298806,-100.9962608
PPC,USBP,Prospect Creek,AK,USA,66.81288139,-150.6437925
PPF,USBP,Parsons,KS,USA,37.33125778,-95.50900667
PPG,USBP,Pago Pago,AS,USA,14.33102278,-170.7105258
PPO,USBP,La Porte,IN,USA,41.57276194,-86.73413139
PPQ,USBP,Pittsfield,IL,USA,39.63885556,-90.77843111
PQI,USBP,Presque Isle,ME,USA,46.68896,-68.04479972
PQL,USBP,Pascagoula,MS,USA,30.46278111,-88.52922778
PQN,USBP,Pipestone,MN,USA,43.98330333,-96.30031083
PR03,USBP,Fajardo,PR,USA,18.339675,-65.62460583
PRB,USBP,Paso Robles,CA,USA,35.67288611,-120.6270558
PRC,USBP,Prescott,AZ,USA,34.65447222,-112.4195833
PRG,USBP,Paris,IL,USA,39.70015944,-87.66961861
PRN,USBP,Greenville,AL,USA,31.84540222,-86.61044583
PRO,USBP,Perry,IA,USA,41.82801306,-94.15990361
PRX,USBP,Paris,TX,USA,33.63660667,-95.45073194
PSB,USBP,Philipsburg,PA,USA,40.88439139,-78.08734167
PSC,USBP,Pasco,WA,USA,46.26468028,-119.1190292
PSE,USBP,Ponce,PR,USA,18.00830278,-66.56301194
PSF,USBP,Pittsfield,MA,USA,42.42684667,-73.29292806
PSG,USBP,Petersburg,AK,USA,56.80165194,-132.9452781
PSK,USBP,Dublin,VA,USA,37.13734528,-80.67848167
PSM,USBP,Portsmouth,NH,USA,43.07795889,-70.82327333
PSN,USBP,Palestine,TX,USA,31.77969444,-95.70630556
PSP,USBP,Palm Springs,CA,USA,33.82921556,-116.5062531
PSX,USBP,Palacios,TX,USA,28.72751778,-96.2509675
PTB,USBP,Petersburg,VA,USA,37.18375833,-77.50738889
PTD,USBP,Potsdam,NY,USA,44.67666917,-74.94844639
PTH,USBP,Port Heiden,AK,USA,56.95943333,-158.6318208
PTK,USBP,Pontiac,MI,USA,42.66520389,-83.41870917
PTN,USBP,Patterson,LA,USA,29.71081917,-91.33971778
PTS,USBP,Pittsburg,KS,USA,37.44855556,-94.73133333
PTT,USBP,Pratt,KS,USA,37.7000175,-98.7462025
PTU,USBP,Platinum,AK,USA,59.01135611,-161.8196661
PTV,USBP,Porterville,CA,USA,36.02960778,-119.0627311
PTW,USBP,Pottstown,PA,USA,40.23957167,-75.55662528
PUB,USBP,Pueblo,CO,USA,38.28908722,-104.4965722
PUC,USBP,Price,UT,USA,39.61391556,-110.7514183
PUW,USBP,"Pullman/Moscow,ID",WA,USA,46.74386111,-117.1095833
PVB,USBP,Platteville,WI,USA,42.68935583,-90.44439278
PVC,USBP,Provincetown,MA,USA,42.07199833,-70.22137667
PVD,USBP,Providence,RI,USA,41.72399917,-71.42822111
PVF,USBP,Placerville,CA,USA,38.72421806,-120.753325
PVG,USBP,Portsmouth,VA,USA,36.78014889,-76.44883472
PVJ,USBP,Pauls Valley,OK,USA,34.71105361,-97.22321694
PVU,USBP,Provo,UT,USA,40.21919444,-111.7233611
PVW,USBP,Plainview,TX,USA,34.16814722,-101.7173361
PWA,USBP,Oklahoma City,OK,USA,35.53455,-97.64721556
PWC,USBP,Pine River,MN,USA,46.7247875,-94.3817
PWD,USBP,Plentywood,MT,USA,48.79030583,-104.533845
PWG,USBP,Waco,TX,USA,31.48491667,-97.31652778
PWK,USBP,Chicago/Wheeling/Prospect Heights,IL,USA,42.11418083,-87.90148083
PWM,USBP,Portland,ME,USA,43.64616667,-70.30875
PWT,USBP,Bremerton,WA,USA,47.49275361,-122.7624286
PXE,USBP,Perry,GA,USA,32.51058333,-83.76733333
PYG,USBP,Pageland,SC,USA,34.74213889,-80.34519444
PYM,USBP,Plymouth,MA,USA,41.90902444,-70.72878778
PYX,USBP,Perryton,TX,USA,36.41200333,-100.7517883
PZQ,USBP,Rogers City,MI,USA,45.40709667,-83.81288556
Q00,USBP,Littlefield,TX,USA,33.92395306,-102.3866831
Q06,USBP,Tulia,TX,USA,34.56682472,-101.7814611
Q14,USBP,Espanola,NM,USA,36.02502306,-106.0464114
Q16,USBP,Reserve,NM,USA,33.70005472,-108.8506214
Q17,USBP,Boonville,CA,USA,39.0126775,-123.3827864
Q21,USBP,Brownsville,CA,USA,39.45544417,-121.2913511
Q24,USBP,Levelland,TX,USA,33.54980833,-102.3727333
Q25,USBP,Dinsmore,CA,USA,40.49291944,-123.5997589
Q26,USBP,Brownfield,TX,USA,33.173675,-102.1926208
Q31,USBP,Visalia,CA,USA,36.44856139,-119.3190056
Q34,USBP,Portales,NM,USA,34.14547222,-103.4103333
Q35,USBP,Springerville,AZ,USA,34.1286575,-109.3114756
Q37,USBP,Carrizozo,NM,USA,33.64886139,-105.895685
Q41,USBP,Floydada,TX,USA,34.00230056,-101.330435
Q42,USBP,Springer,NM,USA,36.32697806,-104.6197117
Q44,USBP,Beaver,OK,USA,36.79891472,-100.5298708
Q49,USBP,Firebaugh,CA,USA,36.85998861,-120.4644675
Q53,USBP,Franklin,CA,USA,38.30491306,-121.4296736
Q55,USBP,Dimmitt,TX,USA,34.56673556,-102.3226947
Q58,USBP,Santa Rosa,NM,USA,34.93442472,-104.643065
Q61,USBP,Georgetown,CA,USA,38.92111389,-120.8647944
Q68,USBP,Groveland,CA,USA,37.86166667,-120.1778889
Q72,USBP,Hayfork,CA,USA,40.54708833,-123.1816953
Q84,USBP,Mendota,CA,USA,36.75800528,-120.3712794
Q88,USBP,Paradise,CA,USA,39.70960639,-121.6163617
Q94,USBP,Rio Linda,CA,USA,38.67601389,-121.4455092
Q95,USBP,Ruth,CA,USA,40.21125917,-123.2975231
Q99,USBP,San Martin,CA,USA,37.08158611,-121.5968056
RAC,USBP,Racine,WI,USA,42.76119139,-87.81389806
RAL,USBP,Riverside,CA,USA,33.95187528,-117.4451017
RAP,USBP,Rapid City,SD,USA,44.04532139,-103.0573708
RBD,USBP,Dallas,TX,USA,32.68086111,-96.86819444
RBE,USBP,Bassett,NE,USA,42.56966667,-99.56836111
RBG,USBP,Roseburg,OR,USA,43.23878306,-123.3558617
RBL,USBP,Red Bluff,CA,USA,40.15065667,-122.2522903
RBW,USBP,Walterboro,SC,USA,32.92052778,-80.64125
RBY,USBP,Ruby,AK,USA,64.72721556,-155.4698886
RCA,USBP,NA,NA,USA,44.145094,-103.103567
RCR,USBP,Rochester,IN,USA,41.06554833,-86.18170444
RCX,USBP,Ladysmith,WI,USA,45.49825694,-91.00186361
RDD,USBP,Redding,CA,USA,40.50898361,-122.2934019
RDG,USBP,Reading,PA,USA,40.3785,-75.96525
RDK,USBP,Red Oak,IA,USA,41.01052778,-95.25986111
RDM,USBP,Redmond,OR,USA,44.25406722,-121.1499633
RDR,USBP,NA,NA,USA,47.961167,-97.401167
RDU,USBP,Raleigh,NC,USA,35.87763889,-78.78747222
RDV,USBP,Red Devil,AK,USA,61.78764333,-157.3479344
RED,USBP,Red Lodge,MT,USA,45.18744472,-109.2673778
RFD,USBP,Rockford,IL,USA,42.19536389,-89.09721111
RFG,USBP,Refugio,TX,USA,28.29361694,-97.32304833
RGK,USBP,Red Wing,MN,USA,44.58935611,-92.48496889
RHI,USBP,Rhinelander,WI,USA,45.63119306,-89.46745361
RHV,USBP,San Jose,CA,USA,37.33287306,-121.8197947
RIC,USBP,Richmond,VA,USA,37.50516667,-77.31966667
RID,USBP,Richmond,IN,USA,39.75721528,-84.84282
RIF,USBP,Richfield,UT,USA,38.73643611,-112.0989444
RIL,USBP,Rifle,CO,USA,39.526315,-107.7269403
RIU,USBP,Rancho Murieta,CA,USA,38.4887975,-121.1024447
RIV,USBP,Riverside,CA,USA,33.88057333,-117.2594836
RIW,USBP,Riverton,WY,USA,43.064235,-108.4598411
RKD,USBP,Rockland,ME,USA,44.06008333,-69.09925
RKP,USBP,Rockport,TX,USA,28.08677778,-97.04461111
RKR,USBP,Poteau,OK,USA,35.02162639,-94.6212525
RKS,USBP,Rock Springs,WY,USA,41.5942175,-109.0651928
RKW,USBP,Rockwood,TN,USA,35.922295,-84.68966278
RLD,USBP,Richland,WA,USA,46.305635,-119.3041853
RME,USBP,Rome,NY,USA,43.23379861,-75.40703333
RMG,USBP,Rome,GA,USA,34.35060111,-85.15801389
RMP,USBP,Rampart,AK,USA,65.50786222,-150.1428047
RMY,USBP,Marshall,MI,USA,42.25118111,-84.9554525
RNC,USBP,McMinnville,TN,USA,35.69870944,-85.84381722
RNH,USBP,New Richmond,WI,USA,45.14831139,-92.53806139
RNM,USBP,Ramona,CA,USA,33.038905,-116.9136392
RNO,USBP,Reno,NV,USA,39.49857611,-119.7680647
RNT,USBP,Renton,WA,USA,47.49313889,-122.21575
RNV,USBP,Cleveland,MS,USA,33.76114056,-90.75787528
ROA,USBP,Roanoke,VA,USA,37.32546833,-79.97542833
ROC,USBP,Rochester,NY,USA,43.11886611,-77.67238389
ROG,USBP,Rogers,AR,USA,36.37229667,-94.10686972
ROP,USBP,NA,NA,Thailand,14.078333,101.378334
ROR,USBP,NA,NA,Palau,7.367222,134.544167
ROS,USBP,Rush City,MN,USA,45.69801389,-92.95298972
ROW,USBP,Roswell,NM,USA,33.30155556,-104.5305556
ROX,USBP,Roseau,MN,USA,48.85603806,-95.69703861
RPB,USBP,Belleville,KS,USA,39.81790861,-97.659625
RPD,USBP,Rice Lake,WI,USA,45.41809056,-91.77365194
RPX,USBP,Roundup,MT,USA,46.47357528,-108.5576333
RQB,USBP,Big Rapids,MI,USA,43.72263278,-85.50407333
RQE,USBP,Window Rock,AZ,USA,35.65205556,-109.0673889
RRL,USBP,Merrill,WI,USA,45.19927083,-89.71143389
RRT,USBP,Warroad,MN,USA,48.94138889,-95.34838889
RSH,USBP,Russian Mission,AK,USA,61.77967583,-161.3194772
RSL,USBP,Russell,KS,USA,38.87212222,-98.81177611
RSN,USBP,Ruston,LA,USA,32.51444444,-92.58833333
RST,USBP,Rochester,MN,USA,43.90882639,-92.49798722
RSV,USBP,Robinson,IL,USA,39.01604222,-87.649775
RSW,USBP,Ft. Myers,FL,USA,26.53616667,-81.75516667
RTN,USBP,Raton,NM,USA,36.74152778,-104.5021833
RUE,USBP,Russellville,AR,USA,35.25914667,-93.09326611
RUG,USBP,Rugby,ND,USA,48.39035917,-100.0242739
RUQ,USBP,Salisbury,NC,USA,35.64588583,-80.52029306
RUT,USBP,Rutland,VT,USA,43.52990694,-72.949615
RVJ,USBP,Reidsville,GA,USA,32.05897222,-82.15172222
RVL,USBP,Reedsville,PA,USA,40.67737417,-77.62682833
RVN,USBP,Rogersville,TN,USA,36.45757917,-82.88503722
RVS,USBP,Tulsa,OK,USA,36.0396275,-95.984635
RWF,USBP,Redwood Falls,MN,USA,44.54720389,-95.082255
RWI,USBP,Rocky Mount,NC,USA,35.85498861,-77.89295611
RWL,USBP,Rawlins,WY,USA,41.8055975,-107.19994
RWN,USBP,Winamac,IN,USA,41.09226306,-86.61287111
RXE,USBP,Rexburg,ID,USA,43.83391139,-111.805105
RYN,USBP,Tucson,AZ,USA,32.14308333,-111.1728611
RYV,USBP,Watertown,WI,USA,43.16963222,-88.72321222
RYY,USBP,Marietta,GA,USA,34.01315611,-84.59854472
RZL,USBP,Rensselaer,IN,USA,40.94789861,-87.18257944
RZN,USBP,Siren,WI,USA,45.8227275,-92.37250083
RZT,USBP,Chillicothe,OH,USA,39.44136778,-83.02251556
RZZ,USBP,Roanoke Rapids,NC,USA,36.43945583,-77.70934139
S01,USBP,Conrad,MT,USA,48.16863889,-111.9764722
S03,USBP,Ashland,OR,USA,42.19028361,-122.6606283
S05,USBP,Bandon,OR,USA,43.08733083,-124.4095578
S07,USBP,Bend,OR,USA,44.09483333,-121.2006389
S10,USBP,Chelan,WA,USA,47.86597139,-119.9427053
S12,USBP,Albany,OR,USA,44.63781639,-123.0594486
S18,USBP,Forks,WA,USA,47.94146583,-124.3929867
S21,USBP,Sunriver,OR,USA,43.87633333,-121.4530556
S23,USBP,Ione,WA,USA,48.70727528,-117.4126036
S24,USBP,Fremont,OH,USA,41.29570556,-83.03723056
S25,USBP,Watford City,ND,USA,47.79569972,-103.2536992
S27,USBP,Kalispell,MT,USA,48.17856944,-114.3037408
S28,USBP,Dunseith,ND,USA,48.99778194,-100.0434589
S30,USBP,Lebanon,OR,USA,44.529845,-122.9295336
S31,USBP,Lopez,WA,USA,48.48259944,-122.9368444
S32,USBP,Cooperstown,ND,USA,47.42277361,-98.10587139
S33,USBP,Madras,OR,USA,44.66623139,-121.1631
S34,USBP,Plains,MT,USA,47.47243611,-114.900135
S39,USBP,Prineville,OR,USA,44.28699389,-120.9038328
S40,USBP,Prosser,WA,USA,46.212355,-119.7928122
S43,USBP,Snohomish,WA,USA,47.90815306,-122.1054072
S45,USBP,Siletz Bay (Gleneden Beach),OR,USA,44.87761139,-124.0284472
S47,USBP,Tillamook,OR,USA,45.41824194,-123.8143839
S50,USBP,Auburn,WA,USA,47.32815583,-122.2265092
S52,USBP,Winthrop,WA,USA,48.42070056,-120.1470264
S59,USBP,Libby,MT,USA,48.28384528,-115.4902453
S60,USBP,Kenmore,WA,USA,47.75482,-122.2592931
S64,USBP,Stanford,MT,USA,47.14718944,-110.2299289
S66,USBP,Homedale,ID,USA,43.61488056,-116.9215372
S67,USBP,Nampa,ID,USA,43.58133333,-116.5230556
S68,USBP,Orofino,ID,USA,46.49129139,-116.2768061
S69,USBP,Lincoln,MT,USA,46.97494083,-112.6447606
S70,USBP,Othello,WA,USA,46.79486278,-119.0802875
S71,USBP,Chinook,MT,USA,48.59194444,-109.2488889
S72,USBP,St Maries,ID,USA,47.32768722,-116.5773906
S73,USBP,Kamiah,ID,USA,46.21934028,-116.0134736
S80,USBP,Grangeville,ID,USA,45.94255806,-116.1234158
S83,USBP,Kellogg,ID,USA,47.54769889,-116.1885008
S85,USBP,Culbertson,MT,USA,48.15333333,-104.5038889
S87,USBP,Weiser,ID,USA,44.20683056,-116.9623869
S89,USBP,Craigmont,ID,USA,46.24710917,-116.4801447
S93,USBP,Cle Elum,WA,USA,47.18317583,-120.884525
S94,USBP,Colfax,WA,USA,46.8584975,-117.4137964
S97,USBP,Brewster,WA,USA,48.10486806,-119.7206128
SAA,USBP,Saratoga,WY,USA,41.44485944,-106.8235264
SAC,USBP,Sacramento,CA,USA,38.51252389,-121.4934689
SAD,USBP,Safford,AZ,USA,32.85331278,-109.6349708
SAF,USBP,Santa Fe,NM,USA,35.61677778,-106.0881389
SAN,USBP,San Diego,CA,USA,32.73355611,-117.1896567
SAR,USBP,Sparta,IL,USA,38.14893833,-89.69870972
SAT,USBP,San Antonio,TX,USA,29.53369444,-98.46977778
SAV,USBP,Savannah,GA,USA,32.12758333,-81.20213889
SAW,USBP,Gwinn,MI,USA,46.35361111,-87.39583222
SAZ,USBP,Staples,MN,USA,46.38087944,-94.80660167
SBA,USBP,Santa Barbara,CA,USA,34.42621194,-119.8403733
SBD,USBP,San Bernardino,CA,USA,34.09535361,-117.2348742
SBM,USBP,Sheboygan,WI,USA,43.76949444,-87.85158944
SBN,USBP,South Bend,IN,USA,41.70895361,-86.31847417
SBO,USBP,Swainsboro,GA,USA,32.60825,-82.36869444
SBP,USBP,San Luis Obispo,CA,USA,35.23705806,-120.6423931
SBS,USBP,Steamboat Springs,CO,USA,40.51625944,-106.8663006
SBU,USBP,Blue Earth,MN,USA,43.59534389,-94.09284833
SBX,USBP,Shelby,MT,USA,48.54125278,-111.8720722
SBY,USBP,Salisbury,MD,USA,38.34052611,-75.51028806
SCB,USBP,Scribner,NE,USA,41.61033333,-96.62986111
SCC,USBP,Deadhorse,AK,USA,70.19475583,-148.4651608
SCD,USBP,Sylacauga,AL,USA,33.17183583,-86.30553778
SCE,USBP,NA,NA,USA,40.851206,-77.846302
SCH,USBP,Schenectady,NY,USA,42.85245556,-73.9288675
SCK,USBP,Stockton,CA,USA,37.89426694,-121.2386203
SCM,USBP,Scammon Bay,AK,USA,61.84454111,-165.5737492
SCX,USBP,Oneida,TN,USA,36.45569444,-84.58575
SD07,USBP,Bison,SD,USA,45.51859778,-102.4671042
SD10,USBP,Canton,SD,USA,43.30888889,-96.571
SD12,USBP,De Smet,SD,USA,44.43080278,-97.56118861
SD16,USBP,Eureka,SD,USA,45.79998111,-99.6420625
SD18,USBP,Flandreau,SD,USA,44.00386056,-96.59310139
SD22,USBP,Hoven,SD,USA,45.25755861,-99.79783944
SD28,USBP,McLaughlin,SD,USA,45.79680833,-100.7842503
SD32,USBP,Murdo,SD,USA,43.85165639,-100.7120811
SD33,USBP,Parkston,SD,USA,43.37915361,-97.97118278
SD34,USBP,Presho,SD,USA,43.90637833,-100.0370669
SDA,USBP,Shenandoah,IA,USA,40.75148167,-95.41347222
SDF,USBP,Louisville,KY,USA,38.17438889,-85.736
SDL,USBP,Scottsdale,AZ,USA,33.622875,-111.9105333
SDM,USBP,San Diego,CA,USA,32.57230556,-116.98025
SDP,USBP,Sand Point,AK,USA,55.31502778,-160.5176944
SDY,USBP,Sidney,MT,USA,47.70685778,-104.1925544
SEA,USBP,Seattle,WA,USA,47.44898194,-122.3093131
SEE,USBP,San Diego (El Cajon),CA,USA,32.82623111,-116.9724497
SEF,USBP,Sebring,FL,USA,27.45640278,-81.3424
SEG,USBP,Selinsgrove,PA,USA,40.82052917,-76.86377611
SEM,USBP,Selma,AL,USA,32.34394667,-86.98780333
SEP,USBP,Stephenville,TX,USA,32.21532333,-98.17766722
SER,USBP,Seymour,IN,USA,38.92355361,-85.90736556
SET,USBP,St Charles,MO,USA,38.92969444,-90.42996111
SEZ,USBP,Sedona,AZ,USA,34.84862889,-111.7884614
SFB,USBP,Orlando,FL,USA,28.77764,-81.23748944
SFD,USBP,Winner,SD,USA,43.39058278,-99.84256194
SFF,USBP,Spokane,WA,USA,47.68281806,-117.3225583
SFM,USBP,Sanford,ME,USA,43.39386111,-70.70800028
SFO,USBP,San Francisco,CA,USA,37.61900194,-122.3748433
SFQ,USBP,Suffolk,VA,USA,36.68235361,-76.60187333
SFY,USBP,Savanna,IL,USA,42.04581972,-90.10760056
SFZ,USBP,Pawtucket,RI,USA,41.92076333,-71.49138139
SGF,USBP,Springfield,MO,USA,37.24432611,-93.38685806
SGH,USBP,Springfield,OH,USA,39.84028194,-83.84015056
SGJ,USBP,St. Augustine,FL,USA,29.95925,-81.33975
SGR,USBP,Houston,TX,USA,29.62225306,-95.65652889
SGS,USBP,South St Paul,MN,USA,44.85713278,-93.03285389
SGT,USBP,Stuttgart,AR,USA,34.60054,-91.57457417
SGU,USBP,St George,UT,USA,37.09058333,-113.5930556
SGY,USBP,Skagway,AK,USA,59.46006194,-135.3156636
SHD,USBP,Staunton/Harrisonburg,VA,USA,38.26384333,-78.89643806
SHG,USBP,Shungnak,AK,USA,66.88916556,-157.1505119
SHH,USBP,Shishmaref,AK,USA,66.24956861,-166.0895589
SHL,USBP,Sheldon,IA,USA,43.20839361,-95.83343306
SHN,USBP,Shelton,WA,USA,47.23355556,-123.1475556
SHR,USBP,Sheridan,WY,USA,44.76919556,-106.9802794
SHV,USBP,Shreveport,LA,USA,32.4466275,-93.82559833
SHX,USBP,Shageluk,AK,USA,62.69511944,-159.5690614
SIG,USBP,San Juan,PR,USA,18.45675,-66.09883333
SIK,USBP,Sikeston,MO,USA,36.89888889,-89.56175
SIT,USBP,Sitka,AK,USA,57.04713806,-135.3615983
SIV,USBP,Sullivan,IN,USA,39.1147125,-87.44832917
SIY,USBP,Montague,CA,USA,41.78144167,-122.4681094
SJC,USBP,San Jose,CA,USA,37.36186194,-121.9290089
SJN,USBP,St Johns,AZ,USA,34.51855556,-109.37875
SJT,USBP,San Angelo,TX,USA,31.35775,-100.4963056
SJU,USBP,San Juan,PR,USA,18.43941667,-66.00183333
SJX,USBP,St James,MI,USA,45.69227778,-85.56630556
SKA,USBP,NA,NA,USA,47.615058,-117.655803
SKI,USBP,Sac City,IA,USA,42.37908333,-94.97958333
SKW,USBP,Skwentna,AK,USA,61.965295,-151.1913661
SKX,USBP,Taos,NM,USA,36.45819,-105.6724289
SLB,USBP,Storm Lake,IA,USA,42.59719444,-95.24066667
SLC,USBP,Salt Lake City,UT,USA,40.78838778,-111.9777731
SLE,USBP,Salem,OR,USA,44.90952778,-123.0025
SLG,USBP,Siloam Springs,AR,USA,36.19060778,-94.49088306
SLK,USBP,Saranac Lake,NY,USA,44.38531,-74.20618472
SLN,USBP,Salina,KS,USA,38.7914825,-97.65060333
SLO,USBP,Salem,IL,USA,38.64287222,-88.96418528
SLQ,USBP,Sleetmute,AK,USA,61.70931139,-157.1557008
SLR,USBP,Sulphur Springs,TX,USA,33.15983333,-95.62113889
SMD,USBP,Fort Wayne,IN,USA,41.14335389,-85.15277694
SME,USBP,Somerset,KY,USA,37.05419722,-84.61494139
SMF,USBP,Sacramento,CA,USA,38.69542167,-121.5907669
SMN,USBP,Salmon,ID,USA,45.12047778,-113.8820103
SMO,USBP,Santa Monica,CA,USA,34.01582194,-118.4512961
SMQ,USBP,Somerville,NJ,USA,40.62599083,-74.67024333
SMS,USBP,Sumter,SC,USA,33.99569444,-80.3615
SMX,USBP,Santa Maria,CA,USA,34.89924833,-120.4575825
SNA,USBP,Santa Ana,CA,USA,33.67565861,-117.8682225
SNH,USBP,Savannah,TN,USA,35.17036,-88.21587
SNK,USBP,Snyder,TX,USA,32.69338667,-100.9504525
SNL,USBP,Shawnee,OK,USA,35.35730333,-96.94282833
SNP,USBP,St. Paul,AK,USA,57.16733333,-170.2204444
SNS,USBP,Salinas,CA,USA,36.66279222,-121.6063603
SNY,USBP,Sidney,NE,USA,41.10133333,-102.9852778
SOP,USBP,Pinehurst/Southern Pines,NC,USA,35.23735278,-79.39116944
SOV,USBP,Seldovia,AK,USA,59.44243917,-151.7040503
SOW,USBP,Show Low,AZ,USA,34.26527194,-110.0054075
SPA,USBP,Spartanburg,SC,USA,34.91572222,-81.9565
SPB,USBP,Scappoose,OR,USA,45.77250444,-122.8623611
SPF,USBP,Spearfish,SD,USA,44.48022222,-103.7768889
SPG,USBP,St. Petersburg,FL,USA,27.76511111,-82.62697222
SPH,USBP,Springhill,LA,USA,32.98316472,-93.41081028
SPI,USBP,Springfield,IL,USA,39.84395194,-89.67761861
SPN,USBP,NA,NA,N Mariana Islands,14.996111,145.621384
SPS,USBP,Wichita Falls,TX,USA,33.98879611,-98.49189333
SPW,USBP,Spencer,IA,USA,43.16552778,-95.20280556
SPX,USBP,Houston,TX,USA,29.50836111,-95.05133333
SQI,USBP,Sterling Rockfalls,IL,USA,41.74284139,-89.67629028
SQL,USBP,San Carlos,CA,USA,37.511855,-122.2495236
SRB,USBP,Sparta,TN,USA,36.05593278,-85.5307475
SRC,USBP,Searcy,AR,USA,35.21194639,-91.737165
SRQ,USBP,Sarasota,FL,USA,27.39533333,-82.55411111
SRR,USBP,Ruidoso,NM,USA,33.46285,-105.5347508
SRV,USBP,Stony River,AK,USA,61.789875,-156.5881861
SSF,USBP,San Antonio,TX,USA,29.3370075,-98.47114056
SSI,USBP,Brunswick,GA,USA,31.1515925,-81.39134667
SSQ,USBP,Shell Lake,WI,USA,45.73138139,-91.92066194
STC,USBP,St Cloud,MN,USA,45.54532417,-94.05833667
STE,USBP,Stevens Point,WI,USA,44.54513556,-89.53028444
STF,USBP,Starkville,MS,USA,33.43381667,-88.84863806
STJ,USBP,St Joseph,MO,USA,39.77194444,-94.90970556
STK,USBP,Sterling,CO,USA,40.6152625,-103.2646556
STL,USBP,St Louis,MO,USA,38.74768694,-90.35998972
STP,USBP,St Paul,MN,USA,44.9344725,-93.05999861
STS,USBP,Santa Rosa,CA,USA,38.50897694,-122.8128803
STT,USBP,Charlotte Amalie,VI,USA,18.33730556,-64.97336111
STX,USBP,Christiansted,VI,USA,17.70188889,-64.79855556
SUA,USBP,Stuart,FL,USA,27.18169444,-80.22108333
SUD,USBP,Stroud,OK,USA,35.78756833,-96.65862861
SUE,USBP,Sturgeon Bay,WI,USA,44.84366222,-87.42154111
SUN,USBP,Hailey,ID,USA,43.50484139,-114.2965903
SUS,USBP,St Louis,MO,USA,38.66187028,-90.65123
SUT,USBP,Southport,NC,USA,33.92925694,-78.07499167
SUW,USBP,Superior,WI,USA,46.6897175,-92.094655
SUX,USBP,Sioux City,IA,USA,42.40260333,-96.38436694
SVA,USBP,Savoonga,AK,USA,63.68639444,-170.4926361
SVC,USBP,Silver City,NM,USA,32.63654694,-108.1563853
SVE,USBP,Susanville,CA,USA,40.37684111,-120.5730033
SVH,USBP,Statesville,NC,USA,35.76526389,-80.95673611
SVS,USBP,Stevens Village,AK,USA,66.00900528,-149.0959153
SWD,USBP,Seward,AK,USA,60.12693833,-149.4188122
SWF,USBP,Newburgh,NY,USA,41.50409361,-74.10483833
SWO,USBP,Stillwater,OK,USA,36.16025194,-97.08577028
SWT,USBP,Seward,NE,USA,40.86525806,-97.10931306
SWW,USBP,Sweetwater,TX,USA,32.46736806,-100.4665508
SXL,USBP,Summersville,WV,USA,38.23163889,-80.87080556
SXP,USBP,Sheldon Point,AK,USA,62.52055556,-164.8477778
SXQ,USBP,Soldotna,AK,USA,60.47613889,-151.0324444
SYF,USBP,St Francis,KS,USA,39.76104833,-101.7958414
SYI,USBP,Shelbyville,TN,USA,35.56009889,-86.44249333
SYR,USBP,Syracuse,NY,USA,43.11118694,-76.10631056
SYV,USBP,Sylvester,GA,USA,31.55851111,-83.89573389
SZP,USBP,Santa Paula,CA,USA,34.34722167,-119.061215
SZT,USBP,Sandpoint,ID,USA,48.29965139,-116.5597681
SZY,USBP,Selmer,TN,USA,35.20295,-88.49836139
T00,USBP,Anahauac,TX,USA,29.77,-94.66361194
T03,USBP,Tuba City,AZ,USA,36.09276972,-111.3826419
T08,USBP,Tomahawk,WI,USA,45.46913889,-89.80569444
T18,USBP,Falfurrias,TX,USA,27.20683333,-98.12117083
T28,USBP,Lampasas,TX,USA,31.10672694,-98.19600194
T35,USBP,Cameron,TX,USA,30.87935556,-96.97109694
T36,USBP,Tylertown,MS,USA,31.14601111,-90.168145
T41,USBP,La Porte,TX,USA,29.66925,-95.06419444
T44,USBP,Kodiak,AK,USA,57.78083333,-152.3913889
T47,USBP,Wichita Falls,TX,USA,33.86122222,-98.4904425
T49,USBP,Big Spring,TX,USA,32.21261111,-101.5216389
T53,USBP,Robstown,TX,USA,27.77854306,-97.69052389
T56,USBP,Crockett,TX,USA,31.30696111,-95.40383056
T57,USBP,Garland,TX,USA,32.887625,-96.6836075
T60,USBP,Aspermont,TX,USA,33.17231861,-100.1976044
T65,USBP,Weslaco,TX,USA,26.17763889,-97.97305556
T69,USBP,Sinton,TX,USA,28.03925,-97.54244444
T71,USBP,Cuero,TX,USA,29.08358806,-97.26693417
T72,USBP,Hearne,TX,USA,30.87182917,-96.62222639
T74,USBP,Taylor,TX,USA,30.57194444,-97.44316667
T78,USBP,Liberty,TX,USA,30.07780556,-94.69855556
T80,USBP,Kingsville,TX,USA,27.55086111,-98.03091833
T82,USBP,Fredericksburg,TX,USA,30.24369444,-98.90952778
T89,USBP,Castroville,TX,USA,29.34192083,-98.85090056
T90,USBP,Winnie/Stowell,TX,USA,29.80411,-94.43102306
T97,USBP,Port Lavaca,TX,USA,28.65405111,-96.6813125
TAD,USBP,Trinidad,CO,USA,37.25937778,-104.340675
TAL,USBP,Tanana,AK,USA,65.17439528,-152.1093886
TAN,USBP,Taunton,MA,USA,41.87460139,-71.01687583
TAZ,USBP,Taylorville,IL,USA,39.53418583,-89.32781222
TBN,USBP,Fort Leonard Wood,MO,USA,37.74163111,-92.14073611
TBR,USBP,Statesboro,GA,USA,32.48316667,-81.73727778
TCC,USBP,Tucumcari,NM,USA,35.18277806,-103.6031853
TCL,USBP,Tuscaloosa,AL,USA,33.2206275,-87.61140139
TCS,USBP,Truth Or Consequences,NM,USA,33.23694444,-107.27175
TCT,USBP,Takotna,AK,USA,62.99270417,-156.0681903
TCY,USBP,Tracy,CA,USA,37.68910778,-121.4418172
TDF,USBP,Roxboro,NC,USA,36.28489194,-78.98422694
TDO,USBP,Toledo,WA,USA,46.47709083,-122.80686
TDZ,USBP,Toledo,OH,USA,41.56487194,-83.48226139
TEB,USBP,Teterboro,NJ,USA,40.85010139,-74.06083611
TEL,USBP,Tell City,IN,USA,38.01769694,-86.69093
TEW,USBP,Mason,MI,USA,42.56576833,-84.42321861
TEX,USBP,Telluride,CO,USA,37.95375861,-107.90848
TGC,USBP,Trenton,TN,USA,35.93245472,-88.84894028
TGI,USBP,Tangier,VA,USA,37.82513889,-75.99777778
THA,USBP,Tullahoma,TN,USA,35.38015694,-86.24602333
THM,USBP,Thompson Falls,MT,USA,47.57493556,-115.2843164
THP,USBP,Thermopolis,WY,USA,43.65828917,-108.2131542
THV,USBP,York,PA,USA,39.916995,-76.87302611
TIW,USBP,Tacoma,WA,USA,47.26793111,-122.5780997
TIX,USBP,Titusville,FL,USA,28.51479944,-80.7992275
TKA,USBP,Talkeetna,AK,USA,62.3205,-150.0936944
TKE,USBP,Tenakee Springs,AK,USA,57.77965833,-135.2184439
TKI,USBP,McKinney,TX,USA,33.17794778,-96.5905275
TKX,USBP,Kennett,MO,USA,36.23087083,-90.03466806
TLH,USBP,Tallahassee,FL,USA,30.39652778,-84.35033333
TLR,USBP,Tulare,CA,USA,36.15630556,-119.3261667
TLT,USBP,Tuluksak,AK,USA,61.09676222,-160.9684167
TMA,USBP,Tifton,GA,USA,31.42879528,-83.48787167
TMB,USBP,Miami,FL,USA,25.64788889,-80.43277778
TNI,USBP,Peipeinimaru,CQ,USA,14.99685028,-145.6180383
TNP,USBP,Twentynine Palms,CA,USA,34.13208528,-115.9458319
TNT,USBP,Miami,FL,USA,25.86180556,-80.897
TNU,USBP,Newton,IA,USA,41.67442972,-93.02172917
TOA,USBP,Torrance,CA,USA,33.8033775,-118.3396
TOB,USBP,Dodge Center,MN,USA,44.018,-92.8315
TOC,USBP,Toccoa,GA,USA,34.59376444,-83.2958
TOG,USBP,Togiak,AK,USA,59.05284222,-160.3969339
TOI,USBP,Troy,AL,USA,31.86041667,-86.01213889
TOL,USBP,Toledo,OH,USA,41.58680556,-83.80783333
TOP,USBP,Topeka,KS,USA,39.0686575,-95.62248361
TOR,USBP,Torrington,WY,USA,42.0645475,-104.1526986
TPA,USBP,Tampa,FL,USA,27.97547222,-82.53325
TPF,USBP,Tampa,FL,USA,27.91557833,-82.44926083
TPH,USBP,Tonopah,NV,USA,38.06020222,-117.0871536
TPL,USBP,Temple,TX,USA,31.1525,-97.40777778
TPO,USBP,Port Alsworth,AK,USA,60.20433333,-154.3188728
TQE,USBP,Tekamah,NE,USA,41.76352778,-96.17794444
TQH,USBP,Tahlequah,OK,USA,35.92891667,-95.00452778
TQK,USBP,Scott City,KS,USA,38.47427778,-100.8849444
TRI,USBP,Bristol,TN,USA,36.47521417,-82.40742056
TRK,USBP,Truckee,CA,USA,39.32004222,-120.1395628
TRL,USBP,Terrell,TX,USA,32.71004667,-96.26742306
TRM,USBP,Palm Springs,CA,USA,33.62789944,-116.1601194
TRX,USBP,Trenton,MO,USA,40.08351333,-93.59063472
TSO,USBP,Carrollton,OH,USA,40.56186833,-81.07748611
TSP,USBP,Tehachapi,CA,USA,35.13497222,-118.43925
TT01,USBP,Shomu-Shon,CQ,USA,18.12444444,-145.7686111
TTA,USBP,Sanford,NC,USA,35.58247222,-79.10136111
TTD,USBP,Portland,OR,USA,45.54936889,-122.4012519
TTF,USBP,Monroe,MI,USA,41.93990639,-83.43468306
TTN,USBP,Trenton,NJ,USA,40.27669111,-74.81346833
TUL,USBP,Tulsa,OK,USA,36.19837222,-95.88824167
TUP,USBP,Tupelo,MS,USA,34.26810833,-88.769895
TUS,USBP,Tucson,AZ,USA,32.11608333,-110.9410278
TVB,USBP,Cabool,MO,USA,37.13244083,-92.08396167
TVC,USBP,Traverse City,MI,USA,44.74144472,-85.582235
TVF,USBP,Thief River Falls,MN,USA,48.06550028,-96.18336083
TVI,USBP,Thomasville,GA,USA,30.90155194,-83.88133556
TVK,USBP,Centerville,IA,USA,40.68390306,-92.90103333
TVL,USBP,South Lake Tahoe,CA,USA,38.89388167,-119.9953347
TVR,USBP,Tallulah,LA,USA,32.35160639,-91.02768917
TVY,USBP,Tooele,UT,USA,40.6122725,-112.3507719
TWF,USBP,Twin Falls,ID,USA,42.48180389,-114.4877356
TWM,USBP,Two Harbors,MN,USA,47.049225,-91.74514167
TXK,USBP,Texarkana,AR,USA,33.45370806,-93.99102
TYL,USBP,Taylor,AZ,USA,34.45283333,-110.1148056
TYQ,USBP,Indianapolis,IN,USA,40.03064972,-86.2514375
TYR,USBP,Tyler,TX,USA,32.35413889,-95.40238611
TYS,USBP,Knoxville,TN,USA,35.81248722,-83.99285583
TZR,USBP,Columbus,OH,USA,39.90081778,-83.13719361
TZT,USBP,Belle Plaine,IA,USA,41.87877778,-92.28456944
TZV,USBP,Tompkinsville,KY,USA,36.72978,-85.65191556
U02,USBP,Blackfoot,ID,USA,43.20925,-112.3495861
U03,USBP,Buhl,ID,USA,42.59157139,-114.7967178
U05,USBP,Philipsburg,MT,USA,46.31936972,-113.3050642
U08,USBP,Overton,NV,USA,36.56803,-114.4433133
U10,USBP,Preston,ID,USA,42.10690806,-111.9125389
U14,USBP,Nephi,UT,USA,39.73884333,-111.8716011
U25,USBP,Dubois,WY,USA,43.54834722,-109.6902611
U30,USBP,Temple Bar,AZ,USA,36.02054056,-114.3352461
U34,USBP,Green River,UT,USA,38.96136167,-110.2273619
U36,USBP,Aberdeen,ID,USA,42.92102222,-112.8811053
U42,USBP,Salt Lake City,UT,USA,40.61954,-111.9928858
U43,USBP,Monticello,UT,USA,37.937215,-109.3465053
U52,USBP,Beaver,UT,USA,38.23071,-112.6753497
U55,USBP,Panguitch,UT,USA,37.84523333,-112.3918731
U59,USBP,Driggs,ID,USA,43.74193056,-111.0978608
U68,USBP,Cowley/Lovell/Byron,WY,USA,44.91167028,-108.4455092
U69,USBP,Duchesne,UT,USA,40.19190167,-110.3809886
U70,USBP,Cascade,ID,USA,44.4937825,-116.0162422
U76,USBP,Mountain Home,ID,USA,43.13125278,-115.7295944
U77,USBP,Spanish Fork,UT,USA,40.14162139,-111.6613125
U82,USBP,Council,ID,USA,44.7498875,-116.4468092
U96,USBP,Halls Crossing,UT,USA,37.44221444,-110.5695836
UAO,USBP,Aurora,OR,USA,45.24713889,-122.7700556
UBE,USBP,Cumberland,WI,USA,45.50597028,-91.98108694
UBS,USBP,Columbus,MS,USA,33.46539667,-88.38031639
UBX,USBP,Cuba,MO,USA,38.06877667,-91.42885694
UCA,USBP,Utica,NY,USA,43.14511944,-75.38385889
UCP,USBP,New Castle,PA,USA,41.02533778,-80.41337194
UCY,USBP,Union City,TN,USA,36.38025,-88.98547778
UDD,USBP,Palm Springs,CA,USA,33.7484375,-116.2748133
UDG,USBP,Darlington,SC,USA,34.44919444,-79.89036111
UES,USBP,Waukesha,WI,USA,43.04102778,-88.23705556
UGN,USBP,Chicago/Waukegan,IL,USA,42.42216,-87.86790694
UIL,USBP,Forks,WA,USA,47.93714444,-124.5612497
UIN,USBP,Quincy,IL,USA,39.94262417,-91.19445611
UIZ,USBP,Utica,MI,USA,42.66389361,-82.96542583
UKF,USBP,North Wilkesboro,NC,USA,36.22284028,-81.0983375
UKI,USBP,Ukiah,CA,USA,39.12595722,-123.200855
UKL,USBP,Burlington,KS,USA,38.30248472,-95.7249575
UKT,USBP,Quakertown,PA,USA,40.43521194,-75.38192861
ULM,USBP,New Ulm,MN,USA,44.31957306,-94.50230778
ULS,USBP,Ulysses,KS,USA,37.60375278,-101.3733889
UMP,USBP,Indianapolis,IN,USA,39.9352025,-86.04495333
UNI,USBP,Athens/Albany,OH,USA,39.21096222,-82.23142583
UNK,USBP,Unalakleet,AK,USA,63.88835917,-160.7989517
UNO,USBP,West Plains,MO,USA,36.87813889,-91.90269444
UNU,USBP,Juneau,WI,USA,43.42658333,-88.70322222
UNV,USBP,State College,PA,USA,40.84927778,-77.84869444
UOS,USBP,Sewanee,TN,USA,35.20397028,-85.89858889
UOX,USBP,Oxford,MS,USA,34.38431528,-89.53530972
UPP,USBP,Hawi,HI,USA,20.26525583,-155.8599875
USE,USBP,Wauseon,OH,USA,41.61033333,-84.12552778
UTS,USBP,Huntsville,TX,USA,30.74688667,-95.58716667
UUO,USBP,Willow,AK,USA,61.75441667,-150.0516639
UUU,USBP,Newport,RI,USA,41.53243972,-71.28154389
UUV,USBP,Sullivan,MO,USA,38.23343056,-91.16433333
UVA,USBP,Uvalde,TX,USA,29.21135028,-99.74358306
UWL,USBP,New Castle,IN,USA,39.87585167,-85.32646806
UYF,USBP,London,OH,USA,39.93272694,-83.46200361
UZA,USBP,Rock Hill,SC,USA,34.98783333,-81.05716667
VAK,USBP,Chevak,AK,USA,61.53363583,-165.5837322
VAY,USBP,Mount Holly,NJ,USA,39.94289056,-74.84571944
VBT,USBP,Bentonville,AR,USA,36.34571528,-94.219345
VCB,USBP,Vacaville,CA,USA,38.37675167,-121.962455
VCT,USBP,Victoria,TX,USA,28.85255556,-96.91848722
VCV,USBP,Victorville,CA,USA,34.593225,-117.3794667
VDI,USBP,Vidalia,GA,USA,32.19255556,-82.37194444
VDZ,USBP,Valdez,AK,USA,61.13395028,-146.24836
VEE,USBP,Venetie,AK,USA,67.02269444,-146.4137753
VEL,USBP,Vernal,UT,USA,40.44090167,-109.5099203
VER,USBP,Boonville,MO,USA,38.94577556,-92.68277139
VES,USBP,Versailles,OH,USA,40.20441667,-84.53191667
VGT,USBP,Las Vegas,NV,USA,36.21166667,-115.19575
VHN,USBP,Van Horn,TX,USA,31.05784417,-104.7838056
VIH,USBP,Rolla/Vichy,MO,USA,38.12743222,-91.7695225
VIQ,USBP,Neillsville,WI,USA,44.55812861,-90.51224694
VIS,USBP,Visalia,CA,USA,36.31866667,-119.3928889
VJI,USBP,Abingdon,VA,USA,36.68711028,-82.03333583
VLA,USBP,Vandalia,IL,USA,38.99130556,-89.16622222
VLD,USBP,Valdosta,GA,USA,30.7825,-83.27672222
VMR,USBP,Vermillion,SD,USA,42.76528917,-96.93425472
VNC,USBP,Venice,FL,USA,27.07161111,-82.44033333
VNW,USBP,Van Wert,OH,USA,40.86472222,-84.60944444
VNY,USBP,Van Nuys,CA,USA,34.20980972,-118.4899733
VPC,USBP,Cartersville,GA,USA,34.12313889,-84.84869444
VPS,USBP,Valparaiso,FL,USA,30.48325,-86.5254
VPZ,USBP,Valparaiso,IN,USA,41.45396667,-87.00707139
VQQ,USBP,Jacksonville,FL,USA,30.21867306,-81.87666444
VQS,USBP,Isla De Vieques,PR,USA,18.13551806,-65.49182583
VRB,USBP,Vero Beach,FL,USA,27.65555556,-80.41794444
VSF,USBP,Springfield,VT,USA,43.34362889,-72.5173125
VTA,USBP,Newark,OH,USA,40.024675,-82.46182194
VTI,USBP,Vinton,IA,USA,42.21862611,-92.02592806
VTN,USBP,Valentine,NE,USA,42.85767194,-100.547355
VUJ,USBP,Albemarle,NC,USA,35.41669472,-80.15079556
VUO,USBP,Vancouver,WA,USA,45.6204525,-122.6564883
VVV,USBP,Ortonville,MN,USA,45.30566472,-96.42442278
VYS,USBP,Peru/Lasalle,IL,USA,41.35186806,-89.15308417
W04,USBP,Ocean Shores,WA,USA,47.00369806,-124.143785
W05,USBP,Gettysburg,PA,USA,39.84092833,-77.27415139
W11,USBP,Menomonie,WI,USA,44.89234639,-91.86777944
W22,USBP,Buckhannon,WV,USA,39.00035833,-80.27392778
W29,USBP,Stevensville,MD,USA,38.97638889,-76.32963889
W31,USBP,Kenbridge,VA,USA,36.96015,-78.18499861
W33,USBP,Friday Harbor,WA,USA,48.53732194,-123.0096236
W40,USBP,Mt Olive,NC,USA,35.22224722,-78.03779444
W41,USBP,Crisfield,MD,USA,38.01679028,-75.82882056
W44,USBP,Asheboro,NC,USA,35.6538825,-79.8950425
W45,USBP,Luray,VA,USA,38.66705556,-78.50058333
W66,USBP,Warrenton,VA,USA,38.58704667,-77.71138389
W78,USBP,South Boston,VA,USA,36.710045,-78.84802028
W95,USBP,Ocracoke,NC,USA,35.10117083,-75.96595278
W96,USBP,Quinton,VA,USA,37.50320139,-77.12552694
W97,USBP,West Point,VA,USA,37.52122778,-76.7646825
W99,USBP,Petersburg,WV,USA,38.99419444,-79.14438889
WA10,USBP,Camas/Washougal,WA,USA,45.62777778,-122.4041667
WA21,USBP,Electric City,WA,USA,47.92348361,-119.0805789
WA31,USBP,Langley,WA,USA,48.01814917,-122.4384789
WA43,USBP,Odessa,WA,USA,47.3582025,-118.6733264
WAY,USBP,Waynesburg,PA,USA,39.900075,-80.13311667
WBB,USBP,Stebbins,AK,USA,63.51591972,-162.2827394
WBQ,USBP,Beaver,AK,USA,66.36155056,-147.4012186
WBW,USBP,Wilkes-Barre,PA,USA,41.29717222,-75.85120556
WCR,USBP,Chandalar Lake,AK,USA,67.50451667,-148.4832222
WDG,USBP,Enid,OK,USA,36.37920333,-97.79111222
WDR,USBP,Winder,GA,USA,33.98227778,-83.66808333
WHP,USBP,Los Angeles,CA,USA,34.25932528,-118.4134331
WJF,USBP,Lancaster,CA,USA,34.74095944,-118.2189489
WLD,USBP,Winfield/Arkansas City,KS,USA,37.16861556,-97.03752194
WLK,USBP,Selawik,AK,USA,66.60002778,-159.9861944
WLW,USBP,Willows,CA,USA,39.51635389,-122.2175106
WMC,USBP,Winnemucca,NV,USA,40.89661111,-117.8058889
WMO,USBP,White Mountain,AK,USA,64.68919444,-163.4125556
WNA,USBP,Napakiak,AK,USA,60.69118917,-161.9695161
WRG,USBP,Wrangell,AK,USA,56.48432583,-132.3698242
WRL,USBP,Worland,WY,USA,43.96571306,-107.9508308
WSM,USBP,Wiseman,AK,USA,67.40457333,-150.1227417
WSN,USBP,South Naknek,AK,USA,58.70343611,-157.0082511
WST,USBP,Westerly,RI,USA,41.34961694,-71.80337778
WTK,USBP,Noatak,AK,USA,67.56208333,-162.9752778
WVI,USBP,Watsonville,CA,USA,36.93573,-121.7896178
WVL,USBP,Waterville,ME,USA,44.53325,-69.67552778
WWD,USBP,Wildwood,NJ,USA,39.00850694,-74.90827389
WWR,USBP,Woodward,OK,USA,36.4367025,-99.5209975
WYS,USBP,West Yellowstone,MT,USA,44.68839917,-111.1176375
X01,USBP,Everglades,FL,USA,25.84871167,-81.39007944
X06,USBP,Arcadia,FL,USA,27.19199444,-81.83730472
X07,USBP,Lake Wales,FL,USA,27.89380556,-81.62038889
X10,USBP,Belle Glade,FL,USA,26.70089833,-80.66227972
X14,USBP,Labelle,FL,USA,26.74423278,-81.43257556
X16,USBP,Tampa,FL,USA,28.01398389,-82.34527917
X21,USBP,Titusville,FL,USA,28.62234556,-80.835695
X23,USBP,Umatilla,FL,USA,28.922765,-81.65174111
X26,USBP,Sebastian,FL,USA,27.81280389,-80.49560833
X35,USBP,Dunellon,FL,USA,29.06177778,-82.37658333
X40,USBP,Inverness,FL,USA,28.80859639,-82.31648167
X44,USBP,Miami,FL,USA,25.77833333,-80.17027778
X46,USBP,Miami,FL,USA,25.94898194,-80.42338694
X47,USBP,Bunnell,FL,USA,29.46738889,-81.20633333
X51,USBP,Homestead,FL,USA,25.49872139,-80.55422528
X59,USBP,Valkaria,FL,USA,27.96196472,-80.55977556
X60,USBP,Williston,FL,USA,29.35422,-82.47288194
X63,USBP,Humacao,PR,USA,18.13801667,-65.8007175
X66,USBP,Charlotte Amalie,VI,USA,18.33856722,-64.94070111
X67,USBP,Christiansted,VI,USA,17.74719528,-64.70486444
X95,USBP,Fajardo,PR,USA,18.30800972,-65.66182806
X96,USBP,Cruz Bay,VI,USA,18.33689833,-64.79958306
XNA,USBP,Fayetteville/Springdale/Rogers,AR,USA,36.28186944,-94.30681111
XVG,USBP,Longville,MN,USA,46.99016361,-94.20400222
Y03,USBP,Springfield,SD,USA,42.87999833,-97.90117972
Y14,USBP,Tea,SD,USA,43.45747694,-96.80199528
Y15,USBP,Cheboygan,MI,USA,45.65371028,-84.51927306
Y19,USBP,Mandan,ND,USA,46.76823667,-100.8943433
Y27,USBP,Fort Yates,ND,USA,46.06638556,-100.6348492
Y31,USBP,West Branch,MI,USA,44.244825,-84.17980472
Y37,USBP,Park River,ND,USA,48.39443778,-97.78147889
Y47,USBP,New Hudson,MI,USA,42.50311694,-83.62371667
Y50,USBP,Wautoma,WI,USA,44.04162556,-89.30448694
Y51,USBP,Viroqua,WI,USA,43.57913917,-90.90096333
Y55,USBP,Crandon,WI,USA,45.51662972,-88.93344694
Y63,USBP,Elbow Lake,MN,USA,45.98607111,-95.99199861
Y66,USBP,Drummond Island,MI,USA,46.00931139,-83.74393417
Y68,USBP,Tracy,MN,USA,44.24995694,-95.60445389
Y70,USBP,Ionia,MI,USA,42.93769972,-85.06066722
Y74,USBP,Parshall,ND,USA,47.93640083,-102.1421142
Y83,USBP,Sandusky,MI,USA,43.45418694,-82.84938028
Y93,USBP,Atlanta,MI,USA,45.00000833,-84.13333667
YAK,USBP,Yakutat,AK,USA,59.50336056,-139.6602261
YAP,USBP,NA,NA,Federated States of Micronesia,9.5167,138.1
YIP,USBP,Detroit,MI,USA,42.2379275,-83.53040889
YKM,USBP,Yakima,WA,USA,46.56816972,-120.5440594
YKN,USBP,Yankton,SD,USA,42.91669444,-97.38594444
YNG,USBP,Youngstown,OH,USA,41.26073556,-80.67909667
YUM,USBP,Yuma,AZ,USA,32.65658333,-114.6059722
Z08,USBP,Ofu Village,AS,USA,14.18435056,-169.6700236
Z09,USBP,Kasigluk,AK,USA,60.87202194,-162.5248094
Z13,USBP,Akiachak,AK,USA,60.90453167,-161.42091
Z17,USBP,Ophir,AK,USA,63.1460375,-156.529865
Z40,USBP,Goose Bay,AK,USA,61.39445139,-149.8455556
Z55,USBP,Lake Louise,AK,USA,62.29368944,-146.5794219
Z73,USBP,Nelson Lagoon,AK,USA,56.00753611,-161.1603672
Z84,USBP,Clear A.F.B.,AK,USA,64.30120361,-149.1201436
Z91,USBP,Birch Creek,AK,USA,66.27399583,-145.8240381
Z95,USBP,Cibecue,AZ,USA,34.00333333,-110.4441667
ZEF,USBP,Elkin,NC,USA,36.28002361,-80.78606861
ZER,USBP,Pottsville,PA,USA,40.70644889,-76.37314667
ZPH,USBP,Zephyrhills,FL,USA,28.22806472,-82.15591639
ZUN,USBP,Zuni,NM,USA,35.08322694,-108.7917769
ZZV,USBP,Zanesville,OH,USA,39.94445833,-81.89210528
